{
  "type": "FeatureCollection",
  "features": [
    {
      "type": "Feature",
      "geometry": {
        "type": "Point",
        "coordinates": [
          8.599138,
          53.5235328
        ]
      },
      "properties": {
        "id": "tk_brv_osm_n10289600445",
        "name": "Tabak & mehr",
        "address": {
          "street": "Altonaer Straße",
          "number": "4",
          "postalcode": "27570",
          "city": "Bremerhaven",
          "district": "Geestemünde"
        },
        "sources": [
          {
            "type": "osm",
            "id": "node/10289600445",
            "version": 0
          },
          {
            "type": "gmaps",
            "id": "ChIJN3EdPU-xtkcRc6fsQt_IEEQ"
          }
        ],
        "created": "2026-05-21",
        "updated": "2026-05-23",
        "payment": {
          "cards": "yes",
          "girocard": "yes",
          "contactless": "yes"
        },
        "apple_id_attempted": "2026-05-22",
        "google_attempted": "2026-05-25"
      }
    },
    {
      "type": "Feature",
      "geometry": {
        "type": "Point",
        "coordinates": [
          8.5796504,
          53.5608584
        ]
      },
      "properties": {
        "id": "tk_brv_osm_n10933919551",
        "name": "Tabak & Mehr",
        "address": {
          "street": "Rickmersstraße",
          "number": "42",
          "postalcode": "27568",
          "city": "Bremerhaven",
          "district": "Lehe"
        },
        "sources": [
          {
            "type": "osm",
            "id": "node/10933919551",
            "version": 0
          },
          {
            "type": "gmaps",
            "id": "ChIJgwIp9amxtkcRIthX0PE4iN0"
          }
        ],
        "created": "2026-05-21",
        "updated": "2026-05-25",
        "payment": {
          "cards": "yes",
          "girocard": "yes",
          "contactless": "yes"
        },
        "apple_id_attempted": "2026-05-22",
        "hours": {
          "raw": "Tu 06:00-20:00; Th 06:00-20:00; Fr 06:00-20:00; We 06:00-20:00; Mo 06:00-20:00; Sa 07:00-20:00; Su 08:00-20:00"
        },
        "sources_by_field": {
          "hours": "google"
        },
        "google_attempted": "2026-05-25"
      }
    },
    {
      "type": "Feature",
      "geometry": {
        "type": "Point",
        "coordinates": [
          8.5784029,
          53.548887
        ]
      },
      "properties": {
        "id": "tk_brv_osm_n11027566502",
        "name": "smoke",
        "address": {
          "street": "Lloydstraße",
          "number": "6",
          "postalcode": "27568",
          "city": "Bremerhaven",
          "district": "Mitte"
        },
        "sources": [
          {
            "type": "osm",
            "id": "node/11027566502",
            "version": 0
          },
          {
            "type": "gmaps",
            "id": "ChIJ1xn2t3-xtkcRxxRsm6zMkFQ"
          }
        ],
        "created": "2026-05-21",
        "updated": "2026-05-23",
        "payment": {
          "cards": "no",
          "girocard": "yes",
          "contactless": "yes"
        },
        "apple_id_attempted": "2026-05-22",
        "google_attempted": "2026-05-25"
      }
    },
    {
      "type": "Feature",
      "geometry": {
        "type": "Point",
        "coordinates": [
          8.5856491,
          53.5594413
        ]
      },
      "properties": {
        "id": "tk_brv_osm_n11046743472",
        "name": "Nevi Kiosk",
        "address": {
          "street": "Hafenstraße",
          "number": "139",
          "postalcode": "27576",
          "city": "Bremerhaven",
          "district": "Lehe"
        },
        "sources": [
          {
            "type": "osm",
            "id": "node/11046743472",
            "version": 0
          },
          {
            "type": "gmaps",
            "id": "ChIJ3x6DA6ixtkcRLbLjDLyM9H8"
          },
          {
            "type": "apple",
            "id": "14359626322955802952"
          }
        ],
        "created": "2026-05-21",
        "updated": "2026-05-23",
        "payment": {
          "girocard": "yes",
          "cards": "no",
          "contactless": "yes"
        },
        "hours": {
          "raw": "Su 12:00-15:00; Mo-Sa 09:00-19:00"
        }
      }
    },
    {
      "type": "Feature",
      "geometry": {
        "type": "Point",
        "coordinates": [
          8.5826389,
          53.5606456
        ]
      },
      "properties": {
        "id": "tk_brv_osm_n11046744113",
        "name": "Kiosk Varna",
        "address": {
          "street": "Rickmersstraße",
          "number": "23",
          "postalcode": "27568",
          "city": "Bremerhaven",
          "district": "Lehe"
        },
        "sources": [
          {
            "type": "osm",
            "id": "node/11046744113",
            "version": 0
          },
          {
            "type": "gmaps",
            "id": "ChIJD9RrceKxtkcRTRK5AqCGtyc"
          },
          {
            "type": "apple",
            "id": "15019882345365946211"
          }
        ],
        "created": "2026-05-21",
        "updated": "2026-05-23",
        "payment": {
          "girocard": "yes",
          "cards": "no",
          "contactless": "yes"
        },
        "hours": {
          "raw": "Mo-Su 00:00-24:00"
        }
      }
    },
    {
      "type": "Feature",
      "geometry": {
        "type": "Point",
        "coordinates": [
          8.4775155,
          53.5004801
        ]
      },
      "properties": {
        "id": "tk_brv_osm_n1120385093",
        "name": "GetränkePartner",
        "address": {
          "street": "Atenser Allee",
          "number": "117",
          "postalcode": "26954",
          "city": "Nordenham"
        },
        "sources": [
          {
            "type": "osm",
            "id": "node/1120385093",
            "version": 0
          },
          {
            "type": "gmaps",
            "id": "ChIJi9w07cK5tkcRM0K6JnhXwPA"
          }
        ],
        "created": "2026-05-21",
        "updated": "2026-05-25",
        "tags": [
          "barrierefrei"
        ],
        "payment": {
          "cards": "no",
          "girocard": "yes",
          "contactless": "yes"
        },
        "apple_id_attempted": "2026-05-22",
        "hours": {
          "raw": "Tu 08:00-19:00; Th 08:00-19:00; Fr 08:00-19:00; We 08:00-19:00; Mo 08:00-19:00; Sa 08:00-18:00"
        },
        "sources_by_field": {
          "hours": "google"
        },
        "google_attempted": "2026-05-25"
      }
    },
    {
      "type": "Feature",
      "geometry": {
        "type": "Point",
        "coordinates": [
          8.6072511,
          53.5033283
        ]
      },
      "properties": {
        "id": "tk_brv_osm_n11657104436",
        "name": "Kiosk Wulsdorf",
        "address": {
          "street": "Lindenallee",
          "number": "67",
          "postalcode": "27572",
          "city": "Bremerhaven",
          "district": "Wulsdorf"
        },
        "sources": [
          {
            "type": "osm",
            "id": "node/11657104436",
            "version": 0
          },
          {
            "type": "gmaps",
            "id": "ChIJbdrfoai2tkcRIvHjXnwpJg4"
          }
        ],
        "created": "2026-05-21",
        "updated": "2026-05-23",
        "payment_attempted": "2026-05-22",
        "apple_id_attempted": "2026-05-22",
        "google_attempted": "2026-05-25"
      }
    },
    {
      "type": "Feature",
      "geometry": {
        "type": "Point",
        "coordinates": [
          8.6025972,
          53.5306121
        ]
      },
      "properties": {
        "id": "tk_brv_osm_n11669010899",
        "name": "Kiosk im E-Center",
        "address": {
          "street": "Schiffdorfer Chaussee",
          "number": "18",
          "postalcode": "27574",
          "city": "Bremerhaven",
          "district": "Geestemünde"
        },
        "sources": [
          {
            "type": "osm",
            "id": "node/11669010899",
            "version": 0
          },
          {
            "type": "gmaps",
            "id": "ChIJ7dWZiEOxtkcRihYBpcMHL2w"
          }
        ],
        "created": "2026-05-21",
        "updated": "2026-05-25",
        "payment": {
          "cards": "no",
          "girocard": "yes",
          "contactless": "yes"
        },
        "apple_id_attempted": "2026-05-22",
        "hours": {
          "raw": "Tu 07:00-22:00; Th 07:00-22:00; Fr 07:00-22:00; We 07:00-22:00; Sa 07:00-22:00"
        },
        "sources_by_field": {
          "hours": "google"
        },
        "google_attempted": "2026-05-25"
      }
    },
    {
      "type": "Feature",
      "geometry": {
        "type": "Point",
        "coordinates": [
          8.5923844,
          53.5158186
        ]
      },
      "properties": {
        "id": "tk_brv_osm_n11669016581",
        "name": "Delta Markt",
        "address": {
          "street": "Weserstraße",
          "number": "210",
          "postalcode": "27572",
          "city": "Bremerhaven",
          "district": "Wulsdorf"
        },
        "sources": [
          {
            "type": "osm",
            "id": "node/11669016581",
            "version": 0
          },
          {
            "type": "gmaps",
            "id": "ChIJUZbwaESxtkcRj6rAC2G-Nlo"
          }
        ],
        "created": "2026-05-21",
        "updated": "2026-05-25",
        "payment": {
          "girocard": "yes",
          "cards": "no",
          "contactless": "yes"
        },
        "apple_id_attempted": "2026-05-22",
        "hours": {
          "raw": "Tu 06:00-21:30; Th 06:00-21:30; Fr 06:00-21:30; We 06:00-21:30; Mo 06:00-21:30; Sa 06:00-21:30; Su 08:00-21:30"
        },
        "sources_by_field": {
          "hours": "google"
        },
        "google_attempted": "2026-05-25"
      }
    },
    {
      "type": "Feature",
      "geometry": {
        "type": "Point",
        "coordinates": [
          8.6172085,
          53.5888937
        ]
      },
      "properties": {
        "id": "tk_brv_osm_n11669022569",
        "name": "Tabak & Mehr Im Heidjer-Markt",
        "address": {
          "street": "Hans-Böckler-Straße",
          "number": "36c",
          "postalcode": "27578",
          "city": "Bremerhaven",
          "district": "Leherheide"
        },
        "sources": [
          {
            "type": "osm",
            "id": "node/11669022569",
            "version": 0
          },
          {
            "type": "gmaps",
            "id": "ChIJMWfhseixtkcRVS3rSiWAt6U"
          },
          {
            "type": "apple",
            "id": "5393533777212911845"
          }
        ],
        "created": "2026-05-21",
        "updated": "2026-05-23",
        "payment": {
          "cards": "yes",
          "girocard": "yes",
          "contactless": "yes"
        },
        "hours": {
          "raw": "Mo-Fr 08:00-17:45; Sa 08:00-12:45"
        }
      }
    },
    {
      "type": "Feature",
      "geometry": {
        "type": "Point",
        "coordinates": [
          8.5862695,
          53.5644413
        ]
      },
      "properties": {
        "id": "tk_brv_osm_n11669041346",
        "name": "Kiosk Eker",
        "address": {
          "street": "Hafenstraße",
          "number": "200",
          "postalcode": "27568",
          "city": "Bremerhaven",
          "district": "Lehe"
        },
        "sources": [
          {
            "type": "osm",
            "id": "node/11669041346",
            "version": 0
          },
          {
            "type": "gmaps",
            "id": "ChIJLdg7BuuxtkcRdhLpA4yIbCw"
          }
        ],
        "created": "2026-05-21",
        "updated": "2026-05-25",
        "payment": {
          "cards": "no",
          "girocard": "yes",
          "contactless": "yes"
        },
        "apple_id_attempted": "2026-05-22",
        "hours": {
          "raw": "Tu 06:00-13:00,15:00-18:00; Th 06:00-13:00,15:00-18:00; Fr 06:00-13:00,15:00-18:00; We 06:00-13:00,15:00-18:00; Mo 06:00-13:00,15:00-18:00; Sa 06:00-12:30"
        },
        "sources_by_field": {
          "hours": "google"
        },
        "google_attempted": "2026-05-25"
      }
    },
    {
      "type": "Feature",
      "geometry": {
        "type": "Point",
        "coordinates": [
          8.5756155,
          53.5475034
        ]
      },
      "properties": {
        "id": "tk_brv_osm_n11669108486",
        "name": "M. Niemeyer Cigarren",
        "address": {
          "street": "Lloydstraße",
          "number": "35",
          "postalcode": "27568",
          "city": "Bremerhaven",
          "district": "Mitte"
        },
        "sources": [
          {
            "type": "osm",
            "id": "node/11669108486",
            "version": 0
          },
          {
            "type": "gmaps",
            "id": "ChIJOes6XhuxtkcREQMDIeCiD7A"
          }
        ],
        "created": "2026-05-21",
        "updated": "2026-05-23",
        "payment": {
          "cards": "no",
          "girocard": "yes",
          "contactless": "yes"
        },
        "apple_id_attempted": "2026-05-22",
        "google_attempted": "2026-05-25"
      }
    },
    {
      "type": "Feature",
      "geometry": {
        "type": "Point",
        "coordinates": [
          8.633489,
          53.5313826
        ]
      },
      "properties": {
        "id": "tk_brv_osm_n1320177837",
        "name": "Hol'ab",
        "address": {
          "street": "Schiffdorfer Chaussee",
          "number": "225-227",
          "postalcode": "27574",
          "city": "Bremerhaven"
        },
        "sources": [
          {
            "type": "osm",
            "id": "node/1320177837",
            "version": 0
          },
          {
            "type": "gmaps",
            "id": "payment"
          }
        ],
        "created": "2026-05-21",
        "updated": "2026-05-21",
        "hours": {
          "raw": "Mo-Sa 08:00-19:00"
        },
        "tags": [
          "barrierefrei"
        ],
        "payment": {
          "cards": "no",
          "girocard": "yes",
          "contactless": "yes"
        },
        "apple_id_attempted": "2026-05-22"
      }
    },
    {
      "type": "Feature",
      "geometry": {
        "type": "Point",
        "coordinates": [
          8.71665,
          53.4711928
        ]
      },
      "properties": {
        "id": "tk_brv_osm_n1364603152",
        "name": "Getränkemarkt Statezni",
        "address": {
          "street": "Ringstraße",
          "number": "16",
          "postalcode": "27612",
          "city": "Loxstedt",
          "district": "Stinstedt"
        },
        "sources": [
          {
            "type": "osm",
            "id": "node/1364603152",
            "version": 0
          },
          {
            "type": "gmaps",
            "id": "payment"
          }
        ],
        "created": "2026-05-21",
        "updated": "2026-05-23",
        "hours": {
          "raw": "Mo-Fr 08:00-12:00,14:00-18:00; Sa 08:00-12:00"
        },
        "payment": {
          "girocard": "yes",
          "cards": "no",
          "contactless": "yes"
        },
        "apple_id_attempted": "2026-05-22"
      }
    },
    {
      "type": "Feature",
      "geometry": {
        "type": "Point",
        "coordinates": [
          8.5956228,
          53.6070765
        ]
      },
      "properties": {
        "id": "tk_brv_osm_n1506765182",
        "name": "Harders",
        "address": {
          "city": "Geestland",
          "street": "Leher Landstraße",
          "number": "4j",
          "postalcode": "27607",
          "district": "Langen"
        },
        "sources": [
          {
            "type": "osm",
            "id": "node/1506765182",
            "version": 0
          },
          {
            "type": "gmaps",
            "id": "ChIJrbIuUCmutkcRnUdOaAmBZZg"
          }
        ],
        "created": "2026-05-21",
        "updated": "2026-05-23",
        "payment": {
          "cards": "no",
          "girocard": "yes",
          "contactless": "yes"
        },
        "apple_id_attempted": "2026-05-22",
        "google_attempted": "2026-05-22"
      }
    },
    {
      "type": "Feature",
      "geometry": {
        "type": "Point",
        "coordinates": [
          8.587794,
          53.539775
        ]
      },
      "properties": {
        "id": "tk_brv_osm_n1551845331",
        "name": "Tabak & mehr",
        "address": {
          "street": "Ludwigstraße",
          "number": "4",
          "postalcode": "27570",
          "city": "Bremerhaven"
        },
        "sources": [
          {
            "type": "osm",
            "id": "node/1551845331",
            "version": 0
          },
          {
            "type": "gmaps",
            "id": "ChIJE8PBLAyxtkcRObx7k_efP6M"
          }
        ],
        "created": "2026-05-21",
        "updated": "2026-05-21",
        "tags": [
          "barrierefrei"
        ],
        "payment": {
          "cards": "yes",
          "girocard": "yes",
          "contactless": "yes"
        },
        "apple_id_attempted": "2026-05-22",
        "google_attempted": "2026-05-22"
      }
    },
    {
      "type": "Feature",
      "geometry": {
        "type": "Point",
        "coordinates": [
          8.5971132,
          53.5358286
        ]
      },
      "properties": {
        "id": "tk_brv_osm_n1586195128",
        "name": "Tabak & mehr",
        "address": {
          "street": "Bismarckstraße",
          "number": "50",
          "postalcode": "27570",
          "city": "Bremerhaven"
        },
        "sources": [
          {
            "type": "osm",
            "id": "node/1586195128",
            "version": 0
          },
          {
            "type": "gmaps",
            "id": "payment"
          }
        ],
        "created": "2026-05-21",
        "updated": "2026-05-21",
        "hours": {
          "raw": "Mo-Fr 06:00-21:00, Sa 07:00-21:00, Su,PH 08:00-21:00"
        },
        "payment": {
          "cards": "yes",
          "girocard": "yes",
          "contactless": "yes"
        },
        "apple_id_attempted": "2026-05-22"
      }
    },
    {
      "type": "Feature",
      "geometry": {
        "type": "Point",
        "coordinates": [
          8.579016,
          53.5418776
        ]
      },
      "properties": {
        "id": "tk_brv_osm_n1588568029",
        "name": "Tabak und Presse-Eck",
        "address": {
          "street": "Obere Bürger",
          "number": "7",
          "postalcode": "27568"
        },
        "sources": [
          {
            "type": "osm",
            "id": "node/1588568029",
            "version": 0
          },
          {
            "type": "gmaps",
            "id": "payment"
          },
          {
            "type": "apple",
            "id": "5096703862142084414"
          }
        ],
        "created": "2026-05-21",
        "updated": "2026-05-21",
        "hours": {
          "raw": "Mo-Sa 08:30-18:45"
        },
        "tags": [
          "barrierefrei"
        ],
        "payment": {
          "cards": "yes",
          "girocard": "yes",
          "contactless": "yes"
        }
      }
    },
    {
      "type": "Feature",
      "geometry": {
        "type": "Point",
        "coordinates": [
          8.6510257,
          53.5313094
        ]
      },
      "properties": {
        "id": "tk_brv_osm_n1626895087",
        "name": "Kiosk An der Mühle",
        "address": {
          "street": "Bohlenstraße",
          "number": "8",
          "postalcode": "27619",
          "city": "Schiffdorf"
        },
        "sources": [
          {
            "type": "osm",
            "id": "node/1626895087",
            "version": 0
          },
          {
            "type": "apple",
            "id": "9988159249500187440"
          }
        ],
        "created": "2026-05-21",
        "updated": "2026-05-22",
        "hours": {
          "raw": "Mo-Sa 07:00-18:00; Su,PH off"
        },
        "payment_attempted": "2026-05-22",
        "payment": {
          "cards": "yes",
          "contactless": "yes"
        }
      }
    },
    {
      "type": "Feature",
      "geometry": {
        "type": "Point",
        "coordinates": [
          8.5987185,
          53.5362394
        ]
      },
      "properties": {
        "id": "tk_brv_osm_n1634404394",
        "name": "Union-Stuben",
        "address": {
          "street": "Bismarckstraße",
          "number": "59b",
          "postalcode": "27570",
          "city": "Bremerhaven"
        },
        "sources": [
          {
            "type": "osm",
            "id": "node/1634404394",
            "version": 0
          },
          {
            "type": "gmaps",
            "id": "ChIJs0UV1kGxtkcRR0V1cKtLXjY"
          },
          {
            "type": "apple",
            "id": "2942400876973575047"
          }
        ],
        "created": "2026-05-21",
        "updated": "2026-05-22",
        "tags": [
          "sitzgelegenheiten",
          "raucherbereich"
        ],
        "payment": {
          "cash": "yes"
        },
        "hours": {
          "raw": "Su 10:00-20:00; Mo-Th 12:00-22:00; Fr-Sa 12:00-24:00"
        },
        "google_attempted": "2026-05-22",
        "apple_attempted": "2026-05-23"
      }
    },
    {
      "type": "Feature",
      "geometry": {
        "type": "Point",
        "coordinates": [
          8.5945109,
          53.5798413
        ]
      },
      "properties": {
        "id": "tk_brv_osm_n1919209210",
        "name": "Hol'ab",
        "address": {
          "street": "Twischlehe",
          "number": "7",
          "postalcode": "27580",
          "city": "Bremerhaven"
        },
        "sources": [
          {
            "type": "osm",
            "id": "node/1919209210",
            "version": 0
          },
          {
            "type": "gmaps",
            "id": "payment"
          }
        ],
        "created": "2026-05-21",
        "updated": "2026-05-21",
        "hours": {
          "raw": "Mo-Sa 08:00-20:00; PH off"
        },
        "tags": [
          "barrierefrei"
        ],
        "payment": {
          "cards": "no",
          "girocard": "yes",
          "contactless": "yes"
        },
        "apple_id_attempted": "2026-05-22"
      }
    },
    {
      "type": "Feature",
      "geometry": {
        "type": "Point",
        "coordinates": [
          8.5960048,
          53.5800574
        ]
      },
      "properties": {
        "id": "tk_brv_osm_n1919228687",
        "name": "Uta's kleine Kaffeepause",
        "address": {
          "street": "Twischlehe",
          "number": "21",
          "postalcode": "27580",
          "city": "Bremerhaven"
        },
        "sources": [
          {
            "type": "osm",
            "id": "node/1919228687",
            "version": 0
          },
          {
            "type": "gmaps",
            "id": "ChIJVfQRfLixtkcRIUZB0b8plUQ"
          }
        ],
        "created": "2026-05-21",
        "updated": "2026-05-21",
        "payment_attempted": "2026-05-22",
        "apple_id_attempted": "2026-05-22",
        "google_attempted": "2026-05-22"
      }
    },
    {
      "type": "Feature",
      "geometry": {
        "type": "Point",
        "coordinates": [
          8.6384536,
          53.5376816
        ]
      },
      "properties": {
        "id": "tk_brv_osm_n2056024138",
        "name": "Presse & mehr",
        "address": {
          "street": "Postbrookstraße",
          "number": "103",
          "postalcode": "27574",
          "city": "Bremerhaven",
          "district": "Schiffdorferdamm"
        },
        "sources": [
          {
            "type": "osm",
            "id": "node/2056024138",
            "version": 0
          },
          {
            "type": "apple",
            "id": "7875664618447671058"
          }
        ],
        "created": "2026-05-21",
        "updated": "2026-05-23",
        "tags": [
          "barrierefrei"
        ],
        "payment_attempted": "2026-05-22",
        "payment": {
          "cards": "yes",
          "contactless": "yes"
        },
        "hours": {
          "raw": "Sa-Su 08:00-18:00; Mo-Fr 06:00-20:00"
        }
      }
    },
    {
      "type": "Feature",
      "geometry": {
        "type": "Point",
        "coordinates": [
          8.58114,
          53.5418
        ]
      },
      "properties": {
        "id": "tk_brv_osm_n2095561585",
        "name": "Tabak und Pfeifenforum Günter Knorr",
        "address": {
          "street": "Bürgermeister-Smidt-Straße",
          "number": "5",
          "postalcode": "27568",
          "city": "Bremerhaven",
          "district": "Mitte"
        },
        "sources": [
          {
            "type": "osm",
            "id": "node/2095561585",
            "version": 0
          },
          {
            "type": "gmaps",
            "id": "payment"
          }
        ],
        "created": "2026-05-21",
        "updated": "2026-05-23",
        "hours": {
          "raw": "Mo-Sa 08:00-18:00"
        },
        "tags": [
          "barrierefrei"
        ],
        "payment": {
          "girocard": "yes",
          "cards": "no",
          "contactless": "yes"
        },
        "apple_id_attempted": "2026-05-22"
      }
    },
    {
      "type": "Feature",
      "geometry": {
        "type": "Point",
        "coordinates": [
          8.5718089,
          53.5519895
        ]
      },
      "properties": {
        "id": "tk_brv_osm_n2380055731",
        "name": "Alte Bürger Kiosk",
        "address": {
          "street": "Bürgermeister-Smidt-Straße",
          "number": "182",
          "postalcode": "27568",
          "city": "Bremerhaven",
          "district": "Mitte"
        },
        "sources": [
          {
            "type": "osm",
            "id": "node/2380055731",
            "version": 0
          },
          {
            "type": "gmaps",
            "id": "payment"
          },
          {
            "type": "apple",
            "id": "1568078571436788517"
          }
        ],
        "created": "2026-05-21",
        "updated": "2026-05-23",
        "payment": {
          "cards": "no",
          "girocard": "yes",
          "contactless": "yes"
        },
        "hours": {
          "raw": "Mo-Th,Su 09:00-24:00; Fr-Sa 00:00-24:00"
        }
      }
    },
    {
      "type": "Feature",
      "geometry": {
        "type": "Point",
        "coordinates": [
          8.573693,
          53.5493842
        ]
      },
      "properties": {
        "id": "tk_brv_osm_n2381411908",
        "name": "Beyar Kiosk",
        "address": {
          "street": "Bürgermeister-Smidt-Straße",
          "number": "125",
          "postalcode": "27568",
          "city": "Bremerhaven"
        },
        "sources": [
          {
            "type": "osm",
            "id": "node/2381411908",
            "version": 0
          },
          {
            "type": "gmaps",
            "id": "ChIJW23PuQmxtkcREZvQGaoqbfc"
          }
        ],
        "created": "2026-05-21",
        "updated": "2026-05-21",
        "payment": {
          "cards": "yes"
        },
        "apple_id_attempted": "2026-05-22",
        "google_attempted": "2026-05-22"
      }
    },
    {
      "type": "Feature",
      "geometry": {
        "type": "Point",
        "coordinates": [
          8.465417,
          53.4949311
        ]
      },
      "properties": {
        "id": "tk_brv_osm_n2809773416",
        "name": "Vinum Bonum",
        "address": {
          "street": "Heetweg",
          "number": "28",
          "postalcode": "26954",
          "city": "Nordenham",
          "district": "Atens"
        },
        "sources": [
          {
            "type": "osm",
            "id": "node/2809773416",
            "version": 0
          },
          {
            "type": "gmaps",
            "id": "payment"
          },
          {
            "type": "apple",
            "id": "8099673424165030464"
          }
        ],
        "created": "2026-05-21",
        "updated": "2026-05-23",
        "hours": {
          "raw": "We-Fr 15:00-19:00"
        },
        "payment": {
          "cards": "no",
          "girocard": "yes",
          "contactless": "yes"
        }
      }
    },
    {
      "type": "Feature",
      "geometry": {
        "type": "Point",
        "coordinates": [
          8.5699475,
          53.5539509
        ]
      },
      "properties": {
        "id": "tk_brv_osm_n2866225627",
        "name": "Tabak & mehr",
        "address": {
          "street": "Bürgermeister-Smidt-Straße",
          "number": "214",
          "postalcode": "27568",
          "city": "Bremerhaven"
        },
        "sources": [
          {
            "type": "osm",
            "id": "node/2866225627",
            "version": 0
          },
          {
            "type": "gmaps",
            "id": "payment"
          }
        ],
        "created": "2026-05-21",
        "updated": "2026-05-21",
        "hours": {
          "raw": "Mo-Fr 06:00-21:00; Sa 07:00-21:00; Su 08:00-21:00; PH 08:00-21:00"
        },
        "payment": {
          "cards": "no",
          "girocard": "yes",
          "contactless": "yes"
        },
        "apple_id_attempted": "2026-05-22"
      }
    },
    {
      "type": "Feature",
      "geometry": {
        "type": "Point",
        "coordinates": [
          8.5863963,
          53.5623277
        ]
      },
      "properties": {
        "id": "tk_brv_osm_n4711874054",
        "name": "Maltes Kiosk",
        "address": {
          "street": "Hafenstraße",
          "number": "178",
          "postalcode": "27568",
          "city": "Bremerhaven",
          "district": "Lehe"
        },
        "sources": [
          {
            "type": "osm",
            "id": "node/4711874054",
            "version": 0
          },
          {
            "type": "gmaps",
            "id": "ChIJn4vbxAextkcRDciFYxcViTA"
          }
        ],
        "created": "2026-05-21",
        "updated": "2026-05-23",
        "payment_attempted": "2026-05-22",
        "apple_id_attempted": "2026-05-22",
        "google_attempted": "2026-05-22"
      }
    },
    {
      "type": "Feature",
      "geometry": {
        "type": "Point",
        "coordinates": [
          8.5858052,
          53.5609487
        ]
      },
      "properties": {
        "id": "tk_brv_osm_n4711874496",
        "name": "Tabak & Mehr",
        "address": {
          "street": "Hafenstraße",
          "number": "163",
          "city": "Bremerhaven"
        },
        "sources": [
          {
            "type": "osm",
            "id": "node/4711874496",
            "version": 0
          },
          {
            "type": "gmaps",
            "id": "payment"
          }
        ],
        "created": "2026-05-21",
        "updated": "2026-05-21",
        "hours": {
          "raw": "Mo-Sa 06:30-21:00; Su 08:00-21:00"
        },
        "payment": {
          "cards": "yes",
          "girocard": "yes",
          "contactless": "yes"
        },
        "apple_id_attempted": "2026-05-22"
      }
    },
    {
      "type": "Feature",
      "geometry": {
        "type": "Point",
        "coordinates": [
          8.5984363,
          53.5665315
        ]
      },
      "properties": {
        "id": "tk_brv_osm_n4715194841",
        "name": "Paddy´s Kiosk & Stehcafé Am Leher Bahnhof",
        "address": {
          "street": "Bürgermeister-Kirschbaum-Platz",
          "number": "6",
          "postalcode": "27580",
          "city": "Bremerhaven",
          "district": "Lehe"
        },
        "sources": [
          {
            "type": "osm",
            "id": "node/4715194841",
            "version": 0
          },
          {
            "type": "gmaps",
            "id": "ChIJHWG2xpextkcRFLwsvoGDRuI"
          }
        ],
        "created": "2026-05-21",
        "updated": "2026-05-23",
        "payment_attempted": "2026-05-22",
        "apple_id_attempted": "2026-05-22",
        "payment": {
          "cards": "no",
          "contactless": "yes",
          "girocard": "yes"
        },
        "google_attempted": "2026-05-22"
      }
    },
    {
      "type": "Feature",
      "geometry": {
        "type": "Point",
        "coordinates": [
          8.5980561,
          53.5350728
        ]
      },
      "properties": {
        "id": "tk_brv_osm_n5046341009",
        "name": "Tabak & mehr",
        "address": {
          "street": "Friedrich-Ebert-Straße",
          "number": "73",
          "postalcode": "27570",
          "city": "Bremerhaven"
        },
        "sources": [
          {
            "type": "osm",
            "id": "node/5046341009",
            "version": 0
          },
          {
            "type": "gmaps",
            "id": "payment"
          }
        ],
        "created": "2026-05-21",
        "updated": "2026-05-21",
        "hours": {
          "raw": "Mo-Fr 05:00-20:00; Sa 06:00-20:00; PH,Su 08:00-20:00"
        },
        "tags": [
          "barrierefrei"
        ],
        "payment": {
          "cards": "yes",
          "girocard": "yes",
          "contactless": "yes"
        },
        "apple_id_attempted": "2026-05-22"
      }
    },
    {
      "type": "Feature",
      "geometry": {
        "type": "Point",
        "coordinates": [
          8.574843,
          53.547707
        ]
      },
      "properties": {
        "id": "tk_brv_osm_n6516983311",
        "name": "Lloyd-Kiosk",
        "address": {
          "street": "Lloydstraße",
          "number": "36",
          "postalcode": "27568",
          "city": "Bremerhaven",
          "district": "Mitte"
        },
        "sources": [
          {
            "type": "osm",
            "id": "node/6516983311",
            "version": 0
          },
          {
            "type": "gmaps",
            "id": "payment"
          },
          {
            "type": "apple",
            "id": "108852460643000914"
          }
        ],
        "created": "2026-05-21",
        "updated": "2026-05-23",
        "payment": {
          "cards": "no",
          "girocard": "yes",
          "contactless": "yes"
        },
        "hours": {
          "raw": "Sa-Su 10:00-18:00; Mo-Fr 09:00-18:00"
        }
      }
    },
    {
      "type": "Feature",
      "geometry": {
        "type": "Point",
        "coordinates": [
          8.5941028,
          53.5637339
        ]
      },
      "properties": {
        "id": "tk_brv_osm_n798530233",
        "name": "R&M KIOSK",
        "address": {
          "street": "Poststraße",
          "number": "55",
          "postalcode": "27576",
          "city": "Bremerhaven",
          "district": "Lehe"
        },
        "sources": [
          {
            "type": "osm",
            "id": "node/798530233",
            "version": 0
          },
          {
            "type": "apple",
            "id": "10136058085780010193"
          }
        ],
        "created": "2026-05-21",
        "updated": "2026-05-23",
        "hours": {
          "raw": "Mo-Sa 09:00-15:30,16:00-21:00; Su,PH 09:00-21:00"
        },
        "payment_attempted": "2026-05-22",
        "payment": {
          "cards": "yes",
          "contactless": "yes"
        }
      }
    },
    {
      "type": "Feature",
      "geometry": {
        "type": "Point",
        "coordinates": [
          8.5939923,
          53.5455389
        ]
      },
      "properties": {
        "id": "tk_brv_osm_n798553561",
        "name": "Hol'ab",
        "address": {
          "street": "Elbestraße",
          "number": "122",
          "postalcode": "27570",
          "city": "Bremerhaven"
        },
        "sources": [
          {
            "type": "osm",
            "id": "node/798553561",
            "version": 0
          },
          {
            "type": "gmaps",
            "id": "payment"
          }
        ],
        "created": "2026-05-21",
        "updated": "2026-05-21",
        "hours": {
          "raw": "Mo-Sa 08:00-20:00; PH off"
        },
        "tags": [
          "barrierefrei"
        ],
        "payment": {
          "cards": "no",
          "girocard": "yes",
          "contactless": "yes"
        },
        "apple_id_attempted": "2026-05-22"
      }
    },
    {
      "type": "Feature",
      "geometry": {
        "type": "Point",
        "coordinates": [
          8.4782967,
          53.4989874
        ]
      },
      "properties": {
        "id": "tk_brv_osm_n8255719269",
        "name": "Hol'ab",
        "address": {
          "street": "Atenser Allee",
          "number": "108 C",
          "postalcode": "26954",
          "city": "Nordenham"
        },
        "sources": [
          {
            "type": "osm",
            "id": "node/8255719269",
            "version": 0
          },
          {
            "type": "gmaps",
            "id": "payment"
          }
        ],
        "created": "2026-05-21",
        "updated": "2026-05-21",
        "hours": {
          "raw": "Mo-Sa 08:00-20:00; Su,PH off"
        },
        "payment": {
          "cards": "no",
          "girocard": "yes",
          "contactless": "yes"
        },
        "apple_id_attempted": "2026-05-22"
      }
    },
    {
      "type": "Feature",
      "geometry": {
        "type": "Point",
        "coordinates": [
          8.5896223,
          53.5325832
        ]
      },
      "properties": {
        "id": "tk_brv_osm_n9545601239",
        "name": "Dein Kiosk",
        "address": {
          "street": "Georgstraße",
          "number": "37"
        },
        "sources": [
          {
            "type": "osm",
            "id": "node/9545601239",
            "version": 0
          },
          {
            "type": "gmaps",
            "id": "ChIJ2XhtJD-xtkcRgME0gI8a4Wc"
          }
        ],
        "created": "2026-05-21",
        "updated": "2026-05-21",
        "payment": {
          "cards": "yes",
          "girocard": "yes",
          "contactless": "yes"
        },
        "apple_id_attempted": "2026-05-22",
        "google_attempted": "2026-05-22"
      }
    },
    {
      "type": "Feature",
      "geometry": {
        "type": "Point",
        "coordinates": [
          8.5958354,
          53.5998391
        ]
      },
      "properties": {
        "id": "tk_brv_osm_w132380859",
        "name": "Thielke Getränkemarkt",
        "address": {
          "street": "Leher Landstraße",
          "number": "52",
          "postalcode": "27607",
          "city": "Geestland"
        },
        "sources": [
          {
            "type": "osm",
            "id": "way/132380859",
            "version": 0
          },
          {
            "type": "gmaps",
            "id": "payment"
          },
          {
            "type": "apple",
            "id": "13372331864065043909"
          }
        ],
        "created": "2026-05-21",
        "updated": "2026-05-21",
        "hours": {
          "raw": "Mo-Fr 15:00-18:30"
        },
        "payment": {
          "cards": "yes",
          "girocard": "yes",
          "contactless": "yes"
        }
      }
    },
    {
      "type": "Feature",
      "geometry": {
        "type": "Point",
        "coordinates": [
          8.5715428,
          53.5439966
        ]
      },
      "properties": {
        "id": "tk_brv_osm_w133082923",
        "name": "Strandgrill",
        "address": {
          "street": "H.-H.-Meier-Straße",
          "number": "1",
          "postalcode": "27568",
          "city": "Bremerhaven",
          "district": "Mitte"
        },
        "sources": [
          {
            "type": "osm",
            "id": "way/133082923",
            "version": 0
          },
          {
            "type": "gmaps",
            "id": "ChIJ18VABgCxtkcR-hBx-Ctd33k"
          }
        ],
        "created": "2026-05-21",
        "updated": "2026-05-23",
        "tags": [
          "barrierefrei"
        ],
        "payment_attempted": "2026-05-22",
        "apple_id_attempted": "2026-05-22",
        "google_attempted": "2026-05-22"
      }
    },
    {
      "type": "Feature",
      "geometry": {
        "type": "Point",
        "coordinates": [
          8.4786603,
          53.4962308
        ]
      },
      "properties": {
        "id": "tk_brv_osm_w276353405",
        "name": "Muddi's Büdchen",
        "address": {
          "street": "Otto-Lilienthal-Straße",
          "number": "1",
          "postalcode": "26954",
          "city": "Nordenham",
          "district": "Atens"
        },
        "sources": [
          {
            "type": "osm",
            "id": "way/276353405",
            "version": 0
          },
          {
            "type": "gmaps",
            "id": "ChIJ01E9Oa-5tkcR1yqwQVm1F1M"
          }
        ],
        "created": "2026-05-21",
        "updated": "2026-05-23",
        "tags": [
          "barrierefrei"
        ],
        "payment": {
          "cash": "yes"
        },
        "apple_id_attempted": "2026-05-22",
        "google_attempted": "2026-05-22"
      }
    },
    {
      "type": "Feature",
      "geometry": {
        "type": "Point",
        "coordinates": [
          8.64333,
          53.6222455
        ]
      },
      "properties": {
        "id": "tk_brv_osm_w384952810",
        "name": "Raisa eG Tankstelle",
        "address": {
          "street": "Bahnhofsallee",
          "number": "2",
          "postalcode": "27607",
          "city": "Geestland"
        },
        "sources": [
          {
            "type": "osm",
            "id": "way/384952810",
            "version": 0
          },
          {
            "type": "gmaps",
            "id": "ChIJ87-cnXSutkcRaeVfvZmLM3k"
          }
        ],
        "created": "2026-05-21",
        "updated": "2026-05-21",
        "payment": {
          "cards": "no",
          "girocard": "yes",
          "contactless": "yes"
        },
        "apple_id_attempted": "2026-05-22",
        "google_attempted": "2026-05-22"
      }
    },
    {
      "type": "Feature",
      "geometry": {
        "type": "Point",
        "coordinates": [
          8.5841954,
          53.5608735
        ]
      },
      "properties": {
        "id": "tk_brv_osm_n11772197782",
        "name": "Kiosk Amira",
        "address": {},
        "sources": [
          {
            "type": "osm",
            "id": "node/11772197782",
            "version": 0
          }
        ],
        "created": "2026-05-21",
        "updated": "2026-05-25",
        "apple_id_attempted": "2026-05-25",
        "google_attempted": "2026-05-25"
      }
    },
    {
      "type": "Feature",
      "geometry": {
        "type": "Point",
        "coordinates": [
          8.5811032,
          53.5519737
        ]
      },
      "properties": {
        "id": "tk_brv_osm_n12600957010",
        "name": "Kiosk Isso",
        "address": {},
        "sources": [
          {
            "type": "osm",
            "id": "node/12600957010",
            "version": 0
          }
        ],
        "created": "2026-05-21",
        "updated": "2026-05-25",
        "apple_id_attempted": "2026-05-25",
        "google_attempted": "2026-05-25"
      }
    },
    {
      "type": "Feature",
      "geometry": {
        "type": "Point",
        "coordinates": [
          8.4868692,
          53.514453
        ]
      },
      "properties": {
        "id": "tk_brv_osm_n1435701195",
        "name": "Kiosk am Seenpark",
        "address": {},
        "sources": [
          {
            "type": "osm",
            "id": "node/1435701195",
            "version": 0
          }
        ],
        "created": "2026-05-21",
        "updated": "2026-05-25",
        "apple_id_attempted": "2026-05-25",
        "google_attempted": "2026-05-25"
      }
    },
    {
      "type": "Feature",
      "geometry": {
        "type": "Point",
        "coordinates": [
          8.4852508,
          53.4842266
        ]
      },
      "properties": {
        "id": "tk_brv_osm_n1705477958",
        "name": "City-Kiosk",
        "address": {
          "street": "Bahnhofstraße",
          "number": "11"
        },
        "sources": [
          {
            "type": "osm",
            "id": "node/1705477958",
            "version": 0
          }
        ],
        "created": "2026-05-21",
        "updated": "2026-05-25",
        "apple_id_attempted": "2026-05-25",
        "google_attempted": "2026-05-25"
      }
    },
    {
      "type": "Feature",
      "geometry": {
        "type": "Point",
        "coordinates": [
          8.5758377,
          53.5416289
        ]
      },
      "properties": {
        "id": "tk_brv_osm_n2574589560",
        "name": "Whiskey and More",
        "address": {
          "street": "Am Längengrad",
          "number": "12",
          "postalcode": "27568",
          "city": "Bremerhaven"
        },
        "sources": [
          {
            "type": "osm",
            "id": "node/2574589560",
            "version": 0
          }
        ],
        "created": "2026-05-21",
        "updated": "2026-05-25",
        "hours": {
          "raw": "Mo-Sa 10:00-19:00"
        },
        "apple_id_attempted": "2026-05-25",
        "google_attempted": "2026-05-25"
      }
    },
    {
      "type": "Feature",
      "geometry": {
        "type": "Point",
        "coordinates": [
          8.5823864,
          53.5538091
        ]
      },
      "properties": {
        "id": "tk_brv_osm_n2606283708",
        "name": "Tabakwaren Ulli Beckhoff",
        "address": {},
        "sources": [
          {
            "type": "osm",
            "id": "node/2606283708",
            "version": 0
          }
        ],
        "created": "2026-05-21",
        "updated": "2026-05-25",
        "apple_id_attempted": "2026-05-25",
        "google_attempted": "2026-05-25"
      }
    },
    {
      "type": "Feature",
      "geometry": {
        "type": "Point",
        "coordinates": [
          8.5925008,
          53.5350846
        ]
      },
      "properties": {
        "id": "tk_brv_osm_n8850823597",
        "name": "Am Holzhafen",
        "address": {},
        "sources": [
          {
            "type": "osm",
            "id": "node/8850823597",
            "version": 0
          },
          {
            "type": "apple",
            "id": "1490694150981856393"
          }
        ],
        "created": "2026-05-21",
        "updated": "2026-05-25",
        "payment": {
          "cards": "yes",
          "contactless": "yes"
        },
        "sources_by_field": {
          "payment.cards": "apple",
          "payment.contactless": "apple",
          "payment.mobile": "apple",
          "hours": "apple"
        },
        "hours": {
          "raw": "Sa-Su 12:00-21:00; Mo-Fr 07:00-21:00"
        },
        "apple_attempted": "2026-05-25"
      }
    },
    {
      "type": "Feature",
      "geometry": {
        "type": "Point",
        "coordinates": [
          8.4947967,
          53.6479236
        ]
      },
      "properties": {
        "id": "tk_brv_osm_n9967197917",
        "name": "Up'n Swutsch",
        "address": {},
        "sources": [
          {
            "type": "osm",
            "id": "node/9967197917",
            "version": 0
          }
        ],
        "created": "2026-05-21",
        "updated": "2026-05-25",
        "hours": {
          "raw": "\"Wetterabhängig, ab 11 Uhr meistens wird geöffnet\""
        },
        "tags": [
          "barrierefrei"
        ],
        "apple_id_attempted": "2026-05-25",
        "google_attempted": "2026-05-25"
      }
    },
    {
      "type": "Feature",
      "geometry": {
        "type": "Point",
        "coordinates": [
          8.598798,
          53.5347672
        ]
      },
      "properties": {
        "id": "tk_brv_osm_w440725327",
        "name": "ServiceStore DB",
        "address": {},
        "sources": [
          {
            "type": "osm",
            "id": "way/440725327",
            "version": 0
          }
        ],
        "created": "2026-05-21",
        "updated": "2026-05-25",
        "hours": {
          "raw": "Mo-Fr 07:00-19:00; Sa 08:00-16:00; Su 09:00-16:00"
        },
        "payment": {
          "cash": "yes",
          "cards": "unknown",
          "contactless": "unknown",
          "girocard": "yes"
        },
        "tags": [
          "barrierefrei"
        ],
        "apple_id_attempted": "2026-05-25"
      }
    },
    {
      "type": "Feature",
      "geometry": {
        "type": "Point",
        "coordinates": [
          8.7441673,
          53.5817135
        ]
      },
      "properties": {
        "id": "tk_brv_osm_w96947247",
        "name": "Mahlstedt",
        "address": {
          "street": "Geesteallee",
          "number": "40"
        },
        "sources": [
          {
            "type": "osm",
            "id": "way/96947247",
            "version": 0
          }
        ],
        "created": "2026-05-21",
        "updated": "2026-05-25",
        "apple_id_attempted": "2026-05-25",
        "google_attempted": "2026-05-25"
      }
    }
  ]
}
