{
  "type": "FeatureCollection",
  "features": [
    {
      "type": "Feature",
      "geometry": {
        "type": "Point",
        "coordinates": [
          8.823309,
          53.07832699999999
        ]
      },
      "properties": {
        "id": "tk_fr_0638",
        "name": "Kiosk am Dobben",
        "description": "Kleiner Kiosk mit Dönerladen in direkter Nachbarschaft ",
        "address": {
          "street": "Am Dobben",
          "number": "28",
          "postalcode": "28203",
          "city": "Bremen",
          "district": "Mitte"
        },
        "sources": [
          {
            "type": "hopfenstop",
            "id": "86b3ba83-1130-4a4b-8d91-eee9b13aeb59"
          }
        ],
        "created": "2026-05-19",
        "updated": "2026-05-19"
      }
    },
    {
      "type": "Feature",
      "geometry": {
        "type": "Point",
        "coordinates": [
          8.2092412,
          53.14025
        ]
      },
      "properties": {
        "id": "tk_fr_0658",
        "name": "Kiosk am Julius",
        "description": "Alteingesessener Kiosk",
        "address": {
          "street": "Theaterwall",
          "number": "34-36",
          "postalcode": "26122",
          "city": "Oldenburg"
        },
        "sources": [
          {
            "type": "hopfenstop",
            "id": "bfa929d5-a075-436b-9b2d-080224d0ae0d"
          }
        ],
        "created": "2026-05-19",
        "updated": "2026-05-19"
      }
    },
    {
      "type": "Feature",
      "geometry": {
        "type": "Point",
        "coordinates": [
          8.8215167,
          53.0729179
        ]
      },
      "properties": {
        "id": "tk_fr_0671",
        "name": "Flaschenpost",
        "description": "Nicht selten am Sonntag die Rettung. Größe Auswahl und super nette Menschen.",
        "address": {
          "street": "Ostertorsteinweg",
          "number": "11",
          "postalcode": "28203",
          "city": "Bremen",
          "district": "Mitte"
        },
        "hours": {
          "raw": "Mo-Sa 07:00-00:00; Su 08:00-00:00"
        },
        "sources": [
          {
            "type": "hopfenstop",
            "id": "398775dc-31e0-4340-b175-3def202423e8"
          },
          {
            "type": "osm",
            "id": "node/2870274801",
            "version": 0
          }
        ],
        "created": "2026-05-19",
        "updated": "2026-05-20"
      }
    },
    {
      "type": "Feature",
      "geometry": {
        "type": "Point",
        "coordinates": [
          8.823654,
          53.0731215
        ]
      },
      "properties": {
        "id": "tk_fr_0672",
        "name": "Que pasa Amigos",
        "description": "Der Kiosk am Eck.",
        "address": {
          "street": "Vor dem Steintor",
          "number": "8",
          "postalcode": "28203",
          "city": "Bremen",
          "district": "Östliche Vorstadt"
        },
        "sources": [
          {
            "type": "hopfenstop",
            "id": "8d3efc2f-b4d4-4a00-9ff9-eec6cd8f6aa0"
          },
          {
            "type": "osm",
            "id": "node/2948061033",
            "version": 0
          }
        ],
        "created": "2026-05-19",
        "updated": "2026-05-20"
      }
    },
    {
      "type": "Feature",
      "geometry": {
        "type": "Point",
        "coordinates": [
          8.82316,
          53.07252
        ]
      },
      "properties": {
        "id": "tk_fr_0837",
        "name": "Little Asia Kiosk",
        "description": "Kleiner Laden - kleine Preise",
        "address": {
          "street": "Sielwall",
          "number": "7",
          "postalcode": "28203",
          "city": "Bremen",
          "district": "Mitte"
        },
        "sources": [
          {
            "type": "hopfenstop",
            "id": "53875209-07b3-45ae-a7bf-8dc52b55ce49"
          }
        ],
        "created": "2026-05-19",
        "updated": "2026-05-19"
      }
    },
    {
      "type": "Feature",
      "geometry": {
        "type": "Point",
        "coordinates": [
          8.6124846,
          53.1656725
        ]
      },
      "properties": {
        "id": "tk_fr_0960",
        "name": "Delzer Kiosk",
        "description": "Kleiner Kiosk am Deich",
        "address": {
          "street": "Ritzenbütteler Straße",
          "number": "16",
          "postalcode": "27809",
          "city": "Lemwerder"
        },
        "hours": {
          "raw": "Mo-Fr 06:00-22:00; Sa 07:00-22:00; Su 08:00-22:00"
        },
        "sources": [
          {
            "type": "hopfenstop",
            "id": "09caf6ff-8361-4548-b07f-70127e356b80"
          }
        ],
        "created": "2026-05-19",
        "updated": "2026-05-19"
      }
    },
    {
      "type": "Feature",
      "geometry": {
        "type": "Point",
        "coordinates": [
          8.8432955,
          53.072182
        ]
      },
      "properties": {
        "id": "tk_fr_1532",
        "name": "Kiosk am Hulsberg",
        "description": "Kiosk mit türkischen Lebensmitteln, vielen Getränken und GLS Shop ",
        "address": {
          "street": "Am Hulsberg",
          "number": "9",
          "postalcode": "28205",
          "city": "Bremen",
          "district": "Östliche Vorstadt"
        },
        "sources": [
          {
            "type": "hopfenstop",
            "id": "4e109eb8-563b-4d91-83fc-82570fc2a0b1"
          }
        ],
        "created": "2026-05-19",
        "updated": "2026-05-19"
      }
    },
    {
      "type": "Feature",
      "geometry": {
        "type": "Point",
        "coordinates": [
          8.843347099999999,
          53.0719659
        ]
      },
      "properties": {
        "id": "tk_fr_1533",
        "name": "Kiosk ",
        "description": "Türkische Lebensmittel, Getränke und GLS Shop, Eis und bunte Tüten ",
        "address": {
          "street": "Am Hulsberg",
          "number": "11",
          "postalcode": "28205",
          "city": "Bremen",
          "district": "Östliche Vorstadt"
        },
        "hours": {
          "raw": "Mo-Su 07:00-22:00"
        },
        "tags": [
          "eis"
        ],
        "sources": [
          {
            "type": "hopfenstop",
            "id": "73f0d2a5-a5be-4576-8872-5b932b0aeb0c"
          }
        ],
        "created": "2026-05-19",
        "updated": "2026-05-19"
      }
    },
    {
      "type": "Feature",
      "geometry": {
        "type": "Point",
        "coordinates": [
          8.8432955,
          53.072182
        ]
      },
      "properties": {
        "id": "tk_fr_1534",
        "name": "Kiosk am Hulsberg",
        "description": "Getränke, Eis, bunte Tüten, türkische Lebensmittel ",
        "address": {
          "street": "Am Hulsberg",
          "number": "9",
          "postalcode": "28205",
          "city": "Bremen",
          "district": "Östliche Vorstadt"
        },
        "hours": {
          "raw": "Mo-Su 07:00-22:00"
        },
        "tags": [
          "eis"
        ],
        "sources": [
          {
            "type": "hopfenstop",
            "id": "2b5f971e-45db-4d5b-b60d-4e6760e4a1db"
          }
        ],
        "created": "2026-05-19",
        "updated": "2026-05-19"
      }
    },
    {
      "type": "Feature",
      "geometry": {
        "type": "Point",
        "coordinates": [
          8.217576,
          53.1364008
        ]
      },
      "properties": {
        "id": "tk_fr_1580",
        "name": "KIOSK am Damm",
        "description": "Kleiner Fensterverkauf-Kiosk mit überdachtem Vorbau und den wichtigsten Dingen des täglichen Bedarfs. Recht große Bierauswahl, auch kastenweise verkauft. Gemischte Tüten leider nur vorabgepackt.",
        "address": {
          "street": "Damm",
          "number": "1",
          "postalcode": "26135",
          "city": "Oldenburg",
          "district": "Gerichtsviertel"
        },
        "hours": {
          "raw": "Mo-Fr 06:00-22:00; Sa-Su 09:00-22:00"
        },
        "tags": [
          "gemischte_tuete",
          "paketshop",
          "zeitschriften",
          "ueberdacht"
        ],
        "sources": [
          {
            "type": "hopfenstop",
            "id": "3f97267f-ad05-47e6-9bd0-1dfa36fa11d5"
          }
        ],
        "created": "2026-05-19",
        "updated": "2026-05-19"
      }
    },
    {
      "type": "Feature",
      "geometry": {
        "type": "Point",
        "coordinates": [
          8.211224,
          53.1457006
        ]
      },
      "properties": {
        "id": "tk_fr_1581",
        "name": "City-Kiosk",
        "description": "Kleiner begehbarer Kiosk mit den wichtigsten Dingen des täglichen Bedarfs. Gute Getränkeauswahl inkl. Heißgetränke.",
        "address": {
          "street": "91er-Straße",
          "number": "6",
          "postalcode": "26121",
          "city": "Oldenburg"
        },
        "hours": {
          "raw": "Mo-Th 08:30-22:30; Fr 08:30-23:00; Sa 09:00-23:00; Su 09:00-22:30"
        },
        "tags": [
          "barrierefrei",
          "gemischte_tuete",
          "innenraum",
          "kaffee",
          "paketshop",
          "schnaps",
          "wein",
          "zeitschriften"
        ],
        "sources": [
          {
            "type": "hopfenstop",
            "id": "d7d5da8b-3c22-42f4-bb7d-2db7dc2ef0f1"
          },
          {
            "type": "osm",
            "id": "node/964851261",
            "version": 0
          }
        ],
        "created": "2026-05-19",
        "updated": "2026-05-20"
      }
    },
    {
      "type": "Feature",
      "geometry": {
        "type": "Point",
        "coordinates": [
          8.8238637,
          53.0729008
        ]
      },
      "properties": {
        "id": "tk_fr_1737",
        "name": "Kiosco amigos",
        "description": "Kiosk",
        "address": {
          "street": "Vor dem Steintor",
          "number": "7",
          "postalcode": "28203",
          "city": "Bremen",
          "district": "Östliche Vorstadt"
        },
        "hours": {
          "raw": "Mo-Su 12:00-00:00"
        },
        "tags": [
          "wc"
        ],
        "sources": [
          {
            "type": "hopfenstop",
            "id": "fe890297-ea38-4683-a7ad-8ec92a8e3f61"
          }
        ],
        "created": "2026-05-19",
        "updated": "2026-05-19"
      }
    },
    {
      "type": "Feature",
      "geometry": {
        "type": "Point",
        "coordinates": [
          8.0966723,
          53.3728205
        ]
      },
      "properties": {
        "id": "tk_fr_1950",
        "name": "Kiosk an der Schule",
        "description": "Kiosk",
        "address": {
          "street": "Plaggenkrugstraße",
          "number": "29",
          "postalcode": "26316",
          "city": "Varel",
          "district": "Obenstrohe"
        },
        "hours": {
          "raw": "Mo-Fr 06:30-20:00; Sa-Su 08:00-20:00"
        },
        "sources": [
          {
            "type": "hopfenstop",
            "id": "95afb075-6c03-4e58-a13e-7d45161badfa"
          }
        ],
        "created": "2026-05-19",
        "updated": "2026-05-19"
      }
    }
  ]
}
