{
  "type": "FeatureCollection",
  "features": [
    {
      "type": "Feature",
      "geometry": {
        "type": "Point",
        "coordinates": [
          13.335739034396244,
          52.50430123107782
        ]
      },
      "properties": {
        "id": "tk_fr_0211",
        "name": "Kiosk Tauentzienstraße Ecke Ranke Straße Berlin",
        "description": "Unter Denkmalschutz stehendes sechseckiges Kiosk schräg ggü Kaiser Wilhelm Gedächtsniskirche.  Mit Presse, Getränken, Süßigkeiten, Souvenirs etc.",
        "address": {
          "street": "Tauentzienstraße",
          "number": "13",
          "postalcode": "10789",
          "city": "Berlin",
          "district": "Charlottenburg"
        },
        "sources": [
          {
            "type": "hopfenstop",
            "id": "5e2daf10-3cac-4ff8-bc20-dc2b978c35ae"
          }
        ],
        "created": "2026-05-19",
        "updated": "2026-05-19"
      }
    },
    {
      "type": "Feature",
      "geometry": {
        "type": "Point",
        "coordinates": [
          13.4353852,
          52.4836964
        ]
      },
      "properties": {
        "id": "tk_fr_0542",
        "name": "Fulda Getränke",
        "description": "Große Auswahl an Getränken, besonders am Hopfensaft",
        "address": {
          "street": "Fuldastraße",
          "number": "53",
          "postalcode": "12043",
          "city": "Berlin",
          "district": "Bezirk Neukölln"
        },
        "sources": [
          {
            "type": "hopfenstop",
            "id": "185364e9-c05d-40a9-93c0-4830befc907b"
          }
        ],
        "created": "2026-05-19",
        "updated": "2026-05-19"
      }
    },
    {
      "type": "Feature",
      "geometry": {
        "type": "Point",
        "coordinates": [
          13.3902355,
          52.5098527
        ]
      },
      "properties": {
        "id": "tk_fr_0568",
        "name": "City Kiosk 56",
        "description": "Kiosk mit guter Bier und Schnappsauswahl",
        "address": {
          "street": "Friedrichstraße",
          "number": "56",
          "postalcode": "10117",
          "city": "Berlin",
          "district": "Mitte"
        },
        "hours": {
          "raw": "Mo-Fr 09:00-02:00; Sa 09:00-04:00; Su 10:00-02:00"
        },
        "tags": [
          "sekt",
          "mate",
          "fritz_kola",
          "wein",
          "innenraum",
          "snacks",
          "schnaps",
          "kaffee",
          "musik"
        ],
        "sources": [
          {
            "type": "hopfenstop",
            "id": "81c38cc9-91e2-4a7f-9a7c-4de41a295291"
          }
        ],
        "created": "2026-05-19",
        "updated": "2026-05-19"
      }
    },
    {
      "type": "Feature",
      "geometry": {
        "type": "Point",
        "coordinates": [
          13.13748,
          52.53109
        ]
      },
      "properties": {
        "id": "tk_fr_0569",
        "name": "Kaiser Kiosk",
        "description": "Kiosk mit Lotto",
        "address": {
          "street": "Hauptstraße",
          "number": "18",
          "postalcode": "10827",
          "city": "Berlin",
          "district": "Bezirk Tempelhof-Schöneberg"
        },
        "hours": {
          "raw": "Mo-Su 00:00-23:59"
        },
        "tags": [
          "lotto"
        ],
        "sources": [
          {
            "type": "hopfenstop",
            "id": "09561c6a-5fbd-4a95-843a-8e0ea43f7720"
          }
        ],
        "created": "2026-05-19",
        "updated": "2026-05-19"
      }
    },
    {
      "type": "Feature",
      "geometry": {
        "type": "Point",
        "coordinates": [
          13.4619695,
          52.5236974
        ]
      },
      "properties": {
        "id": "tk_fr_0570",
        "name": "K Kiosk",
        "description": "kiosk ",
        "address": {
          "street": "Hermann-Blankenstein-Straße",
          "number": "38",
          "postalcode": "10249",
          "city": "Berlin",
          "district": "Bezirk Pankow"
        },
        "sources": [
          {
            "type": "hopfenstop",
            "id": "4ebdeb3b-b0e1-4a6f-b329-6e22f2a6bc7d"
          }
        ],
        "created": "2026-05-19",
        "updated": "2026-05-19"
      }
    },
    {
      "type": "Feature",
      "geometry": {
        "type": "Point",
        "coordinates": [
          13.43586,
          52.48088
        ]
      },
      "properties": {
        "id": "tk_fr_0571",
        "name": "Rathaus Kiosk",
        "description": "kiosk",
        "address": {
          "street": "Erkstraße",
          "number": "1A",
          "postalcode": "12043",
          "city": "Berlin",
          "district": "Bezirk Neukölln"
        },
        "sources": [
          {
            "type": "hopfenstop",
            "id": "1842325c-3308-456f-9c7f-dcdb1f93740e"
          }
        ],
        "created": "2026-05-19",
        "updated": "2026-05-19"
      }
    },
    {
      "type": "Feature",
      "geometry": {
        "type": "Point",
        "coordinates": [
          13.461062,
          52.51087
        ]
      },
      "properties": {
        "id": "tk_fr_0572",
        "name": "Boxi Kiosk",
        "description": "Grosse Bierauswahl",
        "address": {
          "street": "Gärtnerstraße",
          "number": "14",
          "postalcode": "10245",
          "city": "Berlin",
          "district": "Bezirk Friedrichshain-Kreuzberg"
        },
        "sources": [
          {
            "type": "hopfenstop",
            "id": "f04084ba-4b19-4a2b-b4c2-c9d03b134341"
          }
        ],
        "created": "2026-05-19",
        "updated": "2026-05-19"
      }
    },
    {
      "type": "Feature",
      "geometry": {
        "type": "Point",
        "coordinates": [
          13.4959285,
          52.5701525
        ]
      },
      "properties": {
        "id": "tk_fr_0589",
        "name": "Video Inn",
        "description": "Getränke und Chips",
        "address": {
          "street": "Ribnitzer Straße",
          "number": "24",
          "postalcode": "13051",
          "city": "Berlin",
          "district": "Bezirk Lichtenberg"
        },
        "hours": {
          "raw": "Mo-Th 10:00-23:00; Fr-Sa 10:00-01:00; Su 10:00-23:00"
        },
        "sources": [
          {
            "type": "hopfenstop",
            "id": "71e812b3-1865-4f94-bf11-247fe9e294e1"
          }
        ],
        "created": "2026-05-19",
        "updated": "2026-05-19"
      }
    },
    {
      "type": "Feature",
      "geometry": {
        "type": "Point",
        "coordinates": [
          13.3804687,
          52.5436416
        ]
      },
      "properties": {
        "id": "tk_fr_0594",
        "name": "Spätkauf am Humboldthain ",
        "description": "Ganz normaler relativ großer Späti mit gutem Sortiment",
        "address": {
          "street": "Wiesenstraße",
          "number": "65",
          "postalcode": "13357",
          "city": "Berlin",
          "district": "Mitte"
        },
        "sources": [
          {
            "type": "hopfenstop",
            "id": "bd487f0d-caa8-4308-9ac1-193d50d6a5fe"
          }
        ],
        "created": "2026-05-19",
        "updated": "2026-05-19"
      }
    },
    {
      "type": "Feature",
      "geometry": {
        "type": "Point",
        "coordinates": [
          13.43315,
          52.5354
        ]
      },
      "properties": {
        "id": "tk_fr_0640",
        "name": "Food und Getränkemarkt",
        "description": "Späti Kiosk",
        "address": {
          "street": "Danziger Straße",
          "number": "122",
          "postalcode": "10407",
          "city": "Berlin",
          "district": "Bezirk Pankow"
        },
        "tags": [
          "fritz_kola"
        ],
        "sources": [
          {
            "type": "hopfenstop",
            "id": "03e5d09a-985f-4e71-9e1c-5a4708ec6042"
          }
        ],
        "created": "2026-05-19",
        "updated": "2026-05-19"
      }
    },
    {
      "type": "Feature",
      "geometry": {
        "type": "Point",
        "coordinates": [
          13.412763,
          52.5432259
        ]
      },
      "properties": {
        "id": "tk_fr_0653",
        "name": "meinspätkauf.de",
        "description": "Spätkauf Kiosk\nFreundliche Bedienung ",
        "address": {
          "street": "Schönhauser Allee",
          "number": "53",
          "postalcode": "10437",
          "city": "Berlin",
          "district": "Bezirk Pankow"
        },
        "tags": [
          "fritz_kola"
        ],
        "sources": [
          {
            "type": "hopfenstop",
            "id": "9666c0c9-797b-4a4b-8187-889284e76577"
          }
        ],
        "created": "2026-05-19",
        "updated": "2026-05-19"
      }
    },
    {
      "type": "Feature",
      "geometry": {
        "type": "Point",
        "coordinates": [
          13.4305277,
          52.4866915
        ]
      },
      "properties": {
        "id": "tk_fr_0654",
        "name": "Fee s Getränkeladen",
        "description": "Spätkauf Kiosk",
        "address": {
          "street": "Pannierstraße",
          "number": "59",
          "postalcode": "12047",
          "city": "Berlin",
          "district": "Bezirk Neukölln"
        },
        "tags": [
          "fritz_kola"
        ],
        "sources": [
          {
            "type": "hopfenstop",
            "id": "b676fbc6-cd14-4de7-a33f-8e37e168a22a"
          }
        ],
        "created": "2026-05-19",
        "updated": "2026-05-19"
      }
    },
    {
      "type": "Feature",
      "geometry": {
        "type": "Point",
        "coordinates": [
          13.43681,
          52.49529
        ]
      },
      "properties": {
        "id": "tk_fr_0655",
        "name": "Multi-Kulti-Shop",
        "description": "Späti Kiosk",
        "address": {
          "street": "Liegnitzer Straße",
          "number": "42",
          "postalcode": "10999",
          "city": "Berlin",
          "district": "Bezirk Friedrichshain-Kreuzberg"
        },
        "tags": [
          "fritz_kola"
        ],
        "sources": [
          {
            "type": "hopfenstop",
            "id": "2c690e6f-a335-4804-81a5-4698ea8e3469"
          }
        ],
        "created": "2026-05-19",
        "updated": "2026-05-19"
      }
    },
    {
      "type": "Feature",
      "geometry": {
        "type": "Point",
        "coordinates": [
          13.0388964,
          52.3950094
        ]
      },
      "properties": {
        "id": "tk_fr_0838",
        "name": "Spätkauf Geschw.-Scholl-Straße ",
        "description": "Übliches Späti Sortiment und Tabakwaren ",
        "address": {
          "street": "Geschwister-Scholl-Straße",
          "number": "1",
          "postalcode": "14471",
          "city": "Potsdam",
          "district": "Westliche Vorstadt"
        },
        "hours": {
          "raw": "Mo-Fr 08:00-02:00; Sa 08:00-00:00"
        },
        "sources": [
          {
            "type": "hopfenstop",
            "id": "068fcc28-fbac-4c4e-b8aa-aa807a217ee6"
          }
        ],
        "created": "2026-05-19",
        "updated": "2026-05-19"
      }
    },
    {
      "type": "Feature",
      "geometry": {
        "type": "Point",
        "coordinates": [
          13.3487635,
          52.52454059999999
        ]
      },
      "properties": {
        "id": "tk_fr_0955",
        "name": "Späti",
        "description": "Getränke aller Art",
        "address": {
          "street": "Alt-Moabit",
          "number": "106",
          "postalcode": "10559",
          "city": "Berlin",
          "district": "Mitte"
        },
        "hours": {
          "raw": "Mo-Su 09:00-23:00"
        },
        "tags": [
          "fritz_kola"
        ],
        "sources": [
          {
            "type": "hopfenstop",
            "id": "d0509157-72be-4b83-9de2-f686bc0b7431"
          }
        ],
        "created": "2026-05-19",
        "updated": "2026-05-19"
      }
    },
    {
      "type": "Feature",
      "geometry": {
        "type": "Point",
        "coordinates": [
          13.2939923,
          52.4450453
        ]
      },
      "properties": {
        "id": "tk_fr_0961",
        "name": "Presse Lotto Toto",
        "description": "Kiosk ",
        "address": {
          "street": "Drakestraße",
          "number": "39",
          "postalcode": "12205",
          "city": "Berlin",
          "district": "Bezirk Steglitz-Zehlendorf"
        },
        "hours": {
          "raw": "Mo-Sa 09:00-19:00"
        },
        "tags": [
          "fritz_kola"
        ],
        "sources": [
          {
            "type": "hopfenstop",
            "id": "8804c224-750d-4adb-97c1-9cdcac7f4bc0"
          }
        ],
        "created": "2026-05-19",
        "updated": "2026-05-19"
      }
    },
    {
      "type": "Feature",
      "geometry": {
        "type": "Point",
        "coordinates": [
          13.36078,
          52.42907
        ]
      },
      "properties": {
        "id": "tk_fr_0962",
        "name": "Jimmys Kiosk",
        "description": "Späti Kiosk sehr freundliches Personal ",
        "address": {
          "street": "Lüdeckestraße",
          "number": "1",
          "postalcode": "12249",
          "city": "Berlin",
          "district": "Bezirk Steglitz-Zehlendorf"
        },
        "hours": {
          "raw": "Mo-Su 09:00-23:00"
        },
        "tags": [
          "wc",
          "fritz_kola"
        ],
        "sources": [
          {
            "type": "hopfenstop",
            "id": "867ba872-7b89-4d2b-8595-d73730d450e4"
          }
        ],
        "created": "2026-05-19",
        "updated": "2026-05-19"
      }
    },
    {
      "type": "Feature",
      "geometry": {
        "type": "Point",
        "coordinates": [
          13.0584914,
          52.3966607
        ]
      },
      "properties": {
        "id": "tk_fr_0991",
        "name": "Spätkauf",
        "description": "Immer einen Besuch wert- kultiger, authentischer Kiosk mit allem was das Herz begehrt: Süßkram, Bier, Softdrinks, Tabak. u.v.m. Wunderbar zum Geschehen auf sich wirken lassen von der Bar am großen Fenster aus",
        "address": {
          "street": "Friedrich-Ebert-Straße",
          "number": "6",
          "postalcode": "14467",
          "city": "Potsdam",
          "district": "Innenstadt"
        },
        "tags": [
          "zeitschriften",
          "snacks",
          "kaffee",
          "sitzgelegenheiten",
          "innenraum"
        ],
        "sources": [
          {
            "type": "hopfenstop",
            "id": "0e938644-6957-487e-9287-dbdee34414e1"
          }
        ],
        "created": "2026-05-19",
        "updated": "2026-05-19"
      }
    },
    {
      "type": "Feature",
      "geometry": {
        "type": "Point",
        "coordinates": [
          13.0481375,
          52.4123939
        ]
      },
      "properties": {
        "id": "tk_fr_0992",
        "name": "Spätkauf 63",
        "description": "Gute Location direkt neben der FH, großes Angebot, Sitzmöglichkeiten draußen",
        "address": {
          "street": "Georg-Hermann-Allee",
          "number": "9",
          "postalcode": "14469",
          "city": "Potsdam",
          "district": "Potsdam Nord"
        },
        "hours": {
          "raw": "Mo-Th 07:30-01:00; Fr 07:30-03:00; Sa 09:00-03:00"
        },
        "tags": [
          "sitzgelegenheiten",
          "eis"
        ],
        "sources": [
          {
            "type": "hopfenstop",
            "id": "3c618276-28db-42b7-a3be-6b5357d136a2"
          }
        ],
        "created": "2026-05-19",
        "updated": "2026-05-19"
      }
    },
    {
      "type": "Feature",
      "geometry": {
        "type": "Point",
        "coordinates": [
          13.4140825,
          52.54859250000001
        ]
      },
      "properties": {
        "id": "tk_fr_1001",
        "name": "Spätkauf Party Shop Berlin ",
        "description": "All in One",
        "address": {
          "street": "Schönhauser Allee",
          "number": "72C",
          "postalcode": "10437",
          "city": "Berlin",
          "district": "Bezirk Pankow"
        },
        "hours": {
          "raw": "Mo-Sa 10:00-03:00"
        },
        "sources": [
          {
            "type": "hopfenstop",
            "id": "4d493660-73b2-4116-a259-f0082958fea2"
          }
        ],
        "created": "2026-05-19",
        "updated": "2026-05-19"
      }
    },
    {
      "type": "Feature",
      "geometry": {
        "type": "Point",
        "coordinates": [
          13.4587351,
          52.5129037
        ]
      },
      "properties": {
        "id": "tk_fr_1012",
        "name": "Spätkauf",
        "description": "Getränke, Tabakwaren, Zeitschriften ",
        "address": {
          "street": "Boxhagener Straße",
          "number": "106",
          "postalcode": "10245",
          "city": "Berlin",
          "district": "Bezirk Friedrichshain-Kreuzberg"
        },
        "tags": [
          "zeitschriften"
        ],
        "sources": [
          {
            "type": "hopfenstop",
            "id": "93ad879e-5650-4e4b-aa54-9920e3f9390e"
          }
        ],
        "created": "2026-05-19",
        "updated": "2026-05-19"
      }
    },
    {
      "type": "Feature",
      "geometry": {
        "type": "Point",
        "coordinates": [
          13.4577987,
          52.5130929
        ]
      },
      "properties": {
        "id": "tk_fr_1013",
        "name": "Eco‘s Kiosk",
        "description": "Getränke, Snacks, Zigaretten",
        "address": {
          "street": "Niederbarnimstraße",
          "number": "14",
          "postalcode": "10247",
          "city": "Berlin",
          "district": "Bezirk Friedrichshain-Kreuzberg"
        },
        "tags": [
          "snacks"
        ],
        "sources": [
          {
            "type": "hopfenstop",
            "id": "e486f7c7-05dd-4877-8ba9-b16d71f25418"
          }
        ],
        "created": "2026-05-19",
        "updated": "2026-05-19"
      }
    },
    {
      "type": "Feature",
      "geometry": {
        "type": "Point",
        "coordinates": [
          13.4602978,
          52.5149538
        ]
      },
      "properties": {
        "id": "tk_fr_1014",
        "name": "SPIFF 24",
        "description": "Tabakwaren, Süsswaren, Spirituosen, Getränke, Lebensmittel",
        "address": {
          "street": "Niederbarnimstraße",
          "number": "27",
          "postalcode": "10247",
          "city": "Berlin",
          "district": "Bezirk Friedrichshain-Kreuzberg"
        },
        "tags": [
          "wc"
        ],
        "sources": [
          {
            "type": "hopfenstop",
            "id": "99cab314-7d1e-4e9e-8bf1-5adf7899a180"
          }
        ],
        "created": "2026-05-19",
        "updated": "2026-05-19"
      }
    },
    {
      "type": "Feature",
      "geometry": {
        "type": "Point",
        "coordinates": [
          13.4605875,
          52.5167636
        ]
      },
      "properties": {
        "id": "tk_fr_1015",
        "name": "ROJ Spätkauf",
        "description": "Getränke, Tabakwaren, Coffee to go",
        "address": {
          "street": "Proskauer Straße",
          "number": "31",
          "postalcode": "10247",
          "city": "Berlin",
          "district": "Bezirk Friedrichshain-Kreuzberg"
        },
        "sources": [
          {
            "type": "hopfenstop",
            "id": "873e4423-4a0a-4dd7-b9f2-b9c4c468e25a"
          }
        ],
        "created": "2026-05-19",
        "updated": "2026-05-19"
      }
    },
    {
      "type": "Feature",
      "geometry": {
        "type": "Point",
        "coordinates": [
          13.35654,
          52.55125
        ]
      },
      "properties": {
        "id": "tk_fr_1024",
        "name": "Mini Markt ",
        "description": "Kiosk Späti",
        "address": {
          "street": "Amsterdamer Straße",
          "number": "17A",
          "postalcode": "13347",
          "city": "Berlin",
          "district": "Mitte"
        },
        "tags": [
          "fritz_kola"
        ],
        "sources": [
          {
            "type": "hopfenstop",
            "id": "cfed13dc-18f7-4cfd-a952-0a9529d8a288"
          }
        ],
        "created": "2026-05-19",
        "updated": "2026-05-19"
      }
    },
    {
      "type": "Feature",
      "geometry": {
        "type": "Point",
        "coordinates": [
          13.3595134,
          52.55088689999999
        ]
      },
      "properties": {
        "id": "tk_fr_1025",
        "name": "Gökis Tabak und Zeitschriften ",
        "description": "Kiosk Späti ",
        "address": {
          "street": "Malplaquetstraße",
          "number": "13",
          "postalcode": "13347",
          "city": "Berlin",
          "district": "Mitte"
        },
        "tags": [
          "fritz_kola"
        ],
        "sources": [
          {
            "type": "hopfenstop",
            "id": "1c2a1793-597d-42a1-bafa-5319155c019e"
          }
        ],
        "created": "2026-05-19",
        "updated": "2026-05-19"
      }
    },
    {
      "type": "Feature",
      "geometry": {
        "type": "Point",
        "coordinates": [
          13.3577101,
          52.55151
        ]
      },
      "properties": {
        "id": "tk_fr_1026",
        "name": "Bonbon Wasser",
        "description": "Kiosk Späti",
        "address": {
          "street": "Malplaquetstraße",
          "number": "27",
          "postalcode": "13347",
          "city": "Berlin",
          "district": "Mitte"
        },
        "tags": [
          "fritz_kola"
        ],
        "sources": [
          {
            "type": "hopfenstop",
            "id": "61ca1b83-50b4-4ed1-9e46-65ddb167c50b"
          }
        ],
        "created": "2026-05-19",
        "updated": "2026-05-19"
      }
    },
    {
      "type": "Feature",
      "geometry": {
        "type": "Point",
        "coordinates": [
          13.3580052,
          52.5519995
        ]
      },
      "properties": {
        "id": "tk_fr_1027",
        "name": "Zeitung Lotto Laden",
        "description": "Kiosk Späti",
        "address": {
          "street": "Liebenwalder Straße",
          "number": "34",
          "postalcode": "13347",
          "city": "Berlin",
          "district": "Mitte"
        },
        "tags": [
          "fritz_kola"
        ],
        "sources": [
          {
            "type": "hopfenstop",
            "id": "010551c5-881d-4de5-a761-4d34fd66e25b"
          }
        ],
        "created": "2026-05-19",
        "updated": "2026-05-19"
      }
    },
    {
      "type": "Feature",
      "geometry": {
        "type": "Point",
        "coordinates": [
          13.3615999,
          52.55121
        ]
      },
      "properties": {
        "id": "tk_fr_1028",
        "name": "Zeitung Tabakwaren ",
        "description": "Kiosk Späti",
        "address": {
          "street": "Groninger Straße",
          "number": "1",
          "postalcode": "13347",
          "city": "Berlin",
          "district": "Mitte"
        },
        "tags": [
          "fritz_kola"
        ],
        "sources": [
          {
            "type": "hopfenstop",
            "id": "80ba9be7-cedb-4694-9afd-651a989733c1"
          }
        ],
        "created": "2026-05-19",
        "updated": "2026-05-19"
      }
    },
    {
      "type": "Feature",
      "geometry": {
        "type": "Point",
        "coordinates": [
          13.36518,
          52.5522593
        ]
      },
      "properties": {
        "id": "tk_fr_1029",
        "name": "All in one Spätkauf",
        "description": "Kiosk Späti ",
        "address": {
          "street": "Liebenwalder Straße",
          "number": "5",
          "postalcode": "13347",
          "city": "Berlin",
          "district": "Mitte"
        },
        "tags": [
          "fritz_kola"
        ],
        "sources": [
          {
            "type": "hopfenstop",
            "id": "3dbd89f6-9e3f-44db-b535-092f92e6a3d9"
          }
        ],
        "created": "2026-05-19",
        "updated": "2026-05-19"
      }
    },
    {
      "type": "Feature",
      "geometry": {
        "type": "Point",
        "coordinates": [
          13.3667461,
          52.552035
        ]
      },
      "properties": {
        "id": "tk_fr_1030",
        "name": "Tele Internet- Café ",
        "description": "Kiosk Späti",
        "address": {
          "street": "Liebenwalder Straße",
          "number": "61",
          "postalcode": "13347",
          "city": "Berlin",
          "district": "Mitte"
        },
        "tags": [
          "fritz_kola"
        ],
        "sources": [
          {
            "type": "hopfenstop",
            "id": "7195138d-667c-42b1-b665-acdebc6a673c"
          }
        ],
        "created": "2026-05-19",
        "updated": "2026-05-19"
      }
    },
    {
      "type": "Feature",
      "geometry": {
        "type": "Point",
        "coordinates": [
          13.3643599,
          52.55001
        ]
      },
      "properties": {
        "id": "tk_fr_1031",
        "name": "First Class Spätkauf",
        "description": "Kiosk Späti ",
        "address": {
          "street": "Schulstraße",
          "number": "117",
          "postalcode": "13347",
          "city": "Berlin",
          "district": "Mitte"
        },
        "tags": [
          "fritz_kola"
        ],
        "sources": [
          {
            "type": "hopfenstop",
            "id": "a0186351-b962-4e0d-8920-55a19754b6fa"
          }
        ],
        "created": "2026-05-19",
        "updated": "2026-05-19"
      }
    },
    {
      "type": "Feature",
      "geometry": {
        "type": "Point",
        "coordinates": [
          13.3640537,
          52.55003259999999
        ]
      },
      "properties": {
        "id": "tk_fr_1032",
        "name": "Max Multishop",
        "description": "Kiosk Späti",
        "address": {
          "street": "Maxstraße",
          "number": "11",
          "postalcode": "13347",
          "city": "Berlin",
          "district": "Mitte"
        },
        "tags": [
          "fritz_kola"
        ],
        "sources": [
          {
            "type": "hopfenstop",
            "id": "81682794-42e3-4a86-a117-76bfd1934397"
          }
        ],
        "created": "2026-05-19",
        "updated": "2026-05-19"
      }
    },
    {
      "type": "Feature",
      "geometry": {
        "type": "Point",
        "coordinates": [
          13.3633204,
          52.5505888
        ]
      },
      "properties": {
        "id": "tk_fr_1033",
        "name": "Spätkauf ",
        "description": "Kiosk Späti ",
        "address": {
          "street": "Maxstraße",
          "number": "13",
          "postalcode": "13347",
          "city": "Berlin",
          "district": "Mitte"
        },
        "tags": [
          "fritz_kola"
        ],
        "sources": [
          {
            "type": "hopfenstop",
            "id": "cf3c564d-6bb5-486c-8482-a8fa1e950d32"
          }
        ],
        "created": "2026-05-19",
        "updated": "2026-05-19"
      }
    },
    {
      "type": "Feature",
      "geometry": {
        "type": "Point",
        "coordinates": [
          13.36682,
          52.55184999999999
        ]
      },
      "properties": {
        "id": "tk_fr_1034",
        "name": "Presse Shop ",
        "description": "Kiosk Späti ",
        "address": {
          "street": "Reinickendorfer Straße",
          "number": "72",
          "postalcode": "13347",
          "city": "Berlin",
          "district": "Mitte"
        },
        "tags": [
          "fritz_kola"
        ],
        "sources": [
          {
            "type": "hopfenstop",
            "id": "544e9e9b-745f-49dc-a83c-84ea6b11cd1c"
          }
        ],
        "created": "2026-05-19",
        "updated": "2026-05-19"
      }
    },
    {
      "type": "Feature",
      "geometry": {
        "type": "Point",
        "coordinates": [
          13.3668,
          52.55161
        ]
      },
      "properties": {
        "id": "tk_fr_1035",
        "name": "Spätshop",
        "description": "Kiosk Späti",
        "address": {
          "street": "Reinickendorfer Straße",
          "number": "73",
          "postalcode": "13347",
          "city": "Berlin",
          "district": "Mitte"
        },
        "tags": [
          "fritz_kola"
        ],
        "sources": [
          {
            "type": "hopfenstop",
            "id": "a4b4cb3d-f5f8-48cb-b07d-b615dee182a1"
          }
        ],
        "created": "2026-05-19",
        "updated": "2026-05-19"
      }
    },
    {
      "type": "Feature",
      "geometry": {
        "type": "Point",
        "coordinates": [
          13.3695028,
          52.54291250000001
        ]
      },
      "properties": {
        "id": "tk_fr_1036",
        "name": "Spätkauf",
        "description": "Kiosk Späti ",
        "address": {
          "street": "Reinickendorfer Straße",
          "number": "116",
          "postalcode": "13347",
          "city": "Berlin",
          "district": "Mitte"
        },
        "tags": [
          "fritz_kola"
        ],
        "sources": [
          {
            "type": "hopfenstop",
            "id": "75653a4c-4404-4d37-9a3d-8a1ae9b04b98"
          }
        ],
        "created": "2026-05-19",
        "updated": "2026-05-19"
      }
    },
    {
      "type": "Feature",
      "geometry": {
        "type": "Point",
        "coordinates": [
          13.3336,
          52.56053
        ]
      },
      "properties": {
        "id": "tk_fr_1220",
        "name": "Vitalina Feinkost Getränke",
        "description": "Kiosk Späti",
        "address": {
          "street": "Müllerstraße",
          "number": "90",
          "postalcode": "13349",
          "city": "Berlin",
          "district": "Mitte"
        },
        "tags": [
          "fritz_kola"
        ],
        "sources": [
          {
            "type": "hopfenstop",
            "id": "1d1f7a2a-92fb-4c70-b32d-79671708a861"
          }
        ],
        "created": "2026-05-19",
        "updated": "2026-05-19"
      }
    },
    {
      "type": "Feature",
      "geometry": {
        "type": "Point",
        "coordinates": [
          13.3357925,
          52.5595766
        ]
      },
      "properties": {
        "id": "tk_fr_1221",
        "name": "Getränkeshop",
        "description": "Kiosk Späti ",
        "address": {
          "street": "Müllerstraße",
          "number": "97",
          "postalcode": "13349",
          "city": "Berlin",
          "district": "Mitte"
        },
        "tags": [
          "fritz_kola"
        ],
        "sources": [
          {
            "type": "hopfenstop",
            "id": "e5c68f93-053a-40e6-8b9d-a3627ae4f9a9"
          }
        ],
        "created": "2026-05-19",
        "updated": "2026-05-19"
      }
    },
    {
      "type": "Feature",
      "geometry": {
        "type": "Point",
        "coordinates": [
          13.3415525,
          52.55661629999999
        ]
      },
      "properties": {
        "id": "tk_fr_1222",
        "name": "Multishop ",
        "description": "Kiosk Späti ",
        "address": {
          "street": "Müllerstraße",
          "number": "68",
          "postalcode": "13349",
          "city": "Berlin",
          "district": "Mitte"
        },
        "tags": [
          "fritz_kola"
        ],
        "sources": [
          {
            "type": "hopfenstop",
            "id": "6e6a1539-b5f2-4bdb-a23c-30676bfda9be"
          }
        ],
        "created": "2026-05-19",
        "updated": "2026-05-19"
      }
    },
    {
      "type": "Feature",
      "geometry": {
        "type": "Point",
        "coordinates": [
          13.34214,
          52.55566
        ]
      },
      "properties": {
        "id": "tk_fr_1223",
        "name": "Lotto Tabak Presse Post",
        "description": "Kiosk Späti",
        "address": {
          "street": "Müllerstraße",
          "number": "113",
          "postalcode": "13349",
          "city": "Berlin",
          "district": "Mitte"
        },
        "tags": [
          "fritz_kola"
        ],
        "sources": [
          {
            "type": "hopfenstop",
            "id": "8aaf23dc-1982-4502-8431-363a176d75a3"
          }
        ],
        "created": "2026-05-19",
        "updated": "2026-05-19"
      }
    },
    {
      "type": "Feature",
      "geometry": {
        "type": "Point",
        "coordinates": [
          13.3459248,
          52.5546146
        ]
      },
      "properties": {
        "id": "tk_fr_1224",
        "name": "Maasai Market",
        "description": "Kiosk Späti ",
        "address": {
          "street": "Barfusstraße",
          "number": "4",
          "postalcode": "13349",
          "city": "Berlin",
          "district": "Mitte"
        },
        "tags": [
          "fritz_kola"
        ],
        "sources": [
          {
            "type": "hopfenstop",
            "id": "e292b084-d543-45de-8972-66769f714141"
          }
        ],
        "created": "2026-05-19",
        "updated": "2026-05-19"
      }
    },
    {
      "type": "Feature",
      "geometry": {
        "type": "Point",
        "coordinates": [
          13.3453286,
          52.55468219999999
        ]
      },
      "properties": {
        "id": "tk_fr_1225",
        "name": "Lotto Tabak BVG Presse ",
        "description": "Kiosk Späti BVG",
        "address": {
          "street": "Barfusstraße",
          "number": "1",
          "postalcode": "13349",
          "city": "Berlin",
          "district": "Mitte"
        },
        "tags": [
          "fritz_kola"
        ],
        "sources": [
          {
            "type": "hopfenstop",
            "id": "6d9f6da8-a6ea-4560-9b44-c047fa6ca078"
          }
        ],
        "created": "2026-05-19",
        "updated": "2026-05-19"
      }
    },
    {
      "type": "Feature",
      "geometry": {
        "type": "Point",
        "coordinates": [
          13.3471491,
          52.55348129999999
        ]
      },
      "properties": {
        "id": "tk_fr_1226",
        "name": "Belikshop Handy und Spätkauf",
        "description": "Kiosk Späti ",
        "address": {
          "street": "Müllerstraße",
          "number": "54",
          "postalcode": "13349",
          "city": "Berlin",
          "district": "Mitte"
        },
        "tags": [
          "fritz_kola"
        ],
        "sources": [
          {
            "type": "hopfenstop",
            "id": "a21be5f9-51c0-4c9a-8d87-1e5afafe7a97"
          }
        ],
        "created": "2026-05-19",
        "updated": "2026-05-19"
      }
    },
    {
      "type": "Feature",
      "geometry": {
        "type": "Point",
        "coordinates": [
          13.3493492,
          52.5523229
        ]
      },
      "properties": {
        "id": "tk_fr_1227",
        "name": "Spätkauf ",
        "description": "Kiosk Späti ",
        "address": {
          "street": "Müllerstraße",
          "number": "49",
          "postalcode": "13349",
          "city": "Berlin",
          "district": "Mitte"
        },
        "tags": [
          "fritz_kola"
        ],
        "sources": [
          {
            "type": "hopfenstop",
            "id": "546b6df4-f239-4bc6-ade9-0097247e83b3"
          }
        ],
        "created": "2026-05-19",
        "updated": "2026-05-19"
      }
    },
    {
      "type": "Feature",
      "geometry": {
        "type": "Point",
        "coordinates": [
          13.3234429,
          52.5647428
        ]
      },
      "properties": {
        "id": "tk_fr_1378",
        "name": "All in",
        "description": "Kiosk Späti",
        "address": {
          "street": "Scharnweberstraße",
          "number": "124",
          "postalcode": "13405",
          "city": "Berlin",
          "district": "Bezirk Reinickendorf"
        },
        "tags": [
          "fritz_kola"
        ],
        "sources": [
          {
            "type": "hopfenstop",
            "id": "ed628fb1-db7b-4224-a28b-323d852ee796"
          }
        ],
        "created": "2026-05-19",
        "updated": "2026-05-19"
      }
    },
    {
      "type": "Feature",
      "geometry": {
        "type": "Point",
        "coordinates": [
          13.3206082,
          52.5656823
        ]
      },
      "properties": {
        "id": "tk_fr_1379",
        "name": "Ükis Getränkeshop ",
        "description": "Kiosk",
        "address": {
          "street": "Scharnweberstraße",
          "number": "113",
          "postalcode": "13405",
          "city": "Berlin",
          "district": "Bezirk Reinickendorf"
        },
        "tags": [
          "fritz_kola"
        ],
        "sources": [
          {
            "type": "hopfenstop",
            "id": "2bf61862-106f-4f73-8f2a-9c240a881e04"
          }
        ],
        "created": "2026-05-19",
        "updated": "2026-05-19"
      }
    },
    {
      "type": "Feature",
      "geometry": {
        "type": "Point",
        "coordinates": [
          13.3122912,
          52.5682668
        ]
      },
      "properties": {
        "id": "tk_fr_1380",
        "name": "Call Point Internet Café ",
        "description": "Kiosk Späti ",
        "address": {
          "street": "Eichborndamm",
          "number": "2",
          "postalcode": "13403",
          "city": "Berlin",
          "district": "Bezirk Reinickendorf"
        },
        "tags": [
          "fritz_kola"
        ],
        "sources": [
          {
            "type": "hopfenstop",
            "id": "69929c1e-f4d0-4f7d-9fd1-8e2e576461f9"
          }
        ],
        "created": "2026-05-19",
        "updated": "2026-05-19"
      }
    },
    {
      "type": "Feature",
      "geometry": {
        "type": "Point",
        "coordinates": [
          13.3126291,
          52.56914099999999
        ]
      },
      "properties": {
        "id": "tk_fr_1381",
        "name": "Fan and more",
        "description": "Kiosk Späti ",
        "address": {
          "street": "Eichborndamm",
          "number": "12",
          "postalcode": "13403",
          "city": "Berlin",
          "district": "Bezirk Reinickendorf"
        },
        "tags": [
          "fritz_kola"
        ],
        "sources": [
          {
            "type": "hopfenstop",
            "id": "8b76a8ac-9c55-403d-9200-cf56cbc8079c"
          }
        ],
        "created": "2026-05-19",
        "updated": "2026-05-19"
      }
    },
    {
      "type": "Feature",
      "geometry": {
        "type": "Point",
        "coordinates": [
          13.43987,
          52.51571999999999
        ]
      },
      "properties": {
        "id": "tk_fr_1423",
        "name": "Mini Markt Night Shop",
        "description": "Schönes Späti mit bequemen Sitzgelegenheiten draussen. Drinne gibt's reichlich Auswahl an alkoholischen Getränken.",
        "address": {
          "street": "Straße der Pariser Kommune",
          "number": "31",
          "postalcode": "10243",
          "city": "Berlin",
          "district": "Bezirk Friedrichshain-Kreuzberg"
        },
        "hours": {
          "raw": "Mo 00:00-23:59; Tu-Fr 15:00-03:00"
        },
        "tags": [
          "sitzgelegenheiten",
          "sekt",
          "schnaps",
          "snacks",
          "wein"
        ],
        "sources": [
          {
            "type": "hopfenstop",
            "id": "6bac4df2-1670-49eb-99a6-7297a3740419"
          }
        ],
        "created": "2026-05-19",
        "updated": "2026-05-19"
      }
    },
    {
      "type": "Feature",
      "geometry": {
        "type": "Point",
        "coordinates": [
          13.4518761,
          52.51243479999999
        ]
      },
      "properties": {
        "id": "tk_fr_1424",
        "name": "Day & night shop",
        "description": "Spät an der Warschauer Strasse mit einer großen Auswahl an alkoholischen Getränken, sowie Snacks.",
        "address": {
          "street": "Grünberger Straße",
          "number": "32",
          "postalcode": "10245",
          "city": "Berlin",
          "district": "Bezirk Friedrichshain-Kreuzberg"
        },
        "hours": {
          "raw": "Mo-Su 08:00-01:00"
        },
        "tags": [
          "schnaps",
          "snacks"
        ],
        "sources": [
          {
            "type": "hopfenstop",
            "id": "f63d82a1-1e8d-4866-b2ce-e25b20d4475e"
          }
        ],
        "created": "2026-05-19",
        "updated": "2026-05-19"
      }
    },
    {
      "type": "Feature",
      "geometry": {
        "type": "Point",
        "coordinates": [
          13.4511853,
          52.510853
        ]
      },
      "properties": {
        "id": "tk_fr_1425",
        "name": "Kiosk Internet",
        "description": "Kiosk mit Rauchzubehör im Sortiment. Direkt an der Warschauer Strasse. Sitzbänke davor laden zum Verweilen ein.",
        "address": {
          "street": "Kopernikusstraße",
          "number": "1-5",
          "postalcode": "10243",
          "city": "Berlin",
          "district": "Bezirk Friedrichshain-Kreuzberg"
        },
        "hours": {
          "raw": "Mo-Su 00:00-00:00"
        },
        "tags": [
          "lotto",
          "schnaps",
          "sitzgelegenheiten",
          "paketshop"
        ],
        "sources": [
          {
            "type": "hopfenstop",
            "id": "c5a24f59-8d9e-42a2-bb52-9c6614233935"
          }
        ],
        "created": "2026-05-19",
        "updated": "2026-05-19"
      }
    },
    {
      "type": "Feature",
      "geometry": {
        "type": "Point",
        "coordinates": [
          13.4513771,
          52.50899099999999
        ]
      },
      "properties": {
        "id": "tk_fr_1426",
        "name": "Quick Late-Night store",
        "description": "Späti an der Warschauer Strasse. ",
        "address": {
          "street": "B96a",
          "number": "56",
          "postalcode": "10243",
          "city": "Berlin",
          "district": "Bezirk Friedrichshain-Kreuzberg"
        },
        "sources": [
          {
            "type": "hopfenstop",
            "id": "9bac3372-fa6c-4e31-b962-19f22a9f4ef4"
          }
        ],
        "created": "2026-05-19",
        "updated": "2026-05-19"
      }
    },
    {
      "type": "Feature",
      "geometry": {
        "type": "Point",
        "coordinates": [
          13.4520898,
          52.51048609999999
        ]
      },
      "properties": {
        "id": "tk_fr_1427",
        "name": "Night Shop",
        "description": "Späti an der Warschauer Strasse.",
        "address": {
          "street": "Warschauer Straße",
          "number": "64",
          "postalcode": "10243",
          "city": "Berlin",
          "district": "Bezirk Friedrichshain-Kreuzberg"
        },
        "tags": [
          "snacks"
        ],
        "sources": [
          {
            "type": "hopfenstop",
            "id": "2226299f-9112-40a6-82e4-7ac50e76d42a"
          }
        ],
        "created": "2026-05-19",
        "updated": "2026-05-19"
      }
    },
    {
      "type": "Feature",
      "geometry": {
        "type": "Point",
        "coordinates": [
          13.4529614,
          52.5121933
        ]
      },
      "properties": {
        "id": "tk_fr_1428",
        "name": "Eastside Kiosk",
        "description": "Freistehendes Kiosk ",
        "address": {
          "street": "Warschauer Straße",
          "number": "73",
          "postalcode": "10243",
          "city": "Berlin",
          "district": "Bezirk Friedrichshain-Kreuzberg"
        },
        "sources": [
          {
            "type": "hopfenstop",
            "id": "ea1b9618-a509-43dd-8967-618c19a8df5e"
          }
        ],
        "created": "2026-05-19",
        "updated": "2026-05-19"
      }
    },
    {
      "type": "Feature",
      "geometry": {
        "type": "Point",
        "coordinates": [
          13.3410674,
          52.5265804
        ]
      },
      "properties": {
        "id": "tk_fr_1431",
        "name": "Kiez-Shop",
        "description": "Kiosk Späti ",
        "address": {
          "street": "Turmstraße",
          "number": "31",
          "postalcode": "10551",
          "city": "Berlin",
          "district": "Mitte"
        },
        "tags": [
          "fritz_kola"
        ],
        "sources": [
          {
            "type": "hopfenstop",
            "id": "d4286ec8-f6e2-43a8-92a8-816cce54bd59"
          }
        ],
        "created": "2026-05-19",
        "updated": "2026-05-19"
      }
    },
    {
      "type": "Feature",
      "geometry": {
        "type": "Point",
        "coordinates": [
          13.3397997,
          52.527909
        ]
      },
      "properties": {
        "id": "tk_fr_1432",
        "name": "Getränkeladen Töpper",
        "description": "Kiosk Getränkeladen",
        "address": {
          "street": "Bredowstraße",
          "number": "43",
          "postalcode": "10551",
          "city": "Berlin",
          "district": "Mitte"
        },
        "tags": [
          "fritz_kola"
        ],
        "sources": [
          {
            "type": "hopfenstop",
            "id": "431e100d-52c8-47f2-bceb-b79e14304d53"
          }
        ],
        "created": "2026-05-19",
        "updated": "2026-05-19"
      }
    },
    {
      "type": "Feature",
      "geometry": {
        "type": "Point",
        "coordinates": [
          13.3426889,
          52.5265067
        ]
      },
      "properties": {
        "id": "tk_fr_1433",
        "name": "Spätkauf ",
        "description": "Späti ",
        "address": {
          "street": "Turmstraße",
          "number": "28",
          "postalcode": "10551",
          "city": "Berlin",
          "district": "Mitte"
        },
        "tags": [
          "fritz_kola"
        ],
        "sources": [
          {
            "type": "hopfenstop",
            "id": "3470a052-834e-494d-918a-9b99e7ce812f"
          }
        ],
        "created": "2026-05-19",
        "updated": "2026-05-19"
      }
    },
    {
      "type": "Feature",
      "geometry": {
        "type": "Point",
        "coordinates": [
          13.32822,
          52.52495
        ]
      },
      "properties": {
        "id": "tk_fr_1434",
        "name": "Spätkauf Spree Tag und Nacht ",
        "description": "Kiosk Späti ",
        "address": {
          "street": "Beusselstraße",
          "number": "3",
          "postalcode": "10553",
          "city": "Berlin",
          "district": "Mitte"
        },
        "tags": [
          "fritz_kola"
        ],
        "sources": [
          {
            "type": "hopfenstop",
            "id": "f15a0714-91ab-4bc2-98ca-1a5e5197b528"
          }
        ],
        "created": "2026-05-19",
        "updated": "2026-05-19"
      }
    },
    {
      "type": "Feature",
      "geometry": {
        "type": "Point",
        "coordinates": [
          13.32767,
          52.52641999999999
        ]
      },
      "properties": {
        "id": "tk_fr_1435",
        "name": "H.Atalay Zeitung Tabakwaren ",
        "description": "Kiosk Späti ",
        "address": {
          "street": "Erasmusstraße",
          "number": "1",
          "postalcode": "10553",
          "city": "Berlin",
          "district": "Mitte"
        },
        "tags": [
          "fritz_kola"
        ],
        "sources": [
          {
            "type": "hopfenstop",
            "id": "ed06c237-9a12-4eb6-a470-bf348ff9eda7"
          }
        ],
        "created": "2026-05-19",
        "updated": "2026-05-19"
      }
    },
    {
      "type": "Feature",
      "geometry": {
        "type": "Point",
        "coordinates": [
          13.4529614,
          52.5121933
        ]
      },
      "properties": {
        "id": "tk_fr_1436",
        "name": "Spätkauf",
        "description": "Kiosk mit hot dogs im Sortiment.",
        "address": {
          "street": "Warschauer Straße",
          "number": "73",
          "postalcode": "10243",
          "city": "Berlin",
          "district": "Bezirk Friedrichshain-Kreuzberg"
        },
        "sources": [
          {
            "type": "hopfenstop",
            "id": "bcab1e87-87c7-4e0d-8171-ab5c0532fe22"
          }
        ],
        "created": "2026-05-19",
        "updated": "2026-05-19"
      }
    },
    {
      "type": "Feature",
      "geometry": {
        "type": "Point",
        "coordinates": [
          13.45259,
          52.5085005
        ]
      },
      "properties": {
        "id": "tk_fr_1437",
        "name": "Drinks & More",
        "description": "Späti Mit einer großen Wein- und Bierauswahl ",
        "address": {
          "street": "Libauer Straße",
          "number": "11",
          "postalcode": "10245",
          "city": "Berlin",
          "district": "Bezirk Friedrichshain-Kreuzberg"
        },
        "hours": {
          "raw": "Mo-Th 08:00-00:00; Fr 08:00-03:00; Sa 08:00-00:00; Su 08:00-20:00"
        },
        "tags": [
          "wein"
        ],
        "sources": [
          {
            "type": "hopfenstop",
            "id": "b3649ed6-c12a-415e-9910-8820205c31f0"
          }
        ],
        "created": "2026-05-19",
        "updated": "2026-05-19"
      }
    },
    {
      "type": "Feature",
      "geometry": {
        "type": "Point",
        "coordinates": [
          13.4401574,
          52.5162948
        ]
      },
      "properties": {
        "id": "tk_fr_1438",
        "name": "Lotto kiosk",
        "description": "Kiosk mit riessiger Auswahl an Tabakwaren.",
        "address": {
          "street": "Straße der Pariser Kommune",
          "number": "39",
          "postalcode": "10243",
          "city": "Berlin",
          "district": "Bezirk Friedrichshain-Kreuzberg"
        },
        "sources": [
          {
            "type": "hopfenstop",
            "id": "49b68f8c-5eda-4362-bf6d-7f3dbe5415f1"
          }
        ],
        "created": "2026-05-19",
        "updated": "2026-05-19"
      }
    },
    {
      "type": "Feature",
      "geometry": {
        "type": "Point",
        "coordinates": [
          13.3250131,
          52.4948274
        ]
      },
      "properties": {
        "id": "tk_fr_1442",
        "name": "Lotto Kiosk Özmen",
        "description": "Kiosk Späti",
        "address": {
          "street": "Düsseldorfer Straße",
          "number": "76",
          "postalcode": "10719",
          "city": "Berlin",
          "district": "Bezirk Charlottenburg-Wilmersdorf"
        },
        "tags": [
          "fritz_kola"
        ],
        "sources": [
          {
            "type": "hopfenstop",
            "id": "8fbd3c2f-d4f8-44c0-be3b-78731cb285c0"
          }
        ],
        "created": "2026-05-19",
        "updated": "2026-05-19"
      }
    },
    {
      "type": "Feature",
      "geometry": {
        "type": "Point",
        "coordinates": [
          13.3238089,
          52.4932302
        ]
      },
      "properties": {
        "id": "tk_fr_1443",
        "name": "Keser Tabakwaren Lotto ",
        "description": "Kiosk ",
        "address": {
          "street": "Uhlandstraße",
          "number": "136",
          "postalcode": "10717",
          "city": "Berlin",
          "district": "Bezirk Charlottenburg-Wilmersdorf"
        },
        "tags": [
          "fritz_kola"
        ],
        "sources": [
          {
            "type": "hopfenstop",
            "id": "42af7a02-8438-4e0d-8f2d-55aa0f3319e8"
          }
        ],
        "created": "2026-05-19",
        "updated": "2026-05-19"
      }
    },
    {
      "type": "Feature",
      "geometry": {
        "type": "Point",
        "coordinates": [
          13.2982599,
          52.49566
        ]
      },
      "properties": {
        "id": "tk_fr_1444",
        "name": "Marco Krissel ",
        "description": "Kiosk ",
        "address": {
          "street": "Westfälische Straße",
          "number": "28",
          "postalcode": "10709",
          "city": "Berlin",
          "district": "Bezirk Charlottenburg-Wilmersdorf"
        },
        "tags": [
          "fritz_kola"
        ],
        "sources": [
          {
            "type": "hopfenstop",
            "id": "a4d110aa-e82d-41f2-a55a-5a9e1197d034"
          }
        ],
        "created": "2026-05-19",
        "updated": "2026-05-19"
      }
    },
    {
      "type": "Feature",
      "geometry": {
        "type": "Point",
        "coordinates": [
          13.2922178,
          52.4969087
        ]
      },
      "properties": {
        "id": "tk_fr_1445",
        "name": "Alexander Feist Tabakwaren ",
        "description": "Kiosk",
        "address": {
          "street": "Westfälische Straße",
          "number": "47",
          "postalcode": "10711",
          "city": "Berlin",
          "district": "Bezirk Charlottenburg-Wilmersdorf"
        },
        "tags": [
          "fritz_kola"
        ],
        "sources": [
          {
            "type": "hopfenstop",
            "id": "e32ab353-2792-4556-833e-b94bae6c28bd"
          }
        ],
        "created": "2026-05-19",
        "updated": "2026-05-19"
      }
    },
    {
      "type": "Feature",
      "geometry": {
        "type": "Point",
        "coordinates": [
          13.4065658,
          52.5125344
        ]
      },
      "properties": {
        "id": "tk_fr_1583",
        "name": "Späti Fischerinsel",
        "description": "Spätkauf",
        "address": {
          "street": "Fischerinsel",
          "number": "6",
          "postalcode": "10179",
          "city": "Berlin",
          "district": "Bezirk Mitte"
        },
        "hours": {
          "raw": "Mo-Fr 07:00-00:00; Sa-Su 12:00-00:00"
        },
        "tags": [
          "eis",
          "innenraum",
          "mate",
          "sekt",
          "wein",
          "fritz_kola",
          "sitzgelegenheiten",
          "kaffee",
          "paketshop",
          "snacks",
          "schnaps",
          "wc",
          "ueberdacht",
          "craft_bier"
        ],
        "sources": [
          {
            "type": "hopfenstop",
            "id": "82e1b620-ab4f-4d4b-b58e-57634bee65e0"
          }
        ],
        "created": "2026-05-19",
        "updated": "2026-05-19"
      }
    },
    {
      "type": "Feature",
      "geometry": {
        "type": "Point",
        "coordinates": [
          13.4062264,
          52.5471049
        ]
      },
      "properties": {
        "id": "tk_fr_1587",
        "name": "Mauermarkt",
        "description": "Kiosk mit guter Bierauswahl",
        "address": {
          "street": "Gleimstraße",
          "number": "48",
          "postalcode": "10437",
          "city": "Berlin",
          "district": "Bezirk Pankow"
        },
        "tags": [
          "mate",
          "sekt",
          "wein"
        ],
        "sources": [
          {
            "type": "hopfenstop",
            "id": "6e4d0ed3-c6c0-466a-848b-47112d0578bd"
          }
        ],
        "created": "2026-05-19",
        "updated": "2026-05-19"
      }
    },
    {
      "type": "Feature",
      "geometry": {
        "type": "Point",
        "coordinates": [
          13.4070636,
          52.5470012
        ]
      },
      "properties": {
        "id": "tk_fr_1588",
        "name": "gleim Shop",
        "description": "Späti",
        "address": {
          "street": "Gleimstraße",
          "number": "13",
          "postalcode": "10437",
          "city": "Berlin",
          "district": "Bezirk Pankow"
        },
        "sources": [
          {
            "type": "hopfenstop",
            "id": "56c9cbde-6d39-4e62-9b62-588fccfee4c9"
          }
        ],
        "created": "2026-05-19",
        "updated": "2026-05-19"
      }
    },
    {
      "type": "Feature",
      "geometry": {
        "type": "Point",
        "coordinates": [
          13.4087873,
          52.5477375
        ]
      },
      "properties": {
        "id": "tk_fr_1589",
        "name": "Spätshop 19",
        "description": "Späti",
        "address": {
          "street": "Gleimstraße",
          "number": "42",
          "postalcode": "10437",
          "city": "Berlin",
          "district": "Bezirk Pankow"
        },
        "sources": [
          {
            "type": "hopfenstop",
            "id": "1236cdb9-2868-433b-af94-d8f84fe8e0f3"
          }
        ],
        "created": "2026-05-19",
        "updated": "2026-05-19"
      }
    },
    {
      "type": "Feature",
      "geometry": {
        "type": "Point",
        "coordinates": [
          13.3635232,
          52.4994275
        ]
      },
      "properties": {
        "id": "tk_fr_1596",
        "name": "Zeitungs und Lottokiosk",
        "description": "Alles drin",
        "address": {
          "street": "Kurfürstenstraße",
          "number": "153",
          "postalcode": "10785",
          "city": "Berlin",
          "district": "Bezirk Tempelhof-Schöneberg"
        },
        "sources": [
          {
            "type": "hopfenstop",
            "id": "1c20ed48-1935-42bd-8094-d1dcf4b5eb0e"
          }
        ],
        "created": "2026-05-19",
        "updated": "2026-05-19"
      }
    },
    {
      "type": "Feature",
      "geometry": {
        "type": "Point",
        "coordinates": [
          13.4172072,
          52.5129513
        ]
      },
      "properties": {
        "id": "tk_fr_1598",
        "name": "All In One Shop",
        "description": "Kleiner Späti mit guter Hopfenauswahl. Sitzplätze für 4 Personen vor dem Eingang. ",
        "address": {
          "street": "Brückenstraße",
          "number": "10A",
          "postalcode": "10179",
          "city": "Berlin",
          "district": "Bezirk Mitte"
        },
        "hours": {
          "raw": "Fr-Sa 05:00-03:00"
        },
        "tags": [
          "sitzgelegenheiten",
          "eis",
          "snacks"
        ],
        "sources": [
          {
            "type": "hopfenstop",
            "id": "d0ca9959-f99c-4723-8302-b5c314e17301"
          }
        ],
        "created": "2026-05-19",
        "updated": "2026-05-19"
      }
    },
    {
      "type": "Feature",
      "geometry": {
        "type": "Point",
        "coordinates": [
          13.3629801,
          52.50064
        ]
      },
      "properties": {
        "id": "tk_fr_1604",
        "name": "Internet & Telecafe",
        "description": "Einfach ALLES",
        "address": {
          "street": "Potsdamer Straße",
          "number": "112",
          "postalcode": "10785",
          "city": "Berlin",
          "district": "Bezirk Mitte"
        },
        "sources": [
          {
            "type": "hopfenstop",
            "id": "3ee1cbaf-0535-4533-a0b2-5c002a7a2737"
          }
        ],
        "created": "2026-05-19",
        "updated": "2026-05-19"
      }
    },
    {
      "type": "Feature",
      "geometry": {
        "type": "Point",
        "coordinates": [
          13.3620271,
          52.49869469999999
        ]
      },
      "properties": {
        "id": "tk_fr_1605",
        "name": "Späti ",
        "description": "Alles hier",
        "address": {
          "street": "Potsdamer Straße",
          "number": "134",
          "postalcode": "10783",
          "city": "Berlin",
          "district": "Bezirk Tempelhof-Schöneberg"
        },
        "sources": [
          {
            "type": "hopfenstop",
            "id": "97bb13b1-0351-417c-9d74-63e56b780f32"
          }
        ],
        "created": "2026-05-19",
        "updated": "2026-05-19"
      }
    },
    {
      "type": "Feature",
      "geometry": {
        "type": "Point",
        "coordinates": [
          13.3601656,
          52.4898083
        ]
      },
      "properties": {
        "id": "tk_fr_1606",
        "name": "Späti Schöneberg",
        "description": "Bier und Bier ",
        "address": {
          "street": "Hauptstraße",
          "number": "159",
          "postalcode": "10827",
          "city": "Berlin",
          "district": "Bezirk Tempelhof-Schöneberg"
        },
        "sources": [
          {
            "type": "hopfenstop",
            "id": "79c6ace6-5b6b-48e2-bcba-08d6a1893348"
          }
        ],
        "created": "2026-05-19",
        "updated": "2026-05-19"
      }
    },
    {
      "type": "Feature",
      "geometry": {
        "type": "Point",
        "coordinates": [
          13.4286673,
          52.5329665
        ]
      },
      "properties": {
        "id": "tk_fr_1607",
        "name": "Kiosk",
        "description": "Hier gibt nicht nur Bier ",
        "address": {
          "street": "Greifswalder Straße",
          "number": "206",
          "postalcode": "10405",
          "city": "Berlin",
          "district": "Bezirk Pankow"
        },
        "sources": [
          {
            "type": "hopfenstop",
            "id": "350cdfe2-c0ae-48c9-95fd-20ffa09539e2"
          }
        ],
        "created": "2026-05-19",
        "updated": "2026-05-19"
      }
    },
    {
      "type": "Feature",
      "geometry": {
        "type": "Point",
        "coordinates": [
          13.3918734,
          52.4983776
        ]
      },
      "properties": {
        "id": "tk_fr_1608",
        "name": "Kompakt Kauf",
        "description": "In der B-Ebene",
        "address": {
          "street": "Mehringplatz",
          "number": "20",
          "postalcode": "10969",
          "city": "Berlin",
          "district": "Bezirk Friedrichshain-Kreuzberg"
        },
        "sources": [
          {
            "type": "hopfenstop",
            "id": "430e2cd2-73f7-41f5-9b62-99a4d97b3600"
          }
        ],
        "created": "2026-05-19",
        "updated": "2026-05-19"
      }
    },
    {
      "type": "Feature",
      "geometry": {
        "type": "Point",
        "coordinates": [
          13.3881362,
          52.5260072
        ]
      },
      "properties": {
        "id": "tk_fr_1609",
        "name": "Kiosk",
        "description": "Biere und anderes",
        "address": {
          "street": "Oranienburger Straße",
          "number": "53",
          "postalcode": "10117",
          "city": "Berlin",
          "district": "Bezirk Mitte"
        },
        "sources": [
          {
            "type": "hopfenstop",
            "id": "6de58ac4-94ec-4836-ae5f-c8afe6d1671a"
          }
        ],
        "created": "2026-05-19",
        "updated": "2026-05-19"
      }
    },
    {
      "type": "Feature",
      "geometry": {
        "type": "Point",
        "coordinates": [
          13.3949304,
          52.5321813
        ]
      },
      "properties": {
        "id": "tk_fr_1610",
        "name": "7. Himmel",
        "description": "Alles ",
        "address": {
          "street": "Invalidenstraße",
          "number": "150",
          "postalcode": "10115",
          "city": "Berlin",
          "district": "Bezirk Mitte"
        },
        "sources": [
          {
            "type": "hopfenstop",
            "id": "09db4f23-f25a-4bc9-a3ac-6ca6e9b46949"
          }
        ],
        "created": "2026-05-19",
        "updated": "2026-05-19"
      }
    },
    {
      "type": "Feature",
      "geometry": {
        "type": "Point",
        "coordinates": [
          13.3091423,
          52.5073527
        ]
      },
      "properties": {
        "id": "tk_fr_1652",
        "name": "BC Spätkauf",
        "description": "Späti mit Standardbierauswahl. Große Ecke mit Rauchzubehör (Papes, Crusher, etc.)",
        "address": {
          "street": "Krumme Straße",
          "number": "42",
          "postalcode": "10627",
          "city": "Berlin",
          "district": "Bezirk Charlottenburg-Wilmersdorf"
        },
        "sources": [
          {
            "type": "hopfenstop",
            "id": "15e18417-f5e9-4723-be66-0ba0b70b3f34"
          }
        ],
        "created": "2026-05-19",
        "updated": "2026-05-19"
      }
    },
    {
      "type": "Feature",
      "geometry": {
        "type": "Point",
        "coordinates": [
          13.4014184,
          52.5225874
        ]
      },
      "properties": {
        "id": "tk_fr_1654",
        "name": "Bis später",
        "description": "Späti direkt an der S-Bahn Haltestelle Hackescher Markt. Gute Bierauswahl, Wein und Schnaps ebenso vorhanden wie Snacks und Souvenirs. Draußen gibt's Liegestühle.",
        "address": {
          "street": "Am Zwirngraben",
          "number": "17-20",
          "postalcode": "10178",
          "city": "Berlin",
          "district": "Bezirk Mitte"
        },
        "tags": [
          "kaffee",
          "longpapes",
          "mate",
          "musik",
          "schnaps",
          "sitzgelegenheiten",
          "wein",
          "snacks",
          "ueberdacht",
          "eis",
          "fritz_kola"
        ],
        "sources": [
          {
            "type": "hopfenstop",
            "id": "a5332898-099c-4eee-ab22-a3700616b0cc"
          }
        ],
        "created": "2026-05-19",
        "updated": "2026-05-19"
      }
    },
    {
      "type": "Feature",
      "geometry": {
        "type": "Point",
        "coordinates": [
          13.3538171,
          52.5496594
        ]
      },
      "properties": {
        "id": "tk_fr_1655",
        "name": "Spätkauf",
        "description": "Riesen Auswahl",
        "address": {
          "street": "Müllerstraße",
          "number": "38A",
          "postalcode": "13353",
          "city": "Berlin",
          "district": "Bezirk Mitte"
        },
        "tags": [
          "mate",
          "eis",
          "fritz_kola",
          "sekt",
          "innenraum",
          "longpapes",
          "schnaps",
          "stehtisch",
          "wein",
          "wc"
        ],
        "sources": [
          {
            "type": "hopfenstop",
            "id": "7a7d43dc-6e5e-47f9-86eb-7010837cd486"
          }
        ],
        "created": "2026-05-19",
        "updated": "2026-05-19"
      }
    },
    {
      "type": "Feature",
      "geometry": {
        "type": "Point",
        "coordinates": [
          13.3071743,
          52.5040586
        ]
      },
      "properties": {
        "id": "tk_fr_1658",
        "name": "SPÄT SHOP",
        "description": "Späti mit Kaffee Station",
        "address": {
          "street": "Wilmersdorfer Straße",
          "number": "71",
          "postalcode": "10629",
          "city": "Berlin",
          "district": "Bezirk Charlottenburg-Wilmersdorf"
        },
        "tags": [
          "kaffee",
          "craft_bier",
          "innenraum",
          "mate",
          "ueberdacht"
        ],
        "sources": [
          {
            "type": "hopfenstop",
            "id": "3845909e-8421-47fd-82df-65f66d8499fe"
          }
        ],
        "created": "2026-05-19",
        "updated": "2026-05-19"
      }
    },
    {
      "type": "Feature",
      "geometry": {
        "type": "Point",
        "coordinates": [
          13.3537308,
          52.4988142
        ]
      },
      "properties": {
        "id": "tk_fr_1666",
        "name": "Late Night Spätshop",
        "description": "In der Näher UBahn Nollendorf. FastFood gibts neben an.",
        "address": {
          "street": "Nollendorfplatz",
          "number": "7",
          "postalcode": "10777",
          "city": "Berlin",
          "district": "Bezirk Tempelhof-Schöneberg"
        },
        "tags": [
          "stehtisch",
          "snacks",
          "zeitschriften",
          "postkarten",
          "kaffee",
          "longpapes",
          "mate",
          "sekt",
          "wein",
          "schnaps",
          "eis"
        ],
        "sources": [
          {
            "type": "hopfenstop",
            "id": "c505966c-0315-4ac5-90aa-216a66e106ea"
          }
        ],
        "created": "2026-05-19",
        "updated": "2026-05-19"
      }
    },
    {
      "type": "Feature",
      "geometry": {
        "type": "Point",
        "coordinates": [
          13.1957404,
          52.54747769999999
        ]
      },
      "properties": {
        "id": "tk_fr_1667",
        "name": "Steh Café Froben",
        "description": "Kiosk mit Bank und Stehtisch.",
        "address": {
          "street": "Frobenstraße",
          "number": "23",
          "postalcode": "10783",
          "city": "Berlin",
          "district": "Bezirk Tempelhof-Schöneberg"
        },
        "hours": {
          "raw": "Mo-Su 05:00-06:00"
        },
        "tags": [
          "stehtisch"
        ],
        "sources": [
          {
            "type": "hopfenstop",
            "id": "c4779efb-2875-4f01-9ef3-6b8dbeac4d36"
          }
        ],
        "created": "2026-05-19",
        "updated": "2026-05-19"
      }
    },
    {
      "type": "Feature",
      "geometry": {
        "type": "Point",
        "coordinates": [
          13.3642307,
          52.4970882
        ]
      },
      "properties": {
        "id": "tk_fr_1668",
        "name": "Stehcafe 72",
        "description": "Kiosk.",
        "address": {
          "street": "Bülowstraße",
          "number": "30",
          "postalcode": "10783",
          "city": "Berlin",
          "district": "Bezirk Tempelhof-Schöneberg"
        },
        "sources": [
          {
            "type": "hopfenstop",
            "id": "c9f94e58-d287-4333-9b88-11e34502cabd"
          }
        ],
        "created": "2026-05-19",
        "updated": "2026-05-19"
      }
    },
    {
      "type": "Feature",
      "geometry": {
        "type": "Point",
        "coordinates": [
          13.365755,
          52.4951413
        ]
      },
      "properties": {
        "id": "tk_fr_1669",
        "name": "Kiosk Night Shop",
        "description": "Kleiner Kiosk am Eckhaus ",
        "address": {
          "street": "Kulmer Straße",
          "number": "1",
          "postalcode": "10783",
          "city": "Berlin",
          "district": "Bezirk Tempelhof-Schöneberg"
        },
        "tags": [
          "milch",
          "sitzgelegenheiten"
        ],
        "sources": [
          {
            "type": "hopfenstop",
            "id": "c366781f-8907-4e42-a258-6311306dd0b8"
          }
        ],
        "created": "2026-05-19",
        "updated": "2026-05-19"
      }
    },
    {
      "type": "Feature",
      "geometry": {
        "type": "Point",
        "coordinates": [
          13.3650901,
          52.4934498
        ]
      },
      "properties": {
        "id": "tk_fr_1670",
        "name": "Spätkauf Goebenstraße",
        "description": "Kiosk",
        "address": {
          "street": "Goebenstraße",
          "number": "11",
          "postalcode": "10783",
          "city": "Berlin",
          "district": "Bezirk Tempelhof-Schöneberg"
        },
        "tags": [
          "fritz_kola",
          "mate"
        ],
        "sources": [
          {
            "type": "hopfenstop",
            "id": "29ac36ba-8e66-457d-8435-8fef9ee0cf2e"
          }
        ],
        "created": "2026-05-19",
        "updated": "2026-05-19"
      }
    },
    {
      "type": "Feature",
      "geometry": {
        "type": "Point",
        "coordinates": [
          13.3666978,
          52.4931257
        ]
      },
      "properties": {
        "id": "tk_fr_1671",
        "name": "Kiosk Ecke Mansteinstraße",
        "description": "Kiosk mit Kaugummiautomaten.",
        "address": {
          "street": "Goebenstraße",
          "number": "15A",
          "postalcode": "10783",
          "city": "Berlin",
          "district": "Bezirk Tempelhof-Schöneberg"
        },
        "tags": [
          "lotto",
          "zeitschriften",
          "fritz_kola"
        ],
        "sources": [
          {
            "type": "hopfenstop",
            "id": "0a5abd3b-eb11-434f-8925-d768dd585970"
          }
        ],
        "created": "2026-05-19",
        "updated": "2026-05-19"
      }
    },
    {
      "type": "Feature",
      "geometry": {
        "type": "Point",
        "coordinates": [
          13.3912538,
          52.5255795
        ]
      },
      "properties": {
        "id": "tk_fr_1702",
        "name": "Kiez Kiosk",
        "description": "Kleiner Späti",
        "address": {
          "street": "Oranienburger Straße",
          "number": "39",
          "postalcode": "10117",
          "city": "Berlin",
          "district": "Bezirk Mitte"
        },
        "tags": [
          "sitzgelegenheiten",
          "snacks",
          "ueberdacht",
          "sonne",
          "kaffee",
          "mate",
          "fritz_kola"
        ],
        "sources": [
          {
            "type": "hopfenstop",
            "id": "fb464845-3725-48af-a817-c009d76e4a99"
          }
        ],
        "created": "2026-05-19",
        "updated": "2026-05-19"
      }
    },
    {
      "type": "Feature",
      "geometry": {
        "type": "Point",
        "coordinates": [
          13.3871674,
          52.5236891
        ]
      },
      "properties": {
        "id": "tk_fr_1703",
        "name": "Kiosk ",
        "description": "Tabakwaren Getränke Souvenirs",
        "address": {
          "street": "Reinhardtstraße",
          "number": "1",
          "postalcode": "10117",
          "city": "Berlin",
          "district": "Bezirk Mitte"
        },
        "sources": [
          {
            "type": "hopfenstop",
            "id": "812c45db-2d9b-4b3f-9211-d26caa67381c"
          }
        ],
        "created": "2026-05-19",
        "updated": "2026-05-19"
      }
    },
    {
      "type": "Feature",
      "geometry": {
        "type": "Point",
        "coordinates": [
          13.3534755,
          52.4895851
        ]
      },
      "properties": {
        "id": "tk_fr_1705",
        "name": "The Market",
        "description": "Kiosk ",
        "address": {
          "street": "Akazienstraße",
          "number": "18",
          "postalcode": "10823",
          "city": "Berlin",
          "district": "Bezirk Tempelhof-Schöneberg"
        },
        "hours": {
          "raw": "Mo-Th 07:30-02:00; Fr-Sa 07:30-04:00"
        },
        "sources": [
          {
            "type": "hopfenstop",
            "id": "ebca7613-73f4-4046-9329-017ffb6d22ff"
          }
        ],
        "created": "2026-05-19",
        "updated": "2026-05-19"
      }
    },
    {
      "type": "Feature",
      "geometry": {
        "type": "Point",
        "coordinates": [
          13.4426258,
          52.5011464
        ]
      },
      "properties": {
        "id": "tk_fr_1706",
        "name": "Kompakt Kauf ",
        "description": "Kiosk",
        "address": {
          "street": "Oberbaumstraße",
          "number": "8",
          "postalcode": "10997",
          "city": "Berlin",
          "district": "Bezirk Friedrichshain-Kreuzberg"
        },
        "hours": {
          "raw": "Mo-Su 07:00-01:00"
        },
        "sources": [
          {
            "type": "hopfenstop",
            "id": "e5827823-05c7-4ed7-b637-88748e84c95b"
          }
        ],
        "created": "2026-05-19",
        "updated": "2026-05-19"
      }
    },
    {
      "type": "Feature",
      "geometry": {
        "type": "Point",
        "coordinates": [
          13.4417158,
          52.5015037
        ]
      },
      "properties": {
        "id": "tk_fr_1707",
        "name": "Drink Shop",
        "description": "Getränke Shop",
        "address": {
          "street": "Köpenicker Straße",
          "number": "1A",
          "postalcode": "10997",
          "city": "Berlin",
          "district": "Bezirk Friedrichshain-Kreuzberg"
        },
        "sources": [
          {
            "type": "hopfenstop",
            "id": "20745ee0-a35b-4b69-96d5-5439e50d3c0b"
          }
        ],
        "created": "2026-05-19",
        "updated": "2026-05-19"
      }
    },
    {
      "type": "Feature",
      "geometry": {
        "type": "Point",
        "coordinates": [
          13.4167898,
          52.5111848
        ]
      },
      "properties": {
        "id": "tk_fr_1720",
        "name": "Liquor Shop",
        "description": "Kiosk",
        "address": {
          "street": "Brückenstraße",
          "number": "1",
          "postalcode": "10179",
          "city": "Berlin",
          "district": "Bezirk Mitte"
        },
        "hours": {
          "raw": "Mo-Su 00:00-00:00"
        },
        "sources": [
          {
            "type": "hopfenstop",
            "id": "0c3a8323-5677-40d5-a4f0-1cdb0de5096a"
          }
        ],
        "created": "2026-05-19",
        "updated": "2026-05-19"
      }
    },
    {
      "type": "Feature",
      "geometry": {
        "type": "Point",
        "coordinates": [
          13.3937,
          52.5124
        ]
      },
      "properties": {
        "id": "tk_fr_1751",
        "name": "Berlin to go ",
        "description": "Souvenir Kiosk",
        "address": {
          "street": "Mohrenstraße",
          "number": "45",
          "postalcode": "10117",
          "city": "Berlin",
          "district": "Mitte"
        },
        "sources": [
          {
            "type": "hopfenstop",
            "id": "fb7c54bf-6732-4d70-bcec-73696b17c2a9"
          }
        ],
        "created": "2026-05-19",
        "updated": "2026-05-19"
      }
    },
    {
      "type": "Feature",
      "geometry": {
        "type": "Point",
        "coordinates": [
          13.4323711,
          52.4970039
        ]
      },
      "properties": {
        "id": "tk_fr_1754",
        "name": "Day & Night Shop",
        "description": "Tag und Nacht geöffnet, Hot Fog für 1€, rosa Plüschhund über dem Fernseher",
        "address": {
          "street": "Wiener Straße",
          "number": "24",
          "postalcode": "10999",
          "city": "Berlin",
          "district": "Bezirk Friedrichshain-Kreuzberg"
        },
        "hours": {
          "raw": "Mo-Su 08:00-03:00"
        },
        "sources": [
          {
            "type": "hopfenstop",
            "id": "c80df1ca-2bb0-4998-9e12-638549106139"
          }
        ],
        "created": "2026-05-19",
        "updated": "2026-05-19"
      }
    },
    {
      "type": "Feature",
      "geometry": {
        "type": "Point",
        "coordinates": [
          13.4336548,
          52.499318
        ]
      },
      "properties": {
        "id": "tk_fr_1763",
        "name": "X-Berg Spätkauf",
        "description": "Klassischer Spätkauf Berlin",
        "address": {
          "street": "Skalitzer Straße",
          "number": "51",
          "postalcode": "10997",
          "city": "Berlin",
          "district": "Bezirk Friedrichshain-Kreuzberg"
        },
        "sources": [
          {
            "type": "hopfenstop",
            "id": "a8bd4edd-3bce-49ca-83f5-c1ae6a9a0cdc"
          }
        ],
        "created": "2026-05-19",
        "updated": "2026-05-19"
      }
    },
    {
      "type": "Feature",
      "geometry": {
        "type": "Point",
        "coordinates": [
          13.4463498,
          52.5256522
        ]
      },
      "properties": {
        "id": "tk_fr_1788",
        "name": "Internet&Telecafé",
        "description": "Bierauswahl okay, es gibt auch wein, Snacks und Essentials",
        "address": {
          "street": "Landsberger Allee",
          "number": "68A",
          "postalcode": "10249",
          "city": "Berlin",
          "district": "Bezirk Friedrichshain-Kreuzberg"
        },
        "sources": [
          {
            "type": "hopfenstop",
            "id": "f0f632f2-cbb9-409d-b369-89392ed42ed4"
          }
        ],
        "created": "2026-05-19",
        "updated": "2026-05-19"
      }
    },
    {
      "type": "Feature",
      "geometry": {
        "type": "Point",
        "coordinates": [
          13.4356874,
          52.5111091
        ]
      },
      "properties": {
        "id": "tk_fr_1873",
        "name": "Kiosk & Spätkauf am Ostbahnhof ",
        "description": "Kiosk direkt am Ostbahnhof",
        "address": {
          "street": "Erich-Steinfurth-Straße",
          "number": "6",
          "postalcode": "10243",
          "city": "Berlin",
          "district": "Bezirk Friedrichshain-Kreuzberg"
        },
        "sources": [
          {
            "type": "hopfenstop",
            "id": "e392612c-2ec6-4bfe-92a3-657854608d84"
          }
        ],
        "created": "2026-05-19",
        "updated": "2026-05-19"
      }
    },
    {
      "type": "Feature",
      "geometry": {
        "type": "Point",
        "coordinates": [
          13.4156519,
          52.5505436
        ]
      },
      "properties": {
        "id": "tk_fr_1918",
        "name": "Kiosk 66",
        "description": "Große Auswahl Nähe Schönhauser Allee Arcaden",
        "address": {
          "street": "Wichertstraße",
          "number": "70",
          "postalcode": "10439",
          "city": "Berlin",
          "district": "Bezirk Pankow"
        },
        "tags": [
          "craft_bier",
          "wc",
          "eis",
          "gemischte_tuete",
          "innenraum",
          "kaffee",
          "lotto",
          "mate",
          "musik",
          "sitzgelegenheiten",
          "sekt",
          "snacks",
          "ueberdacht",
          "sonne",
          "wein",
          "applewoi",
          "fritz_kola"
        ],
        "sources": [
          {
            "type": "hopfenstop",
            "id": "922d962e-2dcf-416f-ac8b-fd69a4b35e4d"
          }
        ],
        "created": "2026-05-19",
        "updated": "2026-05-19"
      }
    },
    {
      "type": "Feature",
      "geometry": {
        "type": "Point",
        "coordinates": [
          13.4145261,
          52.5517516
        ]
      },
      "properties": {
        "id": "tk_fr_1922",
        "name": "Tony‘s Kiosk",
        "description": "Preiswerter Kiosk, nettes Personal in Pankow",
        "address": {
          "street": "Schönhauser Allee",
          "number": "86",
          "postalcode": "10439",
          "city": "Berlin",
          "district": "Bezirk Pankow"
        },
        "tags": [
          "gemischte_tuete",
          "craft_bier",
          "eis",
          "innenraum",
          "kaffee",
          "kuchen",
          "lotto",
          "mate",
          "musik",
          "sekt",
          "sitzgelegenheiten",
          "snacks",
          "ueberdacht",
          "wein",
          "fritz_kola"
        ],
        "sources": [
          {
            "type": "hopfenstop",
            "id": "99afaa32-ecf0-4904-8443-8aaf93b619c9"
          }
        ],
        "created": "2026-05-19",
        "updated": "2026-05-19"
      }
    },
    {
      "type": "Feature",
      "geometry": {
        "type": "Point",
        "coordinates": [
          13.0288196,
          52.3935346
        ]
      },
      "properties": {
        "id": "tk_fr_1932",
        "name": "Spätkauf 63",
        "description": "Kiosk an der Geschwister Scholl Straße ",
        "address": {
          "street": "Geschwister-Scholl-Straße",
          "number": "63",
          "postalcode": "14471",
          "city": "Potsdam",
          "district": "Westliche Vorstadt"
        },
        "tags": [
          "fritz_kola",
          "sekt",
          "schnaps",
          "paketshop",
          "snacks",
          "wein",
          "mate"
        ],
        "sources": [
          {
            "type": "hopfenstop",
            "id": "765fecf7-931a-496f-b001-316f54380f8e"
          }
        ],
        "created": "2026-05-19",
        "updated": "2026-05-19"
      }
    },
    {
      "type": "Feature",
      "geometry": {
        "type": "Point",
        "coordinates": [
          13.4613922,
          52.549252
        ]
      },
      "properties": {
        "id": "tk_fr_2025",
        "name": "Bizet 112",
        "description": "Der Späti für den kleinen Mann. Privat geführt auf einem Hinterhof. Bitte nicht klingeln! ",
        "address": {
          "street": "Bizetstraße",
          "number": "112",
          "postalcode": "13088",
          "city": "Berlin",
          "district": "Bezirk Pankow"
        },
        "hours": {
          "raw": "Mo-Su 09:00-21:00"
        },
        "sources": [
          {
            "type": "hopfenstop",
            "id": "69779efc-7c89-42a8-a8f5-5592a57f5f6d"
          }
        ],
        "created": "2026-05-19",
        "updated": "2026-05-19"
      }
    },
    {
      "type": "Feature",
      "geometry": {
        "type": "Point",
        "coordinates": [
          13.42698,
          52.5519
        ]
      },
      "properties": {
        "id": "tk_fr_2147",
        "name": "Imbiss Ostseestrasse",
        "description": "Seit 1990-Eine Oase Altberliner Nachbarschaftsfreude in Weißensee",
        "address": {
          "street": "Gudvanger Straße",
          "number": "52",
          "postalcode": "10439",
          "city": "Berlin",
          "district": "Bezirk Pankow"
        },
        "hours": {
          "raw": "Mo-Su 08:00-08:00"
        },
        "sources": [
          {
            "type": "hopfenstop",
            "id": "851437e9-9cc4-4dc2-87b5-0a2eb6b5a836"
          }
        ],
        "created": "2026-05-19",
        "updated": "2026-05-19"
      }
    },
    {
      "type": "Feature",
      "geometry": {
        "type": "Point",
        "coordinates": [
          13.42525,
          52.5472304
        ]
      },
      "properties": {
        "id": "tk_fr_2148",
        "name": "Heimgetränke and more",
        "description": "Klassischer Späti",
        "address": {
          "street": "Dunckerstraße",
          "number": "30",
          "postalcode": "10439",
          "city": "Berlin",
          "district": "Bezirk Pankow"
        },
        "sources": [
          {
            "type": "hopfenstop",
            "id": "c8a357b6-ba62-4d12-982b-4a4f2cf2a21f"
          }
        ],
        "created": "2026-05-19",
        "updated": "2026-05-19"
      }
    },
    {
      "type": "Feature",
      "geometry": {
        "type": "Point",
        "coordinates": [
          13.4328888,
          52.4998254
        ]
      },
      "properties": {
        "id": "tk_fr_2149",
        "name": "Kiosk am Görli",
        "description": "Kultiger Kiosk zwischen Oranienstraße und East Side Gallery",
        "address": {
          "street": "Skalitzer Straße",
          "number": "94A",
          "postalcode": "10997",
          "city": "Berlin",
          "district": "Bezirk Friedrichshain-Kreuzberg"
        },
        "sources": [
          {
            "type": "hopfenstop",
            "id": "ef41b826-3306-42e9-94be-bb041db0cda0"
          }
        ],
        "created": "2026-05-19",
        "updated": "2026-05-19"
      }
    },
    {
      "type": "Feature",
      "geometry": {
        "type": "Point",
        "coordinates": [
          13.4178459,
          52.5464425
        ]
      },
      "properties": {
        "id": "tk_fr_2151",
        "name": "Papki Pappel Kiosk",
        "description": "Schöner Späti mit guter Auswahl",
        "address": {
          "street": "Pappelallee",
          "number": "57",
          "postalcode": "10437",
          "city": "Berlin",
          "district": "Bezirk Pankow"
        },
        "sources": [
          {
            "type": "hopfenstop",
            "id": "800bfd20-a62c-4635-898f-5f9f47382128"
          }
        ],
        "created": "2026-05-19",
        "updated": "2026-05-19"
      }
    }
  ]
}
