{
  "type": "FeatureCollection",
  "features": [
    {
      "type": "Feature",
      "geometry": {
        "type": "Point",
        "coordinates": [
          6.0799484,
          50.7802746
        ]
      },
      "properties": {
        "id": "tk_fr_0473",
        "name": "Bierkönig Kiosk",
        "description": "Kiosk",
        "address": {
          "street": "Pontstraße",
          "number": "131",
          "postalcode": "52062",
          "city": "Aachen",
          "district": "Mitte"
        },
        "sources": [
          {
            "type": "hopfenstop",
            "id": "6afa95aa-63ce-49e4-80bb-6d5544d351d5"
          }
        ],
        "created": "2026-05-19",
        "updated": "2026-05-19"
      }
    },
    {
      "type": "Feature",
      "geometry": {
        "type": "Point",
        "coordinates": [
          6.082691,
          50.777872
        ]
      },
      "properties": {
        "id": "tk_fr_0603",
        "name": "Pont Kiosk Stehcafe",
        "description": "Späti",
        "address": {
          "street": "Pontstraße",
          "number": "46",
          "postalcode": "52062",
          "city": "Aachen",
          "district": "Mitte"
        },
        "sources": [
          {
            "type": "hopfenstop",
            "id": "611697d7-feba-4890-8664-cd0516c2032c"
          }
        ],
        "created": "2026-05-19",
        "updated": "2026-05-19"
      }
    },
    {
      "type": "Feature",
      "geometry": {
        "type": "Point",
        "coordinates": [
          6.1127595,
          50.7720733
        ]
      },
      "properties": {
        "id": "tk_fr_0644",
        "name": "Kiosk",
        "description": "Kiosk",
        "address": {
          "street": "Adalbertsteinweg",
          "number": "236",
          "postalcode": "52066",
          "city": "Aachen",
          "district": "Mitte"
        },
        "sources": [
          {
            "type": "hopfenstop",
            "id": "71e618b5-61ca-4b51-89be-3cb671574064"
          }
        ],
        "created": "2026-05-19",
        "updated": "2026-05-19"
      }
    },
    {
      "type": "Feature",
      "geometry": {
        "type": "Point",
        "coordinates": [
          6.0998851,
          50.7799315
        ]
      },
      "properties": {
        "id": "tk_fr_1046",
        "name": "Kiosk Bilgen",
        "description": "Kiosk",
        "address": {
          "street": "Jülicher Straße",
          "number": "79",
          "postalcode": "52070",
          "city": "Aachen",
          "district": "Mitte"
        },
        "tags": [
          "fritz_kola"
        ],
        "sources": [
          {
            "type": "hopfenstop",
            "id": "53921b60-cfaf-40ae-a5cd-5e63b87e87ca"
          }
        ],
        "created": "2026-05-19",
        "updated": "2026-05-19"
      }
    },
    {
      "type": "Feature",
      "geometry": {
        "type": "Point",
        "coordinates": [
          6.0925255,
          50.7633108
        ]
      },
      "properties": {
        "id": "tk_fr_1047",
        "name": "Kiosk am Kurpark",
        "description": "Kiosk",
        "address": {
          "street": "Burtscheider Markt",
          "number": "9",
          "postalcode": "52066",
          "city": "Aachen"
        },
        "tags": [
          "fritz_kola"
        ],
        "sources": [
          {
            "type": "hopfenstop",
            "id": "4c7cdf27-23c3-492c-9d70-dfd0c7558b5a"
          }
        ],
        "created": "2026-05-19",
        "updated": "2026-05-19"
      }
    },
    {
      "type": "Feature",
      "geometry": {
        "type": "Point",
        "coordinates": [
          6.0815249,
          50.7690024
        ]
      },
      "properties": {
        "id": "tk_fr_1048",
        "name": "Kiosk",
        "description": "Kiosk ",
        "address": {
          "street": "Krakaustraße",
          "number": "31",
          "postalcode": "52064",
          "city": "Aachen"
        },
        "tags": [
          "fritz_kola"
        ],
        "sources": [
          {
            "type": "hopfenstop",
            "id": "9b64aba6-3b05-4b97-add4-4250483ec97b"
          }
        ],
        "created": "2026-05-19",
        "updated": "2026-05-19"
      }
    },
    {
      "type": "Feature",
      "geometry": {
        "type": "Point",
        "coordinates": [
          6.080864999999999,
          50.7792646
        ]
      },
      "properties": {
        "id": "tk_fr_1049",
        "name": "Night Kiosk ",
        "description": "Kiosk ",
        "address": {
          "street": "Pontstraße",
          "number": "104",
          "postalcode": "52062",
          "city": "Aachen",
          "district": "Mitte"
        },
        "tags": [
          "fritz_kola"
        ],
        "sources": [
          {
            "type": "hopfenstop",
            "id": "9ee7b140-5348-43fe-9eb4-baeca6d19238"
          }
        ],
        "created": "2026-05-19",
        "updated": "2026-05-19"
      }
    },
    {
      "type": "Feature",
      "geometry": {
        "type": "Point",
        "coordinates": [
          6.164774299999999,
          50.7490076
        ]
      },
      "properties": {
        "id": "tk_fr_1050",
        "name": "Kiosk am Marktplatz ",
        "description": "Kiosk ",
        "address": {
          "street": "Marktplatz",
          "number": "1",
          "postalcode": "52078",
          "city": "Aachen",
          "district": "Brand"
        },
        "tags": [
          "fritz_kola"
        ],
        "sources": [
          {
            "type": "hopfenstop",
            "id": "2a93affd-9ce0-4db9-89b5-c9129f786d11"
          }
        ],
        "created": "2026-05-19",
        "updated": "2026-05-19"
      }
    },
    {
      "type": "Feature",
      "geometry": {
        "type": "Point",
        "coordinates": [
          6.081032899999999,
          50.776514
        ]
      },
      "properties": {
        "id": "tk_fr_1051",
        "name": "Kiosk ",
        "description": "Kiosk ",
        "address": {
          "street": "Kockerellstraße",
          "number": "21",
          "postalcode": "52062",
          "city": "Aachen",
          "district": "Mitte"
        },
        "tags": [
          "fritz_kola"
        ],
        "sources": [
          {
            "type": "hopfenstop",
            "id": "1660449b-c431-4a01-b246-93e58359594b"
          }
        ],
        "created": "2026-05-19",
        "updated": "2026-05-19"
      }
    },
    {
      "type": "Feature",
      "geometry": {
        "type": "Point",
        "coordinates": [
          6.0911385,
          50.7676559
        ]
      },
      "properties": {
        "id": "tk_fr_1052",
        "name": "Kiosk am Bahnhof ",
        "description": "Kiosk ",
        "address": {
          "street": "Bahnhofplatz",
          "number": "1",
          "postalcode": "52064",
          "city": "Aachen",
          "district": "Mitte"
        },
        "tags": [
          "fritz_kola"
        ],
        "sources": [
          {
            "type": "hopfenstop",
            "id": "cf0fdc7d-342c-4969-9495-6ca61854d046"
          }
        ],
        "created": "2026-05-19",
        "updated": "2026-05-19"
      }
    },
    {
      "type": "Feature",
      "geometry": {
        "type": "Point",
        "coordinates": [
          6.0814774,
          50.7701805
        ]
      },
      "properties": {
        "id": "tk_fr_1053",
        "name": "Kiosk Niela",
        "description": "Kiosk ",
        "address": {
          "street": "Krakaustraße",
          "number": "5-9",
          "postalcode": "52064",
          "city": "Aachen",
          "district": "Mitte"
        },
        "tags": [
          "fritz_kola"
        ],
        "sources": [
          {
            "type": "hopfenstop",
            "id": "895c80dd-9d37-4737-b146-617ab0cd6bf5"
          }
        ],
        "created": "2026-05-19",
        "updated": "2026-05-19"
      }
    },
    {
      "type": "Feature",
      "geometry": {
        "type": "Point",
        "coordinates": [
          6.0826449,
          50.7776536
        ]
      },
      "properties": {
        "id": "tk_fr_1054",
        "name": "Alb-Kiosk",
        "description": "Kiosk ",
        "address": {
          "street": "Pontstraße",
          "number": "27",
          "postalcode": "52062",
          "city": "Aachen"
        },
        "tags": [
          "fritz_kola"
        ],
        "sources": [
          {
            "type": "hopfenstop",
            "id": "59bc509f-d8f0-46ea-84bc-a15b1fff8006"
          }
        ],
        "created": "2026-05-19",
        "updated": "2026-05-19"
      }
    },
    {
      "type": "Feature",
      "geometry": {
        "type": "Point",
        "coordinates": [
          6.0766069,
          50.7728872
        ]
      },
      "properties": {
        "id": "tk_fr_1943",
        "name": "Lotto Kiosk M.Cevik",
        "description": "Kleines Kiosk mit Tisch und Stühlen vor der Tür",
        "address": {
          "street": "Karlsgraben",
          "number": "11",
          "postalcode": "52064",
          "city": "Aachen",
          "district": "Mitte"
        },
        "tags": [
          "fritz_kola",
          "sitzgelegenheiten"
        ],
        "sources": [
          {
            "type": "hopfenstop",
            "id": "b830987b-3294-407e-aebd-60c225fcf459"
          }
        ],
        "created": "2026-05-19",
        "updated": "2026-05-19"
      }
    },
    {
      "type": "Feature",
      "geometry": {
        "type": "Point",
        "coordinates": [
          6.0756465,
          50.7748004
        ]
      },
      "properties": {
        "id": "tk_fr_1944",
        "name": "Kiosk B13",
        "description": "Mit großem Sortiment und Innenraum",
        "address": {
          "street": "Karlsgraben",
          "number": "57",
          "postalcode": "52064",
          "city": "Aachen",
          "district": "Aachen-Mitte"
        },
        "sources": [
          {
            "type": "hopfenstop",
            "id": "096aeef8-962f-43ce-8a69-1cb82f517bd1"
          }
        ],
        "created": "2026-05-19",
        "updated": "2026-05-19"
      }
    },
    {
      "type": "Feature",
      "geometry": {
        "type": "Point",
        "coordinates": [
          6.0857357,
          50.7725626
        ]
      },
      "properties": {
        "id": "tk_fr_2112",
        "name": "Kiosk am Theater",
        "description": "Kiosk mit Vogelhaus ",
        "address": {
          "street": "Kapuzinergraben",
          "number": "24",
          "postalcode": "52062",
          "city": "Aachen",
          "district": "Mitte"
        },
        "hours": {
          "raw": "Mo-Su 08:00-23:00"
        },
        "sources": [
          {
            "type": "hopfenstop",
            "id": "5e9d69c0-876d-4200-afa8-6fcfc9521393"
          }
        ],
        "created": "2026-05-19",
        "updated": "2026-05-19"
      }
    }
  ]
}
