{
  "type": "FeatureCollection",
  "features": [
    {
      "type": "Feature",
      "geometry": {
        "type": "Point",
        "coordinates": [
          8.7590345,
          51.71891549999999
        ]
      },
      "properties": {
        "id": "tk_fr_0553",
        "name": "Kiosk Domblick",
        "description": "Super Kiosk mit viel Auswahl ",
        "address": {
          "street": "An der Alten Synagoge",
          "number": "5",
          "postalcode": "33098",
          "city": "Paderborn"
        },
        "sources": [
          {
            "type": "hopfenstop",
            "id": "8ee7ff58-03c4-4703-ac41-a0dd0612251d"
          },
          {
            "type": "osm",
            "id": "node/2368171361",
            "version": 0
          }
        ],
        "created": "2026-05-19",
        "updated": "2026-05-20",
        "hours": {
          "raw": "Mo-Sa 08:00-23:00; Su 10:00-23:00"
        },
        "tags": [
          "barrierefrei"
        ]
      }
    },
    {
      "type": "Feature",
      "geometry": {
        "type": "Point",
        "coordinates": [
          8.7471674,
          51.7162752
        ]
      },
      "properties": {
        "id": "tk_fr_0554",
        "name": "Drugshop",
        "description": "Der Kiosk in Paderborn ä",
        "address": {
          "street": "Westernmauer",
          "number": "5",
          "postalcode": "33098",
          "city": "Paderborn"
        },
        "hours": {
          "raw": "Mo-We 06:00-02:00; Th 06:00-00:00; Fr-Sa 00:00-23:59; Su 09:00-02:00"
        },
        "sources": [
          {
            "type": "hopfenstop",
            "id": "0c173d5d-9225-4dd9-921a-ffb837eda463"
          }
        ],
        "created": "2026-05-19",
        "updated": "2026-05-19"
      }
    },
    {
      "type": "Feature",
      "geometry": {
        "type": "Point",
        "coordinates": [
          8.750604599999999,
          51.7204384
        ]
      },
      "properties": {
        "id": "tk_fr_0555",
        "name": "Kisok Kisau",
        "description": "Gute Auswahl",
        "address": {
          "street": "Kisau",
          "number": "15",
          "postalcode": "33098",
          "city": "Paderborn"
        },
        "hours": {
          "raw": "Mo-Fr 08:00-01:00"
        },
        "sources": [
          {
            "type": "hopfenstop",
            "id": "f6be8387-3a19-4180-8a2f-d008edda57f2"
          },
          {
            "type": "osm",
            "id": "node/928266524",
            "version": 0
          }
        ],
        "created": "2026-05-19",
        "updated": "2026-05-20"
      }
    },
    {
      "type": "Feature",
      "geometry": {
        "type": "Point",
        "coordinates": [
          8.75188,
          51.71502
        ]
      },
      "properties": {
        "id": "tk_fr_0556",
        "name": "Kiosk am Rosentor",
        "description": "Gute Auswahl bisschen teurer",
        "address": {
          "street": "Liboriberg",
          "number": "39",
          "postalcode": "33098",
          "city": "Paderborn"
        },
        "hours": {
          "raw": "Mo-Th 08:00-22:00; Fr 08:00-00:00; Sa 09:00-00:00; Su 12:00-22:00"
        },
        "sources": [
          {
            "type": "hopfenstop",
            "id": "9c3964cc-4269-4f1f-893c-6e03abed2e05"
          },
          {
            "type": "osm",
            "id": "way/219407064",
            "version": 0
          }
        ],
        "created": "2026-05-19",
        "updated": "2026-05-20"
      }
    },
    {
      "type": "Feature",
      "geometry": {
        "type": "Point",
        "coordinates": [
          8.7461304,
          51.7159044
        ]
      },
      "properties": {
        "id": "tk_fr_0557",
        "name": "4Klang",
        "description": "Direkt am Westerntor",
        "address": {
          "street": "Am Westerntor",
          "number": "4",
          "postalcode": "33098",
          "city": "Paderborn"
        },
        "hours": {
          "raw": "Mo-Th 05:30-23:00; Fr 05:30-01:00; Sa 08:00-01:00; Su 09:00-23:00"
        },
        "sources": [
          {
            "type": "hopfenstop",
            "id": "74fd7daa-4a65-4e98-91d4-88b873033d11"
          }
        ],
        "created": "2026-05-19",
        "updated": "2026-05-19"
      }
    },
    {
      "type": "Feature",
      "geometry": {
        "type": "Point",
        "coordinates": [
          8.5336123,
          52.0230797
        ]
      },
      "properties": {
        "id": "tk_fr_1070",
        "name": "Drugstore",
        "description": "Kiosk ",
        "address": {
          "street": "Jahnplatz",
          "number": "1",
          "postalcode": "33602",
          "city": "Bielefeld",
          "district": "Mitte"
        },
        "tags": [
          "fritz_kola"
        ],
        "sources": [
          {
            "type": "hopfenstop",
            "id": "42e745d4-1ad1-46e6-b4b7-f72e6e26c3f1"
          },
          {
            "type": "osm",
            "id": "node/2135388102",
            "version": 0
          }
        ],
        "created": "2026-05-19",
        "updated": "2026-05-20",
        "hours": {
          "raw": "Mo-Sa 08:30-24:00"
        }
      }
    },
    {
      "type": "Feature",
      "geometry": {
        "type": "Point",
        "coordinates": [
          8.5358956,
          52.0161202
        ]
      },
      "properties": {
        "id": "tk_fr_1071",
        "name": "Kiosk ",
        "description": "Kiosk ",
        "address": {
          "street": "Rohrteichstraße",
          "number": "26",
          "postalcode": "33602",
          "city": "Bielefeld",
          "district": "Mitte"
        },
        "tags": [
          "fritz_kola"
        ],
        "sources": [
          {
            "type": "hopfenstop",
            "id": "51cc185d-88fc-45df-a09e-d68e803a824d"
          }
        ],
        "created": "2026-05-19",
        "updated": "2026-05-19"
      }
    },
    {
      "type": "Feature",
      "geometry": {
        "type": "Point",
        "coordinates": [
          8.5007178,
          52.03677159999999
        ]
      },
      "properties": {
        "id": "tk_fr_1072",
        "name": "Eddy in der Uni",
        "description": "Kiosk ",
        "address": {
          "street": "Universitätsstraße",
          "number": "1",
          "postalcode": "33615",
          "city": "Bielefeld",
          "district": "Schildesche"
        },
        "tags": [
          "fritz_kola"
        ],
        "sources": [
          {
            "type": "hopfenstop",
            "id": "7dc1fe44-a805-42c6-9556-ee938a304775"
          }
        ],
        "created": "2026-05-19",
        "updated": "2026-05-19"
      }
    },
    {
      "type": "Feature",
      "geometry": {
        "type": "Point",
        "coordinates": [
          8.5324241,
          52.0201237
        ]
      },
      "properties": {
        "id": "tk_fr_1073",
        "name": "Kiosk Alter Markt ",
        "description": "Kiosk ",
        "address": {
          "street": "Gehrenberg",
          "number": "1",
          "postalcode": "33602",
          "city": "Bielefeld",
          "district": "Mitte"
        },
        "tags": [
          "fritz_kola"
        ],
        "sources": [
          {
            "type": "hopfenstop",
            "id": "f24f46c6-e347-4463-88f8-713715a343d6"
          }
        ],
        "created": "2026-05-19",
        "updated": "2026-05-19"
      }
    },
    {
      "type": "Feature",
      "geometry": {
        "type": "Point",
        "coordinates": [
          8.516624499999999,
          52.028191
        ]
      },
      "properties": {
        "id": "tk_fr_1074",
        "name": "Kiosk ",
        "description": "Kiosk ",
        "address": {
          "street": "Stapenhorststraße",
          "number": "99",
          "postalcode": "33615",
          "city": "Bielefeld",
          "district": "Mitte"
        },
        "tags": [
          "fritz_kola"
        ],
        "sources": [
          {
            "type": "hopfenstop",
            "id": "cc2c5c7d-82bc-4d01-9ea2-86c6950d8fed"
          }
        ],
        "created": "2026-05-19",
        "updated": "2026-05-19"
      }
    },
    {
      "type": "Feature",
      "geometry": {
        "type": "Point",
        "coordinates": [
          8.5322924,
          52.02814499999999
        ]
      },
      "properties": {
        "id": "tk_fr_1075",
        "name": "Kiosk am Bahnhof ",
        "description": "Kiosk ",
        "address": {
          "street": "Bahnhofstraße",
          "number": "48",
          "postalcode": "33602",
          "city": "Bielefeld",
          "district": "Mitte"
        },
        "tags": [
          "fritz_kola"
        ],
        "sources": [
          {
            "type": "hopfenstop",
            "id": "68ab0db4-4b10-40ab-aa4e-f87ddc4f44f7"
          }
        ],
        "created": "2026-05-19",
        "updated": "2026-05-19"
      }
    },
    {
      "type": "Feature",
      "geometry": {
        "type": "Point",
        "coordinates": [
          8.5135452,
          51.9876583
        ]
      },
      "properties": {
        "id": "tk_fr_1076",
        "name": "Mr Kiosk ",
        "description": "Kiosk ",
        "address": {
          "street": "Hauptstraße",
          "number": "49",
          "postalcode": "33647",
          "city": "Bielefeld",
          "district": "Brackwede"
        },
        "tags": [
          "fritz_kola"
        ],
        "sources": [
          {
            "type": "hopfenstop",
            "id": "b21284ce-7ae6-4846-a4e5-4402820cf33a"
          }
        ],
        "created": "2026-05-19",
        "updated": "2026-05-19"
      }
    },
    {
      "type": "Feature",
      "geometry": {
        "type": "Point",
        "coordinates": [
          8.506667199999999,
          51.9937863
        ]
      },
      "properties": {
        "id": "tk_fr_1077",
        "name": "Kiosk",
        "description": "Kiosk ",
        "address": {
          "street": "Hauptstraße",
          "number": "139",
          "postalcode": "33647",
          "city": "Bielefeld",
          "district": "Brackwede"
        },
        "tags": [
          "fritz_kola"
        ],
        "sources": [
          {
            "type": "hopfenstop",
            "id": "ee7ecc20-99ed-4727-bd38-5e237aa3d99c"
          }
        ],
        "created": "2026-05-19",
        "updated": "2026-05-19"
      }
    },
    {
      "type": "Feature",
      "geometry": {
        "type": "Point",
        "coordinates": [
          8.539899199999999,
          52.0230387
        ]
      },
      "properties": {
        "id": "tk_fr_1078",
        "name": "Drugstore Kesselring ",
        "description": "Kiosk ",
        "address": {
          "street": "August-Bebel-Straße",
          "number": "97B",
          "postalcode": "33602",
          "city": "Bielefeld",
          "district": "Mitte"
        },
        "hours": {
          "raw": "Mo-We 15:00-03:00; Th-Sa 15:00-06:00; Su 15:00-00:00"
        },
        "tags": [
          "fritz_kola",
          "mate",
          "sekt",
          "snacks",
          "wein"
        ],
        "sources": [
          {
            "type": "hopfenstop",
            "id": "d3a4e17a-e988-4e09-83db-d0c6d44010b4"
          },
          {
            "type": "osm",
            "id": "node/2698160730",
            "version": 0
          }
        ],
        "created": "2026-05-19",
        "updated": "2026-05-20"
      }
    },
    {
      "type": "Feature",
      "geometry": {
        "type": "Point",
        "coordinates": [
          8.52944,
          52.02468349999999
        ]
      },
      "properties": {
        "id": "tk_fr_1079",
        "name": "Kiosk Suleyman ",
        "description": "Kiosk ",
        "address": {
          "street": "Mercatorstraße",
          "number": "13",
          "postalcode": "33602",
          "city": "Bielefeld",
          "district": "Mitte"
        },
        "tags": [
          "fritz_kola"
        ],
        "sources": [
          {
            "type": "hopfenstop",
            "id": "7c0a4938-d4e7-4213-a18d-6fd8e0b2e6c6"
          }
        ],
        "created": "2026-05-19",
        "updated": "2026-05-19"
      }
    },
    {
      "type": "Feature",
      "geometry": {
        "type": "Point",
        "coordinates": [
          8.5364408,
          52.0245201
        ]
      },
      "properties": {
        "id": "tk_fr_1080",
        "name": "Kiosk am Kesselbrink",
        "description": "Kiosk ",
        "address": {
          "street": "Kesselbrink",
          "number": "1",
          "postalcode": "33602",
          "city": "Bielefeld",
          "district": "Mitte"
        },
        "tags": [
          "mate",
          "schnaps",
          "fritz_kola"
        ],
        "sources": [
          {
            "type": "hopfenstop",
            "id": "e6141cbc-a5d8-4a47-bb7a-c62c29e48821"
          }
        ],
        "created": "2026-05-19",
        "updated": "2026-05-19"
      }
    },
    {
      "type": "Feature",
      "geometry": {
        "type": "Point",
        "coordinates": [
          8.5339323,
          52.02420249999999
        ]
      },
      "properties": {
        "id": "tk_fr_1081",
        "name": "Kiosk City Point",
        "description": "Kiosk ",
        "address": {
          "street": "Herforder Straße",
          "number": "5",
          "postalcode": "33602",
          "city": "Bielefeld",
          "district": "Mitte"
        },
        "tags": [
          "fritz_kola"
        ],
        "sources": [
          {
            "type": "hopfenstop",
            "id": "1491b01e-1ebd-4eb5-9b91-927529f7e109"
          }
        ],
        "created": "2026-05-19",
        "updated": "2026-05-19"
      }
    },
    {
      "type": "Feature",
      "geometry": {
        "type": "Point",
        "coordinates": [
          8.524058499999999,
          52.0240664
        ]
      },
      "properties": {
        "id": "tk_fr_1082",
        "name": "West Kiosk",
        "description": "Kiosk ",
        "address": {
          "street": "Stapenhorststraße",
          "number": "22",
          "postalcode": "33615",
          "city": "Bielefeld",
          "district": "Mitte"
        },
        "tags": [
          "barrierefrei",
          "fritz_kola"
        ],
        "sources": [
          {
            "type": "hopfenstop",
            "id": "fcdc29c6-0517-49fe-9c88-47d31763c6da"
          },
          {
            "type": "osm",
            "id": "node/2157491650",
            "version": 0
          }
        ],
        "created": "2026-05-19",
        "updated": "2026-05-20",
        "hours": {
          "raw": "Mo-Fr 08:00-20:00; Sa 09:00-20:00; Su 12:00-18:00"
        }
      }
    },
    {
      "type": "Feature",
      "geometry": {
        "type": "Point",
        "coordinates": [
          8.4792297,
          52.03869539999999
        ]
      },
      "properties": {
        "id": "tk_fr_1083",
        "name": "Getränkemarkt Chrobok",
        "description": "Kiosk ",
        "address": {
          "street": "Wertherstraße",
          "number": "307",
          "postalcode": "33619",
          "city": "Bielefeld",
          "district": "Dornberg"
        },
        "tags": [
          "fritz_kola"
        ],
        "sources": [
          {
            "type": "hopfenstop",
            "id": "c225e6a8-235e-4eb2-9041-0479d2ffe912"
          }
        ],
        "created": "2026-05-19",
        "updated": "2026-05-19"
      }
    },
    {
      "type": "Feature",
      "geometry": {
        "type": "Point",
        "coordinates": [
          8.5348071,
          52.0246624
        ]
      },
      "properties": {
        "id": "tk_fr_1084",
        "name": "A. Store",
        "description": "Kiosk ",
        "address": {
          "street": "Herforder Straße",
          "number": "12",
          "postalcode": "33602",
          "city": "Bielefeld",
          "district": "Mitte"
        },
        "tags": [
          "eis",
          "fritz_kola",
          "gemischte_tuete",
          "kaffee",
          "schnaps",
          "snacks"
        ],
        "sources": [
          {
            "type": "hopfenstop",
            "id": "719309ac-c7d2-4cb1-b6a7-6d283b989ef2"
          },
          {
            "type": "osm",
            "id": "node/460329633",
            "version": 0
          }
        ],
        "created": "2026-05-19",
        "updated": "2026-05-20",
        "hours": {
          "raw": "Mo-Th 07:00-22:00; Fr 07:00-24:00; Sa 10:00-24:00; Su 10:00-22:00"
        }
      }
    },
    {
      "type": "Feature",
      "geometry": {
        "type": "Point",
        "coordinates": [
          8.539520099999999,
          52.0247621
        ]
      },
      "properties": {
        "id": "tk_fr_1085",
        "name": "Drugstore",
        "description": "Kiosk ",
        "address": {
          "street": "August-Bebel-Straße",
          "number": "84",
          "postalcode": "33602",
          "city": "Bielefeld",
          "district": "Mitte"
        },
        "hours": {
          "raw": "Mo-Th 09:00-00:00; Fr-Sa 09:00-00:30; Su 11:00-23:30"
        },
        "tags": [
          "fritz_kola",
          "eis",
          "snacks",
          "schnaps",
          "wein",
          "kaffee"
        ],
        "sources": [
          {
            "type": "hopfenstop",
            "id": "7741cc9c-c90c-493d-9e2f-7700703392d8"
          }
        ],
        "created": "2026-05-19",
        "updated": "2026-05-19"
      }
    },
    {
      "type": "Feature",
      "geometry": {
        "type": "Point",
        "coordinates": [
          8.0435308,
          52.2791062
        ]
      },
      "properties": {
        "id": "tk_fr_1215",
        "name": "Altstadt Kiosk ",
        "description": "Kiosk ",
        "address": {
          "street": "Hasestraße",
          "number": "51",
          "postalcode": "49074",
          "city": "Osnabrück",
          "district": "Innenstadt"
        },
        "tags": [
          "fritz_kola"
        ],
        "sources": [
          {
            "type": "hopfenstop",
            "id": "04adf1c7-a733-4202-aec4-3c9e211ef025"
          }
        ],
        "created": "2026-05-19",
        "updated": "2026-05-19"
      }
    },
    {
      "type": "Feature",
      "geometry": {
        "type": "Point",
        "coordinates": [
          8.053752,
          52.26565429999999
        ]
      },
      "properties": {
        "id": "tk_fr_1216",
        "name": "Captn Ciosk",
        "description": "Kiosk ",
        "address": {
          "street": "Rosenplatz",
          "number": "24",
          "postalcode": "49074",
          "city": "Osnabrück",
          "district": "Innenstadt"
        },
        "tags": [
          "fritz_kola"
        ],
        "sources": [
          {
            "type": "hopfenstop",
            "id": "142e06af-ffb5-43d0-85c1-5e70121db6c9"
          }
        ],
        "created": "2026-05-19",
        "updated": "2026-05-19"
      }
    },
    {
      "type": "Feature",
      "geometry": {
        "type": "Point",
        "coordinates": [
          8.0329131,
          52.2729063
        ]
      },
      "properties": {
        "id": "tk_fr_1217",
        "name": "Schleckeria",
        "description": "Kiosk ",
        "address": {
          "street": "Augustenburger Straße",
          "number": "10",
          "postalcode": "49078",
          "city": "Osnabrück"
        },
        "tags": [
          "fritz_kola"
        ],
        "sources": [
          {
            "type": "hopfenstop",
            "id": "0e344ce0-5aed-4585-ae7c-9612015c88da"
          }
        ],
        "created": "2026-05-19",
        "updated": "2026-05-19"
      }
    },
    {
      "type": "Feature",
      "geometry": {
        "type": "Point",
        "coordinates": [
          8.0508019,
          52.2707219
        ]
      },
      "properties": {
        "id": "tk_fr_1218",
        "name": "Kiosk Rossi ",
        "description": "Kiosk ",
        "address": {
          "street": "Johannisstraße",
          "number": "89",
          "postalcode": "49074",
          "city": "Osnabrück",
          "district": "Innenstadt"
        },
        "tags": [
          "fritz_kola"
        ],
        "sources": [
          {
            "type": "hopfenstop",
            "id": "0543750b-8ff0-428f-8de3-ddd559b8bcf1"
          }
        ],
        "created": "2026-05-19",
        "updated": "2026-05-19"
      }
    },
    {
      "type": "Feature",
      "geometry": {
        "type": "Point",
        "coordinates": [
          8.5296735,
          52.0220326
        ]
      },
      "properties": {
        "id": "tk_fr_1708",
        "name": "Altstadt Kiosk",
        "description": "Kleiner Kiosk mit Innenraum",
        "address": {
          "street": "Notpfortenstraße",
          "number": "1A",
          "postalcode": "33602",
          "city": "Bielefeld",
          "district": "Mitte"
        },
        "hours": {
          "raw": "Mo-Th 10:00-22:00; Fr-Sa 10:00-00:00; Su 10:00-22:00"
        },
        "tags": [
          "eis",
          "innenraum"
        ],
        "sources": [
          {
            "type": "hopfenstop",
            "id": "ee50e1bd-80fa-4a65-8283-7182b9830726"
          },
          {
            "type": "osm",
            "id": "node/2516628317",
            "version": 0
          }
        ],
        "created": "2026-05-19",
        "updated": "2026-05-20"
      }
    },
    {
      "type": "Feature",
      "geometry": {
        "type": "Point",
        "coordinates": [
          8.529517,
          52.0252151
        ]
      },
      "properties": {
        "id": "tk_fr_1709",
        "name": "Habibi Kiosk",
        "description": "Großer Kiosk mit Innenraum und Sitzgelegenheiten",
        "address": {
          "street": "Karl-Eilers-Straße",
          "number": "18",
          "postalcode": "33602",
          "city": "Bielefeld",
          "district": "Mitte"
        },
        "hours": {
          "raw": "Mo-Th 09:00-22:00; Fr-Sa 09:00-00:00; Su 10:00-22:00"
        },
        "tags": [
          "innenraum",
          "sitzgelegenheiten"
        ],
        "sources": [
          {
            "type": "hopfenstop",
            "id": "1f3125be-7bb8-4bb6-b885-15e3c841a8c9"
          }
        ],
        "created": "2026-05-19",
        "updated": "2026-05-19"
      }
    },
    {
      "type": "Feature",
      "geometry": {
        "type": "Point",
        "coordinates": [
          8.5394778,
          52.0269875
        ]
      },
      "properties": {
        "id": "tk_fr_1710",
        "name": "Awan Kiosk",
        "description": "Eckkiosk mit Shisha-Zubehör. Flasche Wodka + 1 Liter Cola für 12€\nUnd Studentendeals!",
        "address": {
          "street": "Paulusstraße",
          "number": "25",
          "postalcode": "33602",
          "city": "Bielefeld",
          "district": "Mitte"
        },
        "hours": {
          "raw": "Mo-Th 10:30-00:00; Fr-Sa 10:30-02:00; Su 10:30-00:00"
        },
        "tags": [
          "eis",
          "fritz_kola",
          "innenraum",
          "mate",
          "paketshop",
          "schnaps",
          "snacks",
          "wein"
        ],
        "sources": [
          {
            "type": "hopfenstop",
            "id": "02581056-eb68-4af1-984e-3f3ed7c938d1"
          },
          {
            "type": "osm",
            "id": "node/5851789623",
            "version": 0
          }
        ],
        "created": "2026-05-19",
        "updated": "2026-05-20",
        "payment": {
          "cash": "yes"
        }
      }
    },
    {
      "type": "Feature",
      "geometry": {
        "type": "Point",
        "coordinates": [
          8.5394393,
          52.0300533
        ]
      },
      "properties": {
        "id": "tk_fr_1711",
        "name": "Gieselmann Kiosk",
        "description": "Kiosk mit Lotto",
        "address": {
          "street": "August-Bebel-Straße",
          "number": "26",
          "postalcode": "33602",
          "city": "Bielefeld",
          "district": "Mitte"
        },
        "hours": {
          "raw": "Mo-Fr 06:00-20:00; Sa 07:00-20:00; Su 08:00-15:00"
        },
        "tags": [
          "backwaren",
          "eis",
          "gemischte_tuete",
          "lotto"
        ],
        "sources": [
          {
            "type": "hopfenstop",
            "id": "72fae1c9-9fa2-4ed4-800a-aeb5084c50bd"
          },
          {
            "type": "osm",
            "id": "node/5671382740",
            "version": 0
          }
        ],
        "created": "2026-05-19",
        "updated": "2026-05-20",
        "payment": {
          "cash": "yes"
        }
      }
    },
    {
      "type": "Feature",
      "geometry": {
        "type": "Point",
        "coordinates": [
          8.5399855,
          52.0324316
        ]
      },
      "properties": {
        "id": "tk_fr_1712",
        "name": "Kauf Point",
        "description": "Riesiger Kiosk mit top Auswahl und überdachtem Stehtisch",
        "address": {
          "street": "August-Bebel-Straße",
          "number": "1",
          "postalcode": "33602",
          "city": "Bielefeld",
          "district": "Mitte"
        },
        "hours": {
          "raw": "Mo-Fr 10:00-23:30; Sa-Su 10:00-00:30"
        },
        "tags": [
          "eis",
          "stehtisch",
          "ueberdacht",
          "fritz_kola",
          "innenraum",
          "mate",
          "snacks",
          "schnaps",
          "wein",
          "sekt",
          "kaffee"
        ],
        "sources": [
          {
            "type": "hopfenstop",
            "id": "4830d890-8280-4bd5-a5a4-6f631483697c"
          }
        ],
        "created": "2026-05-19",
        "updated": "2026-05-19"
      }
    },
    {
      "type": "Feature",
      "geometry": {
        "type": "Point",
        "coordinates": [
          8.536372199999999,
          52.02819299999999
        ]
      },
      "properties": {
        "id": "tk_fr_1713",
        "name": "Internet&Callshop Kiosk",
        "description": "Kleiner Internet Callshop mit kleinem Kiosksortiment",
        "address": {
          "street": "Herforder Straße",
          "number": "46",
          "postalcode": "33602",
          "city": "Bielefeld",
          "district": "Mitte"
        },
        "sources": [
          {
            "type": "hopfenstop",
            "id": "29e36ae6-5b3d-4868-afff-ae062c666074"
          }
        ],
        "created": "2026-05-19",
        "updated": "2026-05-19"
      }
    },
    {
      "type": "Feature",
      "geometry": {
        "type": "Point",
        "coordinates": [
          8.5362379,
          52.0279307
        ]
      },
      "properties": {
        "id": "tk_fr_1714",
        "name": "City Kiosk",
        "description": "Kiosk mit Sitzmöglichkeiten vor der Tür",
        "address": {
          "street": "Herforder Straße",
          "number": "42",
          "postalcode": "33602",
          "city": "Bielefeld",
          "district": "Mitte"
        },
        "hours": {
          "raw": "Mo-Fr 10:00-23:00; Sa-Su 10:00-00:00"
        },
        "tags": [
          "eis",
          "kaffee",
          "fritz_kola",
          "wein",
          "snacks",
          "schnaps",
          "paketshop",
          "sitzgelegenheiten"
        ],
        "sources": [
          {
            "type": "hopfenstop",
            "id": "c4429ca0-d819-468c-ba6e-1e451001a140"
          }
        ],
        "created": "2026-05-19",
        "updated": "2026-05-19"
      }
    },
    {
      "type": "Feature",
      "geometry": {
        "type": "Point",
        "coordinates": [
          8.5355387,
          52.02641879999999
        ]
      },
      "properties": {
        "id": "tk_fr_1715",
        "name": "Rodi Minimarket Getränke Paradies Drugstore",
        "description": "Riesiger Kiosk",
        "address": {
          "street": "Herforder Straße",
          "number": "24",
          "postalcode": "33602",
          "city": "Bielefeld",
          "district": "Mitte"
        },
        "hours": {
          "raw": "Mo-Th 10:00-01:00; Fr-Sa 10:00-03:00; Su 10:00-01:00"
        },
        "tags": [
          "snacks",
          "gemischte_tuete",
          "postkarten",
          "eis",
          "sekt",
          "wein",
          "schnaps",
          "innenraum",
          "mate"
        ],
        "sources": [
          {
            "type": "hopfenstop",
            "id": "5d1634ea-2689-438c-bbc0-3bd687f1b83e"
          }
        ],
        "created": "2026-05-19",
        "updated": "2026-05-19"
      }
    },
    {
      "type": "Feature",
      "geometry": {
        "type": "Point",
        "coordinates": [
          8.5346685,
          52.0266706
        ]
      },
      "properties": {
        "id": "tk_fr_1716",
        "name": "Drugstore",
        "description": "Großer Kiosk",
        "address": {
          "street": "Herforder Straße",
          "number": "33",
          "postalcode": "33602",
          "city": "Bielefeld",
          "district": "Mitte"
        },
        "hours": {
          "raw": "Mo-Th 08:00-00:00; Fr-Sa 08:30-03:00; Su 09:00-00:00"
        },
        "tags": [
          "innenraum",
          "snacks",
          "wein",
          "sekt",
          "schnaps",
          "eis",
          "kaffee",
          "mate",
          "sitzgelegenheiten"
        ],
        "sources": [
          {
            "type": "hopfenstop",
            "id": "e9a12e09-bf41-40e6-a8dd-767e9eaa1467"
          }
        ],
        "created": "2026-05-19",
        "updated": "2026-05-19"
      }
    },
    {
      "type": "Feature",
      "geometry": {
        "type": "Point",
        "coordinates": [
          8.53375,
          52.0282171
        ]
      },
      "properties": {
        "id": "tk_fr_1717",
        "name": "Drugstore Kiosk",
        "description": "Kleines Kiosk mit leuchtender Fassade",
        "address": {
          "street": "Herbert-Hinnendahl-Straße",
          "number": "21",
          "postalcode": "33602",
          "city": "Bielefeld",
          "district": "Mitte"
        },
        "sources": [
          {
            "type": "hopfenstop",
            "id": "d942cf83-a6db-4e3a-8735-2b069e7853ec"
          },
          {
            "type": "osm",
            "id": "node/4084889001",
            "version": 0
          }
        ],
        "created": "2026-05-19",
        "updated": "2026-05-20"
      }
    },
    {
      "type": "Feature",
      "geometry": {
        "type": "Point",
        "coordinates": [
          8.532666200000001,
          52.0286817
        ]
      },
      "properties": {
        "id": "tk_fr_1718",
        "name": "Kiosk",
        "description": "Kiosk am Bahnhof",
        "address": {
          "street": "Bahnhofsplatz",
          "number": "1d",
          "postalcode": "33602",
          "city": "Bielefeld",
          "district": "Mitte"
        },
        "sources": [
          {
            "type": "hopfenstop",
            "id": "b17e8038-8236-4d8f-9f41-55a5a2324a0d"
          }
        ],
        "created": "2026-05-19",
        "updated": "2026-05-19"
      }
    },
    {
      "type": "Feature",
      "geometry": {
        "type": "Point",
        "coordinates": [
          8.5322924,
          52.02814499999999
        ]
      },
      "properties": {
        "id": "tk_fr_1719",
        "name": "Kiosk Drugstore",
        "description": "Am Bahnhof mit Sitzgelegenheiten",
        "address": {
          "street": "Bahnhofstraße",
          "number": "48",
          "postalcode": "33602",
          "city": "Bielefeld",
          "district": "Mitte"
        },
        "hours": {
          "raw": "Mo-Su 11:00-01:00"
        },
        "tags": [
          "barrierefrei",
          "sitzgelegenheiten",
          "snacks"
        ],
        "sources": [
          {
            "type": "hopfenstop",
            "id": "6b857755-36b8-48b4-a36c-6c6602f573a2"
          },
          {
            "type": "osm",
            "id": "node/1879068203",
            "version": 0
          }
        ],
        "created": "2026-05-19",
        "updated": "2026-05-20"
      }
    },
    {
      "type": "Feature",
      "geometry": {
        "type": "Point",
        "coordinates": [
          8.801722999999999,
          52.197127
        ]
      },
      "properties": {
        "id": "tk_fr_1968",
        "name": "EC Express",
        "description": "Klein aber fein ",
        "address": {
          "postalcode": "32545",
          "city": "Bad Oeynhausen"
        },
        "hours": {
          "raw": "Sa-Su 06:00-19:00"
        },
        "sources": [
          {
            "type": "hopfenstop",
            "id": "f0cea1da-23b4-47ef-b437-684bd3789d8f"
          }
        ],
        "created": "2026-05-19",
        "updated": "2026-05-19"
      }
    }
  ]
}
