{
  "type": "FeatureCollection",
  "features": [
    {
      "type": "Feature",
      "geometry": {
        "type": "Point",
        "coordinates": [
          7.6303422,
          51.9580965
        ]
      },
      "properties": {
        "id": "tk_ms_osm_n10980688877",
        "name": "Promenaden-Kiosk",
        "address": {
          "street": "Windthorststraße",
          "number": "32",
          "postalcode": "48143",
          "city": "Münster",
          "district": "Altstadt"
        },
        "sources": [
          {
            "type": "osm",
            "id": "node/10980688877",
            "version": 0
          },
          {
            "type": "gmaps",
            "id": "payment"
          }
        ],
        "created": "2026-05-20",
        "updated": "2026-06-29",
        "hours": {
          "raw": "Mo-Th 10:00-23:00; Fr,Sa 09:30-23:00; Su 12:00-21:00"
        },
        "tags": [
          "barrierefrei"
        ],
        "sources_by_field": {
          "name": "osm",
          "hours": "osm"
        },
        "apple_id_attempted": "2026-06-23",
        "payment": {
          "cards": "yes"
        }
      }
    },
    {
      "type": "Feature",
      "geometry": {
        "type": "Point",
        "coordinates": [
          7.6479217,
          51.9550209
        ]
      },
      "properties": {
        "id": "tk_ms_osm_n11409887021",
        "name": "Kiosk KIO",
        "address": {
          "street": "Wolbecker Straße",
          "number": "104"
        },
        "sources": [
          {
            "type": "osm",
            "id": "node/11409887021",
            "version": 0
          },
          {
            "type": "gmaps",
            "id": "payment"
          },
          {
            "type": "apple",
            "id": "1150611818865008931"
          }
        ],
        "created": "2026-05-20",
        "updated": "2026-06-29",
        "hours": {
          "raw": "Mo-Sa 07:00-22:00; Su 09:30-22:00"
        },
        "sources_by_field": {
          "name": "osm",
          "address.street": "osm",
          "address.number": "osm",
          "hours": "osm"
        },
        "payment": {
          "cards": "yes",
          "girocard": "yes"
        }
      }
    },
    {
      "type": "Feature",
      "geometry": {
        "type": "Point",
        "coordinates": [
          7.648195,
          51.9398365
        ]
      },
      "properties": {
        "id": "tk_ms_osm_n11728259691",
        "name": "Ratio Tankstelle",
        "address": {
          "street": "Loddenheide",
          "number": "5",
          "postalcode": "48155",
          "city": "Münster",
          "district": "Gremmendorf"
        },
        "sources": [
          {
            "type": "osm",
            "id": "node/11728259691",
            "version": 0
          },
          {
            "type": "apple",
            "id": "13609928168700634936"
          }
        ],
        "created": "2026-05-20",
        "updated": "2026-06-29",
        "hours": {
          "raw": "Mo-Fr 06:00-22:00; Sa,Su,PH 08:00-21:00"
        },
        "payment": {
          "cash": "unknown",
          "cards": "yes",
          "contactless": "unknown",
          "girocard": "unknown"
        },
        "tags": [
          "barrierefrei"
        ],
        "sources_by_field": {
          "name": "osm",
          "hours": "osm",
          "payment.cash": "osm",
          "payment.cards": "osm",
          "payment.contactless": "osm",
          "payment.girocard": "osm"
        }
      }
    },
    {
      "type": "Feature",
      "geometry": {
        "type": "Point",
        "coordinates": [
          7.6120374,
          51.98261
        ]
      },
      "properties": {
        "id": "tk_ms_osm_n12593958380",
        "name": "ASJ Asiashop",
        "address": {
          "street": "Grevener Straße",
          "number": "222",
          "postalcode": "48159",
          "city": "Münster",
          "district": "Mitte-Nordost"
        },
        "sources": [
          {
            "type": "osm",
            "id": "node/12593958380",
            "version": 0
          },
          {
            "type": "gmaps",
            "id": "ChIJZ-it5We7uUcReXbXEbXlEc8"
          }
        ],
        "created": "2026-05-20",
        "updated": "2026-06-29",
        "sources_by_field": {
          "name": "osm",
          "hours": "google",
          "payment.cards": "google"
        },
        "apple_id_attempted": "2026-06-23",
        "google_attempted": "2026-06-23",
        "hours": {
          "raw": "Tu 09:30-21:00; Th 09:30-21:00; Fr 09:30-21:00; We 09:30-21:00; Mo 09:30-21:00; Sa 09:30-21:00"
        },
        "payment": {
          "cards": "yes",
          "contactless": "yes",
          "girocard": "yes"
        }
      }
    },
    {
      "type": "Feature",
      "geometry": {
        "type": "Point",
        "coordinates": [
          7.6295776,
          51.9662346
        ]
      },
      "properties": {
        "id": "tk_ms_osm_n12745258301",
        "name": "Day to Day - Kiosk",
        "address": {
          "street": "Neubrückenstraße",
          "number": "25"
        },
        "sources": [
          {
            "type": "osm",
            "id": "node/12745258301",
            "version": 0
          },
          {
            "type": "gmaps",
            "id": "payment"
          },
          {
            "type": "apple",
            "id": "11495085083615272460"
          }
        ],
        "created": "2026-05-20",
        "updated": "2026-06-29",
        "hours": {
          "raw": "Mo-Fr 08:00-24:00; Sa 09:00-24:00; Su 12:00-24:00; PH 12:00-24:00"
        },
        "sources_by_field": {
          "name": "osm",
          "address.street": "osm",
          "address.number": "osm",
          "hours": "osm"
        },
        "payment": {
          "cards": "yes",
          "girocard": "yes"
        }
      }
    },
    {
      "type": "Feature",
      "geometry": {
        "type": "Point",
        "coordinates": [
          7.6022745,
          51.9952898
        ]
      },
      "properties": {
        "id": "tk_ms_osm_n12751913103",
        "name": "der Kiosk",
        "address": {
          "street": "Idenbrockplatz",
          "number": "24"
        },
        "sources": [
          {
            "type": "osm",
            "id": "node/12751913103",
            "version": 0
          },
          {
            "type": "gmaps",
            "id": "payment"
          }
        ],
        "created": "2026-05-20",
        "updated": "2026-06-29",
        "hours": {
          "raw": "Mo-Sa 09:00-24:00, Su 11:00-23:00"
        },
        "sources_by_field": {
          "name": "osm",
          "address.street": "osm",
          "address.number": "osm",
          "hours": "osm"
        },
        "apple_id_attempted": "2026-06-23",
        "payment": {
          "cards": "no",
          "girocard": "yes"
        }
      }
    },
    {
      "type": "Feature",
      "geometry": {
        "type": "Point",
        "coordinates": [
          7.686547,
          52.0463274
        ]
      },
      "properties": {
        "id": "tk_ms_osm_n13701536428",
        "name": "Mittelpunkt",
        "address": {},
        "sources": [
          {
            "type": "osm",
            "id": "node/13701536428",
            "version": 0
          },
          {
            "type": "gmaps",
            "id": "ChIJ30IIYT-5uUcR06goqlGbvPU"
          }
        ],
        "created": "2026-05-20",
        "updated": "2026-06-29",
        "payment": {
          "cash": "yes",
          "cards": "yes",
          "contactless": "yes",
          "girocard": "yes"
        },
        "sources_by_field": {
          "name": "osm",
          "payment.cash": "osm",
          "payment.cards": "osm",
          "payment.contactless": "google",
          "payment.girocard": "google",
          "hours": "google"
        },
        "apple_id_attempted": "2026-06-24",
        "google_attempted": "2026-06-24",
        "hours": {
          "raw": "Tu 08:00-13:00; Th 08:00-13:00; Fr 08:00-13:00; We 08:00-13:00; Mo 08:00-13:00; Sa 08:00-13:00; Su 08:00-13:00"
        }
      }
    },
    {
      "type": "Feature",
      "geometry": {
        "type": "Point",
        "coordinates": [
          7.6250323,
          51.9503671
        ]
      },
      "properties": {
        "id": "tk_ms_osm_n1547602971",
        "name": "Zigarren Fincke",
        "address": {
          "street": "Hammer Straße",
          "number": "63",
          "postalcode": "48153",
          "city": "Münster"
        },
        "sources": [
          {
            "type": "osm",
            "id": "node/1547602971",
            "version": 0
          },
          {
            "type": "gmaps",
            "id": "payment"
          }
        ],
        "created": "2026-05-20",
        "updated": "2026-06-29",
        "hours": {
          "raw": "Mo-Fr 09:00-18:30; Sa 09:00-13:15"
        },
        "tags": [
          "barrierefrei"
        ],
        "sources_by_field": {
          "name": "osm",
          "address.street": "osm",
          "address.number": "osm",
          "address.postalcode": "osm",
          "address.city": "osm",
          "hours": "osm"
        },
        "apple_id_attempted": "2026-06-23",
        "payment": {
          "cards": "no",
          "contactless": "yes",
          "girocard": "yes"
        }
      }
    },
    {
      "type": "Feature",
      "geometry": {
        "type": "Point",
        "coordinates": [
          7.6370532,
          51.9530639
        ]
      },
      "properties": {
        "id": "tk_ms_osm_n1557102060",
        "name": "Hansa Kiosk",
        "address": {
          "street": "Hansaring",
          "number": "1",
          "postalcode": "48155",
          "city": "Münster"
        },
        "sources": [
          {
            "type": "osm",
            "id": "node/1557102060",
            "version": 0
          },
          {
            "type": "gmaps",
            "id": "payment"
          },
          {
            "type": "apple",
            "id": "1367346947299446992"
          }
        ],
        "created": "2026-05-20",
        "updated": "2026-06-29",
        "hours": {
          "raw": "Mo,Tu,Th 10:00-23:00, We,Fr,Sa 10:00-24:00, Su,PH 10:00-23:00"
        },
        "sources_by_field": {
          "name": "osm",
          "address.street": "osm",
          "address.number": "osm",
          "address.postalcode": "osm",
          "address.city": "osm",
          "hours": "osm"
        },
        "payment": {
          "cards": "yes",
          "contactless": "yes",
          "girocard": "yes"
        }
      }
    },
    {
      "type": "Feature",
      "geometry": {
        "type": "Point",
        "coordinates": [
          7.64456,
          51.9588837
        ]
      },
      "properties": {
        "id": "tk_ms_osm_n1582924227",
        "name": "Nachtfalken",
        "address": {
          "street": "Sternstraße",
          "number": "37",
          "postalcode": "48145",
          "city": "Münster"
        },
        "sources": [
          {
            "type": "osm",
            "id": "node/1582924227",
            "version": 0
          },
          {
            "type": "gmaps",
            "id": "ChIJedYGSie7uUcRqD3JZpQxIGs"
          }
        ],
        "created": "2026-05-20",
        "updated": "2026-06-29",
        "hours": {
          "raw": "Tu 10:00-20:00; Th 10:00-20:00; Fr 10:00-20:00; We 10:00-20:00; Mo 10:00-20:00; Su 14:00-19:00"
        },
        "sources_by_field": {
          "name": "osm",
          "address.street": "osm",
          "address.number": "osm",
          "address.postalcode": "osm",
          "address.city": "osm",
          "hours": "google"
        },
        "apple_id_attempted": "2026-06-23",
        "google_attempted": "2026-06-23",
        "payment": {}
      }
    },
    {
      "type": "Feature",
      "geometry": {
        "type": "Point",
        "coordinates": [
          7.625665,
          51.9470003
        ]
      },
      "properties": {
        "id": "tk_ms_osm_n1583561861",
        "name": "Tante August",
        "address": {
          "street": "Dahlweg",
          "number": "38",
          "postalcode": "48153",
          "city": "Münster",
          "district": "Mitte-Süd"
        },
        "sources": [
          {
            "type": "osm",
            "id": "node/1583561861",
            "version": 0
          },
          {
            "type": "gmaps",
            "id": "payment"
          },
          {
            "type": "apple",
            "id": "602498783182980590"
          }
        ],
        "created": "2026-05-20",
        "updated": "2026-06-29",
        "hours": {
          "raw": "Mo-Th 10:00-18:00; Fr-Su 10:00-20:00"
        },
        "tags": [
          "draussen",
          "sitzgelegenheiten"
        ],
        "sources_by_field": {
          "name": "osm",
          "hours": "osm"
        },
        "payment": {
          "cash": "yes",
          "cards": "yes",
          "contactless": "yes"
        }
      }
    },
    {
      "type": "Feature",
      "geometry": {
        "type": "Point",
        "coordinates": [
          7.6435232,
          51.9669153
        ]
      },
      "properties": {
        "id": "tk_ms_osm_n1619237144",
        "name": "Getränke Adick",
        "address": {
          "street": "Bohlweg",
          "number": "72",
          "postalcode": "48147",
          "city": "Münster"
        },
        "sources": [
          {
            "type": "osm",
            "id": "node/1619237144",
            "version": 0
          },
          {
            "type": "gmaps",
            "id": "payment"
          }
        ],
        "created": "2026-05-20",
        "updated": "2026-06-29",
        "hours": {
          "raw": "Mo-Th 09:00-13:00,14:30-19:00; Fr 09:00-19:00; Sa 08:30-14:00"
        },
        "tags": [
          "barrierefrei"
        ],
        "sources_by_field": {
          "name": "osm",
          "address.street": "osm",
          "address.number": "osm",
          "address.postalcode": "osm",
          "address.city": "osm",
          "hours": "osm"
        },
        "apple_id_attempted": "2026-06-23",
        "payment": {
          "cards": "yes",
          "contactless": "yes",
          "girocard": "yes"
        }
      }
    },
    {
      "type": "Feature",
      "geometry": {
        "type": "Point",
        "coordinates": [
          7.6895222,
          51.9152425
        ]
      },
      "properties": {
        "id": "tk_ms_osm_n1824927809",
        "name": "Angelmoddder Kiepenkerl",
        "address": {
          "street": "Clemens-August-Platz",
          "number": "18",
          "postalcode": "48167",
          "city": "Münster"
        },
        "sources": [
          {
            "type": "osm",
            "id": "node/1824927809",
            "version": 0
          },
          {
            "type": "gmaps",
            "id": "ChIJAY64C2GjuUcRj9xFO4OEw20"
          }
        ],
        "created": "2026-05-20",
        "updated": "2026-06-29",
        "sources_by_field": {
          "name": "osm",
          "address.street": "osm",
          "address.number": "osm",
          "address.postalcode": "osm",
          "address.city": "osm"
        },
        "apple_id_attempted": "2026-06-23",
        "google_attempted": "2026-06-23",
        "payment": {}
      }
    },
    {
      "type": "Feature",
      "geometry": {
        "type": "Point",
        "coordinates": [
          7.6681926,
          51.9283744
        ]
      },
      "properties": {
        "id": "tk_ms_osm_n1836085793",
        "name": "Haus des Marktes 2",
        "address": {
          "street": "Albersloher Weg",
          "number": "437",
          "postalcode": "48167",
          "city": "Münster",
          "district": "Gremmendorf"
        },
        "sources": [
          {
            "type": "osm",
            "id": "node/1836085793",
            "version": 0
          },
          {
            "type": "gmaps",
            "id": "payment"
          },
          {
            "type": "apple",
            "id": "18320100341795864644"
          }
        ],
        "created": "2026-05-20",
        "updated": "2026-06-29",
        "hours": {
          "raw": "Mo-Fr 08:00-12:00,15:00-17:30; Sa 08:00-12:30"
        },
        "sources_by_field": {
          "name": "osm",
          "hours": "osm"
        },
        "payment": {
          "cards": "yes",
          "contactless": "yes",
          "girocard": "yes"
        }
      }
    },
    {
      "type": "Feature",
      "geometry": {
        "type": "Point",
        "coordinates": [
          7.5331961,
          51.9527167
        ]
      },
      "properties": {
        "id": "tk_ms_osm_n1836835318",
        "name": "Gut Getränke",
        "address": {
          "street": "Könemannstraße",
          "number": "11",
          "postalcode": "48161",
          "city": "Münster"
        },
        "sources": [
          {
            "type": "osm",
            "id": "node/1836835318",
            "version": 0
          },
          {
            "type": "gmaps",
            "id": "payment"
          },
          {
            "type": "apple",
            "id": "3438897234827675146"
          }
        ],
        "created": "2026-05-20",
        "updated": "2026-06-29",
        "hours": {
          "raw": "Mo-Fr 09:00-18:30; Sa 08:30-14:00"
        },
        "tags": [
          "barrierefrei"
        ],
        "sources_by_field": {
          "name": "osm",
          "address.street": "osm",
          "address.number": "osm",
          "address.postalcode": "osm",
          "address.city": "osm",
          "hours": "osm"
        },
        "payment": {
          "cards": "no",
          "contactless": "yes",
          "girocard": "yes"
        }
      }
    },
    {
      "type": "Feature",
      "geometry": {
        "type": "Point",
        "coordinates": [
          7.6200304,
          51.9450695
        ]
      },
      "properties": {
        "id": "tk_ms_osm_n2007018368",
        "name": "Akbars Kiosk",
        "address": {
          "street": "Sentmaringer Weg",
          "number": "105",
          "postalcode": "48151",
          "city": "Münster"
        },
        "sources": [
          {
            "type": "osm",
            "id": "node/2007018368",
            "version": 0
          },
          {
            "type": "apple",
            "id": "15111169905571377232"
          }
        ],
        "created": "2026-05-20",
        "updated": "2026-06-29",
        "hours": {
          "raw": "Mo-Fr 08:00-12:00,15:00-20:00; Sa 08:30-18:30; Su 13:30-18:30"
        },
        "sources_by_field": {
          "name": "osm",
          "address.street": "osm",
          "address.number": "osm",
          "address.postalcode": "osm",
          "address.city": "osm",
          "hours": "osm"
        },
        "payment": {
          "cards": "yes",
          "contactless": "yes"
        }
      }
    },
    {
      "type": "Feature",
      "geometry": {
        "type": "Point",
        "coordinates": [
          7.5704352,
          51.9578993
        ]
      },
      "properties": {
        "id": "tk_ms_osm_n2140204102",
        "name": "Naber Tabak & Presse",
        "address": {
          "street": "Roxeler Straße",
          "number": "420",
          "postalcode": "48161",
          "city": "Münster"
        },
        "sources": [
          {
            "type": "osm",
            "id": "node/2140204102",
            "version": 0
          },
          {
            "type": "gmaps",
            "id": "ChIJHaexvRqwuUcR_78olEmn9VM"
          }
        ],
        "created": "2026-05-20",
        "updated": "2026-06-29",
        "tags": [
          "barrierefrei"
        ],
        "sources_by_field": {
          "name": "osm",
          "address.street": "osm",
          "address.number": "osm",
          "address.postalcode": "osm",
          "address.city": "osm",
          "hours": "google",
          "payment.cards": "google"
        },
        "apple_id_attempted": "2026-06-23",
        "google_attempted": "2026-06-23",
        "hours": {
          "raw": "Tu 08:00-20:00; Th 08:00-20:00; Fr 08:00-20:00; We 08:00-20:00; Mo 08:00-20:00; Sa 08:00-20:00"
        },
        "payment": {
          "cards": "yes",
          "contactless": "yes",
          "girocard": "yes"
        }
      }
    },
    {
      "type": "Feature",
      "geometry": {
        "type": "Point",
        "coordinates": [
          7.6304,
          51.9638685
        ]
      },
      "properties": {
        "id": "tk_ms_osm_n2345418721",
        "name": "Allerlei am Bult",
        "address": {
          "street": "Bült",
          "number": "4",
          "postalcode": "48143",
          "city": "Münster"
        },
        "sources": [
          {
            "type": "osm",
            "id": "node/2345418721",
            "version": 0
          },
          {
            "type": "gmaps",
            "id": "ChIJ8U-7NN26uUcRB5YGQKutxwg"
          }
        ],
        "created": "2026-05-20",
        "updated": "2026-06-29",
        "sources_by_field": {
          "name": "osm",
          "address.street": "osm",
          "address.number": "osm",
          "address.postalcode": "osm",
          "address.city": "osm",
          "hours": "google",
          "payment.cards": "google"
        },
        "apple_id_attempted": "2026-06-23",
        "google_attempted": "2026-06-23",
        "hours": {
          "raw": "Tu 08:00-22:00; Th 08:00-22:00; Fr 08:00-03:00; We 08:00-00:00; Mo 08:00-22:00; Sa 08:00-03:00"
        },
        "payment": {
          "cards": "yes",
          "contactless": "yes",
          "girocard": "yes"
        }
      }
    },
    {
      "type": "Feature",
      "geometry": {
        "type": "Point",
        "coordinates": [
          7.6207308,
          51.9579262
        ]
      },
      "properties": {
        "id": "tk_ms_osm_n2376384873",
        "name": "Aegidii-Trinkhalle",
        "address": {
          "street": "Aegidiistraße",
          "number": "42",
          "postalcode": "48143",
          "city": "Münster",
          "district": "Altstadt"
        },
        "sources": [
          {
            "type": "osm",
            "id": "node/2376384873",
            "version": 0
          },
          {
            "type": "gmaps",
            "id": "payment"
          },
          {
            "type": "apple",
            "id": "1087084559450174338"
          }
        ],
        "created": "2026-05-20",
        "updated": "2026-06-29",
        "hours": {
          "raw": "Mo-Su 12:00-20:00"
        },
        "sources_by_field": {
          "name": "osm",
          "hours": "osm"
        },
        "payment": {
          "cards": "no",
          "contactless": "yes",
          "girocard": "yes"
        }
      }
    },
    {
      "type": "Feature",
      "geometry": {
        "type": "Point",
        "coordinates": [
          7.6757664,
          51.9212644
        ]
      },
      "properties": {
        "id": "tk_ms_osm_n2563196832",
        "name": "Kiosk Süd",
        "address": {
          "street": "Albersloher Weg",
          "number": "587",
          "postalcode": "48167",
          "city": "Münster"
        },
        "sources": [
          {
            "type": "osm",
            "id": "node/2563196832",
            "version": 0
          },
          {
            "type": "gmaps",
            "id": "payment"
          }
        ],
        "created": "2026-05-20",
        "updated": "2026-06-29",
        "hours": {
          "raw": "Mo-Fr 07:00-22:00, Sa 09:00-22:00, Su 10:00-22:00"
        },
        "sources_by_field": {
          "name": "osm",
          "address.street": "osm",
          "address.number": "osm",
          "address.postalcode": "osm",
          "address.city": "osm",
          "hours": "osm"
        },
        "apple_id_attempted": "2026-06-23",
        "payment": {
          "cards": "no",
          "contactless": "yes",
          "girocard": "yes"
        }
      }
    },
    {
      "type": "Feature",
      "geometry": {
        "type": "Point",
        "coordinates": [
          7.4855735,
          51.8565959
        ]
      },
      "properties": {
        "id": "tk_ms_osm_n2603436594",
        "name": "Getränke Eckmann",
        "address": {
          "street": "Herrenstraße",
          "number": "33",
          "postalcode": "48308",
          "city": "Senden"
        },
        "sources": [
          {
            "type": "osm",
            "id": "node/2603436594",
            "version": 0
          },
          {
            "type": "gmaps",
            "id": "ChIJO7lQFjqpuUcRe3oQ4xicoKc"
          }
        ],
        "created": "2026-05-20",
        "updated": "2026-06-29",
        "sources_by_field": {
          "name": "osm",
          "hours": "google",
          "payment.cards": "google"
        },
        "apple_id_attempted": "2026-06-23",
        "google_attempted": "2026-06-23",
        "hours": {
          "raw": "Tu 07:30-20:30; Th 07:30-20:30; Fr 07:30-20:30; We 07:30-20:30; Mo 07:30-20:30; Sa 07:30-20:30"
        },
        "payment": {
          "cards": "yes",
          "contactless": "yes",
          "girocard": "yes"
        }
      }
    },
    {
      "type": "Feature",
      "geometry": {
        "type": "Point",
        "coordinates": [
          7.4815488,
          52.0841207
        ]
      },
      "properties": {
        "id": "tk_ms_osm_n269030087",
        "name": "Kiosk Bien",
        "address": {
          "street": "Welle",
          "number": "4-6",
          "postalcode": "48356",
          "city": "Nordwalde"
        },
        "sources": [
          {
            "type": "osm",
            "id": "node/269030087",
            "version": 0
          },
          {
            "type": "gmaps",
            "id": "ChIJ3S6e5Ce1uUcRVY5kCtI4_oM"
          }
        ],
        "created": "2026-05-20",
        "updated": "2026-06-29",
        "hours": {
          "raw": "Tu 08:30-12:30,14:00-18:00; Th 08:30-12:30,14:00-18:00; Fr 08:30-12:30,14:00-18:00; We 08:30-12:30,14:00-18:00; Sa 09:00-12:30"
        },
        "tags": [
          "barrierefrei"
        ],
        "sources_by_field": {
          "name": "osm",
          "address.street": "osm",
          "address.number": "osm",
          "address.postalcode": "osm",
          "address.city": "osm",
          "hours": "google",
          "payment.cards": "google",
          "payment.contactless": "google",
          "payment.girocard": "google"
        },
        "apple_id_attempted": "2026-06-24",
        "google_attempted": "2026-05-25",
        "payment": {
          "cards": "no",
          "contactless": "yes",
          "girocard": "yes"
        }
      }
    },
    {
      "type": "Feature",
      "geometry": {
        "type": "Point",
        "coordinates": [
          7.6477739,
          51.9388606
        ]
      },
      "properties": {
        "id": "tk_ms_osm_n2794923687",
        "name": "Naber Tabak+Presse",
        "address": {
          "street": "Loddenheide",
          "number": "5",
          "postalcode": "48155",
          "city": "Münster"
        },
        "sources": [
          {
            "type": "osm",
            "id": "node/2794923687",
            "version": 0
          },
          {
            "type": "apple",
            "id": "5957978499467798034"
          }
        ],
        "created": "2026-05-20",
        "updated": "2026-06-29",
        "hours": {
          "raw": "Mo-Sa 08:00-20:00; Su,PH off"
        },
        "payment": {
          "cash": "unknown",
          "cards": "yes",
          "contactless": "unknown",
          "girocard": "unknown"
        },
        "tags": [
          "barrierefrei"
        ],
        "sources_by_field": {
          "name": "osm",
          "address.street": "osm",
          "address.number": "osm",
          "address.postalcode": "osm",
          "address.city": "osm",
          "hours": "osm",
          "payment.cash": "osm",
          "payment.cards": "osm",
          "payment.contactless": "osm",
          "payment.girocard": "osm"
        }
      }
    },
    {
      "type": "Feature",
      "geometry": {
        "type": "Point",
        "coordinates": [
          7.6184446,
          51.9660934
        ]
      },
      "properties": {
        "id": "tk_ms_osm_n295713927",
        "name": "Farids Kiosk",
        "address": {
          "street": "Jüdefelderstraße",
          "number": "40",
          "postalcode": "48143",
          "city": "Münster",
          "district": "Altstadt"
        },
        "sources": [
          {
            "type": "osm",
            "id": "node/295713927",
            "version": 0
          },
          {
            "type": "apple",
            "id": "4804702429420592540"
          },
          {
            "type": "gmaps",
            "id": "ChIJC1QjHMC6uUcR3zywG3s-8Dk"
          }
        ],
        "created": "2026-05-20",
        "updated": "2026-06-29",
        "hours": {
          "raw": "Tu 18:00-22:30; Th 18:00-22:30; Fr 18:00-03:00; We 18:00-03:00; Mo 18:00-22:30; Sa 18:00-00:00"
        },
        "sources_by_field": {
          "name": "osm",
          "hours": "google"
        },
        "apple_attempted": "2026-06-23",
        "google_attempted": "2026-06-23",
        "payment": {}
      }
    },
    {
      "type": "Feature",
      "geometry": {
        "type": "Point",
        "coordinates": [
          7.6178851,
          51.9667185
        ]
      },
      "properties": {
        "id": "tk_ms_osm_n3158129206",
        "name": "Lammerding",
        "address": {
          "street": "Münzstraße",
          "number": "1a",
          "postalcode": "48143",
          "city": "Münster",
          "district": "Altstadt"
        },
        "sources": [
          {
            "type": "osm",
            "id": "node/3158129206",
            "version": 0
          },
          {
            "type": "gmaps",
            "id": "payment"
          }
        ],
        "created": "2026-05-20",
        "updated": "2026-06-29",
        "hours": {
          "raw": "Mo,Tu,Th 09:00-19:00; We 09:00-22:00; Fr,Sa 09:00-24:00; Su off"
        },
        "tags": [
          "barrierefrei"
        ],
        "sources_by_field": {
          "name": "osm",
          "hours": "osm"
        },
        "apple_id_attempted": "2026-06-23",
        "payment": {
          "cards": "yes",
          "girocard": "yes"
        }
      }
    },
    {
      "type": "Feature",
      "geometry": {
        "type": "Point",
        "coordinates": [
          7.7000696,
          51.9227867
        ]
      },
      "properties": {
        "id": "tk_ms_osm_n3416413336",
        "name": "Getränke Hermann Mangels GmbH & Co. KG",
        "address": {
          "street": "Kirchplatz",
          "number": "6",
          "postalcode": "48167",
          "city": "Münster"
        },
        "sources": [
          {
            "type": "osm",
            "id": "node/3416413336",
            "version": 0
          },
          {
            "type": "gmaps",
            "id": "ChIJj2pJolyjuUcRzYCm1J53IJ8"
          }
        ],
        "created": "2026-05-20",
        "updated": "2026-06-29",
        "sources_by_field": {
          "name": "osm",
          "address.street": "osm",
          "address.number": "osm",
          "address.postalcode": "osm",
          "address.city": "osm"
        },
        "apple_id_attempted": "2026-06-23",
        "google_attempted": "2026-06-23",
        "payment": {}
      }
    },
    {
      "type": "Feature",
      "geometry": {
        "type": "Point",
        "coordinates": [
          7.6383288,
          51.9582106
        ]
      },
      "properties": {
        "id": "tk_ms_osm_n3788317795",
        "name": "Bremer Kiosk",
        "address": {
          "street": "Wolbecker Straße",
          "number": "18",
          "postalcode": "48155",
          "city": "Münster",
          "district": "Innenstadtring"
        },
        "sources": [
          {
            "type": "osm",
            "id": "node/3788317795",
            "version": 0
          },
          {
            "type": "gmaps",
            "id": "payment"
          }
        ],
        "created": "2026-05-20",
        "updated": "2026-06-29",
        "hours": {
          "raw": "Mo-Fr 10:30-24:00, Sa 10:30-02:00, Su 10:30-23:00"
        },
        "sources_by_field": {
          "name": "osm",
          "hours": "osm"
        },
        "apple_id_attempted": "2026-06-23",
        "payment": {
          "cards": "no",
          "contactless": "yes",
          "girocard": "yes"
        }
      }
    },
    {
      "type": "Feature",
      "geometry": {
        "type": "Point",
        "coordinates": [
          7.6334612,
          51.9567679
        ]
      },
      "properties": {
        "id": "tk_ms_osm_n4160165410",
        "name": "MS Express Markt",
        "address": {
          "street": "Berliner Platz",
          "number": "2",
          "postalcode": "48143",
          "city": "Münster"
        },
        "sources": [
          {
            "type": "osm",
            "id": "node/4160165410",
            "version": 0
          },
          {
            "type": "gmaps",
            "id": "payment"
          },
          {
            "type": "apple",
            "id": "13249405419977691572"
          }
        ],
        "created": "2026-05-20",
        "updated": "2026-06-29",
        "sources_by_field": {
          "name": "osm",
          "address.street": "osm",
          "address.number": "osm",
          "address.postalcode": "osm",
          "address.city": "osm",
          "hours": "apple"
        },
        "apple_attempted": "2026-05-27",
        "hours": {
          "raw": "Th,Su 06:00-24:00; Mo-Tu 00:00-01:00,06:00-24:00; We,Fr-Sa 00:00-24:00"
        },
        "payment": {
          "cards": "no",
          "contactless": "yes",
          "girocard": "yes"
        }
      }
    },
    {
      "type": "Feature",
      "geometry": {
        "type": "Point",
        "coordinates": [
          7.6367808,
          51.952757
        ]
      },
      "properties": {
        "id": "tk_ms_osm_n4173179496",
        "name": "Kiosk Ecke",
        "address": {
          "street": "Hansaring",
          "number": "2",
          "postalcode": "48155",
          "city": "Münster"
        },
        "sources": [
          {
            "type": "osm",
            "id": "node/4173179496",
            "version": 0
          },
          {
            "type": "gmaps",
            "id": "payment"
          },
          {
            "type": "apple",
            "id": "8028757634003868145"
          }
        ],
        "created": "2026-05-20",
        "updated": "2026-06-29",
        "hours": {
          "raw": "\"No regular opening hours according to staff\""
        },
        "sources_by_field": {
          "name": "osm",
          "address.street": "osm",
          "address.number": "osm",
          "address.postalcode": "osm",
          "address.city": "osm",
          "hours": "osm"
        },
        "apple_id_attempted": "2026-05-23",
        "payment": {
          "cards": "no",
          "contactless": "yes",
          "girocard": "yes"
        }
      }
    },
    {
      "type": "Feature",
      "geometry": {
        "type": "Point",
        "coordinates": [
          7.6451132,
          51.9557946
        ]
      },
      "properties": {
        "id": "tk_ms_osm_n4312765089",
        "name": "Kiosk im Ostviertel II",
        "address": {
          "postalcode": "48155",
          "street": "Wolbecker Straße",
          "number": "91",
          "city": "Münster",
          "district": "Innenstadtring"
        },
        "sources": [
          {
            "type": "osm",
            "id": "node/4312765089",
            "version": 0
          },
          {
            "type": "gmaps",
            "id": "ChIJz8dyV4C7uUcRNiWqEzQtyZI"
          }
        ],
        "created": "2026-05-20",
        "updated": "2026-06-29",
        "hours": {
          "raw": "Tu 09:00-20:00; Th 09:00-20:00; Fr 09:00-20:00; We 09:00-20:00; Mo 09:00-20:00; Sa 09:00-18:00"
        },
        "sources_by_field": {
          "name": "osm",
          "address.postalcode": "osm",
          "hours": "google"
        },
        "apple_id_attempted": "2026-06-23",
        "google_attempted": "2026-06-23",
        "payment": {}
      }
    },
    {
      "type": "Feature",
      "geometry": {
        "type": "Point",
        "coordinates": [
          7.6417502,
          51.9533743
        ]
      },
      "properties": {
        "id": "tk_ms_osm_n5220267783",
        "name": "Hafen Kiosk",
        "address": {
          "street": "Hansaring",
          "number": "39",
          "postalcode": "48155",
          "city": "Münster"
        },
        "sources": [
          {
            "type": "osm",
            "id": "node/5220267783",
            "version": 0
          },
          {
            "type": "gmaps",
            "id": "payment"
          },
          {
            "type": "apple",
            "id": "5246173934018438212"
          }
        ],
        "created": "2026-05-20",
        "updated": "2026-06-29",
        "hours": {
          "raw": "Mo-Fr 15:00-24:00+, Sa 14:00-24:00+"
        },
        "sources_by_field": {
          "name": "osm",
          "address.street": "osm",
          "address.number": "osm",
          "address.postalcode": "osm",
          "address.city": "osm",
          "hours": "osm"
        },
        "payment": {
          "cards": "no",
          "contactless": "yes",
          "girocard": "yes"
        }
      }
    },
    {
      "type": "Feature",
      "geometry": {
        "type": "Point",
        "coordinates": [
          7.6183936,
          52.0887946
        ]
      },
      "properties": {
        "id": "tk_ms_osm_n6160735710",
        "name": "Grevener Kiosk",
        "address": {
          "street": "Grabenstraße",
          "number": "27",
          "postalcode": "48268",
          "city": "Greven"
        },
        "sources": [
          {
            "type": "osm",
            "id": "node/6160735710",
            "version": 0
          },
          {
            "type": "gmaps",
            "id": "payment"
          },
          {
            "type": "apple",
            "id": "8282648156208677810"
          }
        ],
        "created": "2026-05-20",
        "updated": "2026-06-29",
        "sources_by_field": {
          "name": "osm"
        },
        "hours": {
          "raw": "Mo-Th,Su 11:00-23:00; Fr-Sa 11:00-24:00"
        },
        "payment": {
          "cards": "yes",
          "contactless": "yes",
          "girocard": "yes"
        }
      }
    },
    {
      "type": "Feature",
      "geometry": {
        "type": "Point",
        "coordinates": [
          7.6322772,
          51.9539827
        ]
      },
      "properties": {
        "id": "tk_ms_osm_n628745327",
        "name": "Kiosk 24",
        "address": {
          "street": "Hafenstraße",
          "number": "45",
          "postalcode": "48153",
          "city": "Münster"
        },
        "sources": [
          {
            "type": "osm",
            "id": "node/628745327",
            "version": 0
          },
          {
            "type": "gmaps",
            "id": "payment"
          }
        ],
        "created": "2026-05-20",
        "updated": "2026-06-29",
        "hours": {
          "raw": "Mo-Tu,Su 08:00-02:00; We 08:00-04:00; Th 08:00-03:00; Fr-Sa 08:00-05:00"
        },
        "sources_by_field": {
          "name": "osm",
          "hours": "osm"
        },
        "apple_id_attempted": "2026-06-23",
        "payment": {
          "cards": "no",
          "contactless": "yes",
          "girocard": "yes"
        }
      }
    },
    {
      "type": "Feature",
      "geometry": {
        "type": "Point",
        "coordinates": [
          7.6143221,
          51.939805
        ]
      },
      "properties": {
        "id": "tk_ms_osm_n629637881",
        "name": "Grüne Insel",
        "address": {
          "street": "Inselbogen",
          "number": "45",
          "postalcode": "48151",
          "city": "Münster"
        },
        "sources": [
          {
            "type": "osm",
            "id": "node/629637881",
            "version": 0
          },
          {
            "type": "gmaps",
            "id": "ChIJgx60gjaluUcROyahkvNMexk"
          }
        ],
        "created": "2026-05-20",
        "updated": "2026-06-29",
        "hours": {
          "raw": "Mo-Th 10:00-22:00; Fr,Sa 10:00-23:30; Su 11:00-22:00"
        },
        "tags": [
          "barrierefrei"
        ],
        "sources_by_field": {
          "name": "osm",
          "address.street": "osm",
          "address.number": "osm",
          "address.postalcode": "osm",
          "address.city": "osm",
          "hours": "osm"
        },
        "apple_id_attempted": "2026-06-23",
        "google_attempted": "2026-06-23",
        "payment": {}
      }
    },
    {
      "type": "Feature",
      "geometry": {
        "type": "Point",
        "coordinates": [
          7.6268542,
          51.8931674
        ]
      },
      "properties": {
        "id": "tk_ms_osm_n6426446093",
        "name": "Getränke Zimmermann",
        "address": {
          "street": "Hansestraße",
          "number": "14",
          "postalcode": "48165",
          "city": "Münster",
          "district": "Hiltrup"
        },
        "sources": [
          {
            "type": "osm",
            "id": "node/6426446093",
            "version": 0
          },
          {
            "type": "gmaps",
            "id": "payment"
          }
        ],
        "created": "2026-05-20",
        "updated": "2026-06-29",
        "hours": {
          "raw": "Mo-Sa 09:00-18:30; Sa 09:00-13:30; PH closed"
        },
        "tags": [
          "barrierefrei"
        ],
        "sources_by_field": {
          "name": "osm",
          "hours": "osm"
        },
        "apple_id_attempted": "2026-06-23",
        "payment": {
          "cards": "yes",
          "contactless": "yes",
          "girocard": "yes"
        }
      }
    },
    {
      "type": "Feature",
      "geometry": {
        "type": "Point",
        "coordinates": [
          7.5647946,
          51.9726197
        ]
      },
      "properties": {
        "id": "tk_ms_osm_n667047825",
        "name": "Rüschhauskiosk",
        "address": {
          "postalcode": "48161",
          "street": "Dieckmannstraße",
          "number": "8",
          "city": "Münster",
          "district": "Gievenbeck"
        },
        "sources": [
          {
            "type": "osm",
            "id": "node/667047825",
            "version": 0
          },
          {
            "type": "gmaps",
            "id": "payment"
          }
        ],
        "created": "2026-05-20",
        "updated": "2026-06-29",
        "hours": {
          "raw": "Mo 15:00-20:30; Tu-Sa 10:30-13:00, 15:00-20:30; Su 13:00-20:30"
        },
        "sources_by_field": {
          "name": "osm",
          "address.postalcode": "osm",
          "hours": "osm"
        },
        "apple_id_attempted": "2026-06-23",
        "payment": {
          "cards": "no",
          "contactless": "yes",
          "girocard": "yes"
        }
      }
    },
    {
      "type": "Feature",
      "geometry": {
        "type": "Point",
        "coordinates": [
          7.6342059,
          51.9576392
        ]
      },
      "properties": {
        "id": "tk_ms_osm_n667936173",
        "name": "myKiosk",
        "address": {
          "street": "Bahnhofstraße",
          "number": "18",
          "postalcode": "48143",
          "city": "Münster",
          "district": "Innenstadtring"
        },
        "sources": [
          {
            "type": "osm",
            "id": "node/667936173",
            "version": 0
          },
          {
            "type": "gmaps",
            "id": "ChIJbYU8ydu6uUcRqkOIG6aq1is"
          }
        ],
        "created": "2026-05-20",
        "updated": "2026-06-29",
        "hours": {
          "raw": "Tu 10:00-20:00; Th 10:00-20:00; Fr 10:00-21:00; We 10:00-20:00; Mo 10:00-20:00; Sa 11:00-21:00; Su 12:00-20:00"
        },
        "sources_by_field": {
          "name": "osm",
          "hours": "google"
        },
        "apple_id_attempted": "2026-06-23",
        "google_attempted": "2026-06-23",
        "payment": {}
      }
    },
    {
      "type": "Feature",
      "geometry": {
        "type": "Point",
        "coordinates": [
          7.6246307,
          51.9492297
        ]
      },
      "properties": {
        "id": "tk_ms_osm_n6737232432",
        "name": "Südviertel Kiosk",
        "address": {
          "street": "Hammer Straße",
          "number": "69",
          "postalcode": "48153",
          "city": "Münster",
          "district": "Mitte-Süd"
        },
        "sources": [
          {
            "type": "osm",
            "id": "node/6737232432",
            "version": 0
          },
          {
            "type": "gmaps",
            "id": "payment"
          },
          {
            "type": "apple",
            "id": "445669928473249195"
          }
        ],
        "created": "2026-05-20",
        "updated": "2026-06-29",
        "hours": {
          "raw": "Mo-Fr 08:00-18:30; Sa 08:00-17:00; Su off"
        },
        "tags": [
          "barrierefrei"
        ],
        "sources_by_field": {
          "name": "osm",
          "hours": "osm"
        },
        "payment": {
          "cards": "no",
          "contactless": "yes",
          "girocard": "yes"
        }
      }
    },
    {
      "type": "Feature",
      "geometry": {
        "type": "Point",
        "coordinates": [
          7.6109499,
          52.0970619
        ]
      },
      "properties": {
        "id": "tk_ms_osm_n7738274311",
        "name": "Strotmann",
        "address": {
          "street": "Saerbecker Straße",
          "number": "17",
          "postalcode": "48268",
          "city": "Greven"
        },
        "sources": [
          {
            "type": "osm",
            "id": "node/7738274311",
            "version": 0
          },
          {
            "type": "gmaps",
            "id": "payment"
          }
        ],
        "created": "2026-05-20",
        "updated": "2026-06-29",
        "sources_by_field": {
          "name": "osm",
          "address.street": "osm",
          "address.number": "osm",
          "address.postalcode": "osm",
          "address.city": "osm"
        },
        "apple_id_attempted": "2026-06-23",
        "google_attempted": "2026-06-23",
        "payment": {
          "cards": "yes",
          "contactless": "yes",
          "girocard": "yes"
        }
      }
    },
    {
      "type": "Feature",
      "geometry": {
        "type": "Point",
        "coordinates": [
          7.6120401,
          51.982495
        ]
      },
      "properties": {
        "id": "tk_ms_osm_n839219305",
        "name": "Kiosk Teheran",
        "address": {
          "street": "Grevener Straße",
          "number": "222",
          "postalcode": "48159",
          "city": "Münster"
        },
        "sources": [
          {
            "type": "osm",
            "id": "node/839219305",
            "version": 0
          },
          {
            "type": "gmaps",
            "id": "payment"
          },
          {
            "type": "apple",
            "id": "3451983380303825610"
          }
        ],
        "created": "2026-05-20",
        "updated": "2026-06-29",
        "hours": {
          "raw": "Mo-Th 09:00-20:00; Fr 09:00-22:00; Sa 10:00-22:00; Su,PH off"
        },
        "sources_by_field": {
          "name": "osm",
          "address.street": "osm",
          "address.number": "osm",
          "address.postalcode": "osm",
          "address.city": "osm",
          "hours": "osm"
        },
        "payment": {
          "cards": "yes"
        }
      }
    },
    {
      "type": "Feature",
      "geometry": {
        "type": "Point",
        "coordinates": [
          7.690794,
          51.947541
        ]
      },
      "properties": {
        "id": "tk_ms_osm_n9010306260",
        "name": "MUCHIIIZ",
        "address": {},
        "sources": [
          {
            "type": "osm",
            "id": "node/9010306260",
            "version": 0
          },
          {
            "type": "gmaps",
            "id": "ChIJ7-_DRgC7uUcRj7F9gn_EOl0"
          }
        ],
        "created": "2026-05-20",
        "updated": "2026-06-29",
        "sources_by_field": {
          "name": "osm",
          "hours": "google"
        },
        "apple_id_attempted": "2026-06-24",
        "google_attempted": "2026-06-24",
        "hours": {
          "raw": "Tu 11:00-20:00; Th 11:00-20:00; Fr 11:00-20:00; We 11:00-20:00; Mo 11:00-20:00; Sa 11:00-20:00; Su 11:00-20:00"
        },
        "payment": {}
      }
    },
    {
      "type": "Feature",
      "geometry": {
        "type": "Point",
        "coordinates": [
          7.5998414,
          52.0930509
        ]
      },
      "properties": {
        "id": "tk_ms_osm_n9748521361",
        "name": "Herr Anton",
        "address": {
          "street": "Nordwalder Straße",
          "postalcode": "48268",
          "city": "Greven"
        },
        "sources": [
          {
            "type": "osm",
            "id": "node/9748521361",
            "version": 0
          },
          {
            "type": "gmaps",
            "id": "payment"
          }
        ],
        "created": "2026-05-20",
        "updated": "2026-06-29",
        "hours": {
          "raw": "24/7"
        },
        "sources_by_field": {
          "name": "osm",
          "hours": "osm"
        },
        "apple_id_attempted": "2026-06-23",
        "payment": {
          "cards": "no",
          "contactless": "yes",
          "girocard": "yes"
        }
      }
    },
    {
      "type": "Feature",
      "geometry": {
        "type": "Point",
        "coordinates": [
          7.643031,
          51.9620733
        ]
      },
      "properties": {
        "id": "tk_ms_osm_n9817273456",
        "name": "Kiosk24",
        "address": {
          "street": "Warendorfer Straße",
          "number": "51",
          "postalcode": "48145",
          "city": "Münster"
        },
        "sources": [
          {
            "type": "osm",
            "id": "node/9817273456",
            "version": 0
          },
          {
            "type": "gmaps",
            "id": "payment"
          }
        ],
        "created": "2026-05-20",
        "updated": "2026-06-29",
        "hours": {
          "raw": "Mo-Fr 07:30-22:00; Sa 09:00-22:00; Su 10:00-22:00"
        },
        "sources_by_field": {
          "name": "osm",
          "address.street": "osm",
          "address.number": "osm",
          "address.postalcode": "osm",
          "address.city": "osm",
          "hours": "osm"
        },
        "apple_id_attempted": "2026-06-23",
        "payment": {
          "cards": "no",
          "contactless": "yes",
          "girocard": "yes"
        }
      }
    },
    {
      "type": "Feature",
      "geometry": {
        "type": "Point",
        "coordinates": [
          7.4716401,
          52.077686
        ]
      },
      "properties": {
        "id": "tk_ms_osm_w110372380",
        "name": "Getränke Haufe",
        "address": {
          "street": "Sandstiege",
          "number": "23",
          "postalcode": "48356",
          "city": "Nordwalde"
        },
        "sources": [
          {
            "type": "osm",
            "id": "way/110372380",
            "version": 0
          },
          {
            "type": "gmaps",
            "id": "ChIJX1DUzU20uUcRDWwRP0FJEbs"
          }
        ],
        "created": "2026-05-20",
        "updated": "2026-06-29",
        "tags": [
          "barrierefrei"
        ],
        "sources_by_field": {
          "name": "osm",
          "address.street": "osm",
          "address.number": "osm",
          "address.postalcode": "osm",
          "address.city": "osm",
          "hours": "google"
        },
        "apple_id_attempted": "2026-06-23",
        "google_attempted": "2026-06-23",
        "hours": {
          "raw": "Tu 08:30-12:30,14:30-18:30; Th 08:30-12:30,14:30-18:30; Fr 08:30-12:30,13:30-18:30; We 08:30-12:30,14:30-18:30; Mo 08:30-12:30,14:30-18:30; Sa 08:00-13:00"
        },
        "payment": {}
      }
    },
    {
      "type": "Feature",
      "geometry": {
        "type": "Point",
        "coordinates": [
          7.7735546,
          51.9801751
        ]
      },
      "properties": {
        "id": "tk_ms_osm_w110725981",
        "name": "Getränkedepot",
        "address": {
          "street": "Orkotten",
          "number": "50",
          "postalcode": "48291",
          "city": "Telgte"
        },
        "sources": [
          {
            "type": "osm",
            "id": "way/110725981",
            "version": 0
          },
          {
            "type": "gmaps",
            "id": "payment"
          }
        ],
        "created": "2026-05-20",
        "updated": "2026-05-21",
        "hours": {
          "raw": "Mo-Fr 09:00-19:00; Sa 08:00-15:00"
        },
        "payment": {
          "cards": "no",
          "girocard": "yes",
          "contactless": "yes"
        },
        "apple_id_attempted": "2026-06-23"
      }
    },
    {
      "type": "Feature",
      "geometry": {
        "type": "Point",
        "coordinates": [
          7.7440217,
          52.0309934
        ]
      },
      "properties": {
        "id": "tk_ms_osm_w113563054",
        "name": "Getränke König",
        "address": {
          "street": "Bahnweg",
          "number": "1",
          "postalcode": "48291",
          "city": "Telgte",
          "district": "Vadrup"
        },
        "sources": [
          {
            "type": "osm",
            "id": "way/113563054",
            "version": 0
          },
          {
            "type": "gmaps",
            "id": "ChIJVaUAlKK-uUcROywBKthZmvs"
          }
        ],
        "created": "2026-05-20",
        "updated": "2026-06-29",
        "sources_by_field": {
          "name": "osm",
          "hours": "google"
        },
        "apple_id_attempted": "2026-06-23",
        "google_attempted": "2026-06-23",
        "hours": {
          "raw": "Tu 06:30-12:00; Th 06:30-12:00,15:00-18:00; Fr 06:30-12:00,15:00-18:00; We 06:30-12:00,15:00-18:00; Mo 06:30-12:00,15:00-18:00; Sa 06:30-12:00"
        },
        "payment": {}
      }
    },
    {
      "type": "Feature",
      "geometry": {
        "type": "Point",
        "coordinates": [
          7.6229502,
          51.9534319
        ]
      },
      "properties": {
        "id": "tk_ms_osm_w138389912",
        "name": "KiKaKu Kiosk",
        "address": {
          "street": "Norbertstraße",
          "number": "24",
          "postalcode": "48151",
          "city": "Münster"
        },
        "sources": [
          {
            "type": "osm",
            "id": "way/138389912",
            "version": 0
          },
          {
            "type": "gmaps",
            "id": "ChIJQdjxEM-6uUcRJttdI08JkmI"
          }
        ],
        "created": "2026-05-20",
        "updated": "2026-06-29",
        "hours": {
          "raw": "Tu 16:00-21:00; Th 16:00-21:00; Fr 16:00-21:00; We 16:00-21:00; Sa 17:00-21:00; Su 17:00-21:00"
        },
        "tags": [
          "barrierefrei"
        ],
        "sources_by_field": {
          "name": "osm",
          "address.street": "osm",
          "address.number": "osm",
          "address.postalcode": "osm",
          "address.city": "osm",
          "hours": "google"
        },
        "apple_id_attempted": "2026-06-23",
        "google_attempted": "2026-06-23",
        "payment": {
          "cash": "yes"
        }
      }
    },
    {
      "type": "Feature",
      "geometry": {
        "type": "Point",
        "coordinates": [
          7.5584476,
          51.9998651
        ]
      },
      "properties": {
        "id": "tk_ms_osm_w171833572",
        "name": "Aral",
        "address": {
          "street": "Altenberger Straße",
          "number": "34",
          "postalcode": "48161",
          "city": "Münster",
          "district": "Nienberge"
        },
        "sources": [
          {
            "type": "osm",
            "id": "way/171833572",
            "version": 0
          },
          {
            "type": "gmaps",
            "id": "payment"
          }
        ],
        "created": "2026-05-20",
        "updated": "2026-06-29",
        "hours": {
          "raw": "Mo-Fr 06:00-22:00; Sa 08:00-22:00; Su 09:00-22:00"
        },
        "sources_by_field": {
          "name": "osm",
          "hours": "osm"
        },
        "apple_id_attempted": "2026-06-23",
        "payment": {
          "cards": "no",
          "contactless": "yes",
          "girocard": "yes"
        }
      }
    },
    {
      "type": "Feature",
      "geometry": {
        "type": "Point",
        "coordinates": [
          7.6136153,
          51.9711978
        ]
      },
      "properties": {
        "id": "tk_ms_osm_w193924968",
        "name": "X-Viertel-Kiosk",
        "address": {
          "street": "Melchersstraße",
          "number": "85",
          "postalcode": "48149",
          "city": "Münster"
        },
        "sources": [
          {
            "type": "osm",
            "id": "way/193924968",
            "version": 0
          },
          {
            "type": "apple",
            "id": "5129257847707511220"
          }
        ],
        "created": "2026-05-20",
        "updated": "2026-06-29",
        "hours": {
          "raw": "Mo-Fr 10:00-22:00; Sa 10:00-22:00; Su 15:00-20:00"
        },
        "tags": [
          "barrierefrei"
        ],
        "sources_by_field": {
          "name": "osm",
          "address.street": "osm",
          "address.number": "osm",
          "address.postalcode": "osm",
          "address.city": "osm",
          "hours": "osm"
        },
        "payment": {
          "cards": "yes",
          "contactless": "yes"
        }
      }
    },
    {
      "type": "Feature",
      "geometry": {
        "type": "Point",
        "coordinates": [
          7.5990125,
          51.9307407
        ]
      },
      "properties": {
        "id": "tk_ms_osm_w49853390",
        "name": "HIT",
        "address": {
          "street": "Geringhoffstraße",
          "number": "40",
          "postalcode": "48163",
          "city": "Münster"
        },
        "sources": [
          {
            "type": "osm",
            "id": "way/49853390",
            "version": 0
          },
          {
            "type": "gmaps",
            "id": "payment"
          }
        ],
        "created": "2026-05-20",
        "updated": "2026-06-15",
        "hours": {
          "raw": "Mo-Sa 08:00-20:00"
        },
        "sources_by_field": {
          "name": "osm",
          "address.street": "osm",
          "address.number": "osm",
          "address.postalcode": "osm",
          "address.city": "osm",
          "hours": "osm"
        },
        "apple_id_attempted": "2026-06-23",
        "payment": {
          "cards": "no",
          "contactless": "yes",
          "girocard": "yes"
        }
      }
    },
    {
      "type": "Feature",
      "geometry": {
        "type": "Point",
        "coordinates": [
          7.8500324,
          52.0454215
        ]
      },
      "properties": {
        "id": "tk_ms_osm_w531681363",
        "name": "Peppenhorst",
        "address": {
          "street": "Wischhausstraße",
          "number": "15h",
          "postalcode": "48346",
          "city": "Ostbevern"
        },
        "sources": [
          {
            "type": "osm",
            "id": "way/531681363",
            "version": 0
          },
          {
            "type": "gmaps",
            "id": "payment"
          },
          {
            "type": "apple",
            "id": "10082990867951758632"
          }
        ],
        "created": "2026-05-20",
        "updated": "2026-05-23",
        "payment": {
          "cards": "yes",
          "girocard": "yes",
          "contactless": "yes"
        },
        "hours": {
          "raw": "Mo-Fr 08:30-13:00,14:00-18:30; Sa 08:00-14:00"
        }
      }
    },
    {
      "type": "Feature",
      "geometry": {
        "type": "Point",
        "coordinates": [
          7.6165456,
          51.9539713
        ]
      },
      "properties": {
        "id": "tk_ms_osm_n10043421029",
        "name": "7 days",
        "address": {},
        "sources": [
          {
            "type": "osm",
            "id": "node/10043421029",
            "version": 0
          }
        ],
        "created": "2026-05-20",
        "updated": "2026-06-29",
        "hours": {
          "raw": "Mo-Su 08:00-21:00"
        },
        "payment": {
          "cash": "unknown",
          "cards": "yes",
          "contactless": "unknown",
          "girocard": "unknown"
        },
        "sources_by_field": {
          "name": "osm",
          "hours": "osm",
          "payment.cash": "osm",
          "payment.cards": "osm",
          "payment.contactless": "osm",
          "payment.girocard": "osm"
        },
        "apple_id_attempted": "2026-06-24"
      }
    },
    {
      "type": "Feature",
      "geometry": {
        "type": "Point",
        "coordinates": [
          7.6207271,
          51.9651065
        ]
      },
      "properties": {
        "id": "tk_ms_osm_n10830025610",
        "name": "Kiosk XL",
        "address": {},
        "sources": [
          {
            "type": "osm",
            "id": "node/10830025610",
            "version": 0
          }
        ],
        "created": "2026-05-20",
        "updated": "2026-06-29",
        "hours": {
          "raw": "Mo-Tu 12:00-23:00; We-Sa 12:00-24:00; Su,PH off"
        },
        "payment": {
          "cash": "yes",
          "cards": "unknown",
          "contactless": "yes",
          "girocard": "unknown"
        },
        "sources_by_field": {
          "name": "osm",
          "hours": "osm",
          "payment.cash": "osm",
          "payment.cards": "osm",
          "payment.contactless": "osm",
          "payment.girocard": "osm"
        },
        "apple_id_attempted": "2026-06-24"
      }
    },
    {
      "type": "Feature",
      "geometry": {
        "type": "Point",
        "coordinates": [
          7.597126,
          51.9695691
        ]
      },
      "properties": {
        "id": "tk_ms_osm_n11866553252",
        "name": "E-Kiosk",
        "address": {},
        "sources": [
          {
            "type": "osm",
            "id": "node/11866553252",
            "version": 0
          }
        ],
        "created": "2026-05-20",
        "updated": "2026-06-29",
        "hours": {
          "raw": "24/7"
        },
        "tags": [
          "barrierefrei"
        ],
        "sources_by_field": {
          "name": "osm",
          "hours": "osm"
        },
        "apple_id_attempted": "2026-06-24",
        "google_attempted": "2026-06-24",
        "payment": {}
      }
    },
    {
      "type": "Feature",
      "geometry": {
        "type": "Point",
        "coordinates": [
          7.4893017,
          51.8573615
        ]
      },
      "properties": {
        "id": "tk_ms_osm_n12444252281",
        "name": "Tabakhaus Balster",
        "address": {},
        "sources": [
          {
            "type": "osm",
            "id": "node/12444252281",
            "version": 0
          }
        ],
        "created": "2026-05-20",
        "updated": "2026-06-29",
        "hours": {
          "raw": "Mo-Fr 06:15-13:00,14:30-18:00; Sa 07:00-13:00"
        },
        "sources_by_field": {
          "name": "osm",
          "hours": "osm"
        },
        "apple_id_attempted": "2026-06-24",
        "google_attempted": "2026-06-24",
        "payment": {}
      }
    },
    {
      "type": "Feature",
      "geometry": {
        "type": "Point",
        "coordinates": [
          7.6457887,
          51.9628172
        ]
      },
      "properties": {
        "id": "tk_ms_osm_n12779343557",
        "name": "City Post",
        "address": {
          "street": "Warendorfer Straße",
          "number": "48",
          "postalcode": "48145",
          "city": "Münster"
        },
        "sources": [
          {
            "type": "osm",
            "id": "node/12779343557",
            "version": 0
          }
        ],
        "created": "2026-05-20",
        "updated": "2026-06-29",
        "hours": {
          "raw": "Mo-Fr 10:00-18:00; Sa 10:00-13:00"
        },
        "sources_by_field": {
          "name": "osm",
          "address.street": "osm",
          "address.number": "osm",
          "address.postalcode": "osm",
          "address.city": "osm",
          "hours": "osm"
        },
        "apple_id_attempted": "2026-06-24",
        "google_attempted": "2026-06-24",
        "payment": {}
      }
    },
    {
      "type": "Feature",
      "geometry": {
        "type": "Point",
        "coordinates": [
          7.6915386,
          51.9466377
        ]
      },
      "properties": {
        "id": "tk_ms_osm_n2119342612",
        "name": "Rezeption",
        "address": {
          "street": "Laerer Werseufer",
          "number": "7",
          "postalcode": "48157",
          "city": "Münster"
        },
        "sources": [
          {
            "type": "osm",
            "id": "node/2119342612",
            "version": 0
          }
        ],
        "created": "2026-05-20",
        "updated": "2026-06-29",
        "hours": {
          "raw": "Mo-Su 10:00-12:00,14:00-16:00"
        },
        "sources_by_field": {
          "name": "osm",
          "address.street": "osm",
          "address.number": "osm",
          "address.postalcode": "osm",
          "address.city": "osm",
          "hours": "osm"
        },
        "apple_id_attempted": "2026-06-24",
        "google_attempted": "2026-06-24",
        "payment": {}
      }
    },
    {
      "type": "Feature",
      "geometry": {
        "type": "Point",
        "coordinates": [
          7.6302233,
          51.9441628
        ]
      },
      "properties": {
        "id": "tk_ms_osm_n2673008724",
        "name": "West Lotto",
        "address": {},
        "sources": [
          {
            "type": "osm",
            "id": "node/2673008724",
            "version": 0
          }
        ],
        "created": "2026-05-20",
        "updated": "2026-06-29",
        "hours": {
          "raw": "Mo-Sa 07:00-21:00"
        },
        "tags": [
          "barrierefrei"
        ],
        "sources_by_field": {
          "name": "osm",
          "hours": "osm"
        },
        "apple_id_attempted": "2026-06-24",
        "google_attempted": "2026-06-24",
        "payment": {}
      }
    },
    {
      "type": "Feature",
      "geometry": {
        "type": "Point",
        "coordinates": [
          7.6296084,
          51.9663878
        ]
      },
      "properties": {
        "id": "tk_ms_osm_n301593431",
        "name": "Asis' Kiosk",
        "address": {
          "street": "Neubrückenstraße",
          "number": "27",
          "postalcode": "48143",
          "city": "Münster"
        },
        "sources": [
          {
            "type": "osm",
            "id": "node/301593431",
            "version": 0
          }
        ],
        "created": "2026-05-20",
        "updated": "2026-05-25",
        "hours": {
          "raw": "Mo-Fr 08:00-24:00;Sa-Su 10:00-24:00"
        },
        "apple_id_attempted": "2026-06-24",
        "google_attempted": "2026-06-24",
        "osm_removed": true
      }
    },
    {
      "type": "Feature",
      "geometry": {
        "type": "Point",
        "coordinates": [
          7.6405181,
          51.9062821
        ]
      },
      "properties": {
        "id": "tk_ms_osm_n4202214183",
        "name": "Getränke Zimmermann",
        "address": {
          "street": "Hohe Geest",
          "number": "28",
          "postalcode": "48165",
          "city": "Münster"
        },
        "sources": [
          {
            "type": "osm",
            "id": "node/4202214183",
            "version": 0
          }
        ],
        "created": "2026-05-20",
        "updated": "2026-06-29",
        "sources_by_field": {
          "name": "osm",
          "address.street": "osm",
          "address.number": "osm",
          "address.postalcode": "osm",
          "address.city": "osm"
        },
        "apple_id_attempted": "2026-06-24",
        "google_attempted": "2026-06-24",
        "payment": {}
      }
    },
    {
      "type": "Feature",
      "geometry": {
        "type": "Point",
        "coordinates": [
          7.6272092,
          51.9583699
        ]
      },
      "properties": {
        "id": "tk_ms_osm_n4689718892",
        "name": "A. Lieder",
        "address": {},
        "sources": [
          {
            "type": "osm",
            "id": "node/4689718892",
            "version": 0
          }
        ],
        "created": "2026-05-20",
        "updated": "2026-06-29",
        "hours": {
          "raw": "Mo-Sa 09:00-18:00"
        },
        "sources_by_field": {
          "name": "osm",
          "hours": "osm"
        },
        "apple_id_attempted": "2026-06-24",
        "google_attempted": "2026-06-24",
        "payment": {}
      }
    },
    {
      "type": "Feature",
      "geometry": {
        "type": "Point",
        "coordinates": [
          7.6323805,
          51.9286771
        ]
      },
      "properties": {
        "id": "tk_ms_osm_n563275345",
        "name": "Getränke Depot",
        "address": {
          "street": "Geister Landweg",
          "number": "5",
          "postalcode": "48153",
          "city": "Münster"
        },
        "sources": [
          {
            "type": "osm",
            "id": "node/563275345",
            "version": 0
          }
        ],
        "created": "2026-05-20",
        "updated": "2026-06-29",
        "tags": [
          "barrierefrei"
        ],
        "sources_by_field": {
          "name": "osm",
          "address.street": "osm",
          "address.number": "osm",
          "address.postalcode": "osm",
          "address.city": "osm"
        },
        "apple_id_attempted": "2026-06-24",
        "google_attempted": "2026-06-24",
        "payment": {}
      }
    },
    {
      "type": "Feature",
      "geometry": {
        "type": "Point",
        "coordinates": [
          7.6140497,
          51.9530568
        ]
      },
      "properties": {
        "id": "tk_ms_osm_n644547055",
        "name": "Bauer Melchior",
        "address": {
          "street": "Scharnhorststraße",
          "number": "49",
          "postalcode": "48151",
          "city": "Münster"
        },
        "sources": [
          {
            "type": "osm",
            "id": "node/644547055",
            "version": 0
          }
        ],
        "created": "2026-05-20",
        "updated": "2026-06-29",
        "hours": {
          "raw": "Mo-Sa 09:00-22:00; Su 14:00-22:00"
        },
        "sources_by_field": {
          "name": "osm",
          "address.street": "osm",
          "address.number": "osm",
          "address.postalcode": "osm",
          "address.city": "osm",
          "hours": "osm"
        },
        "apple_id_attempted": "2026-06-24",
        "google_attempted": "2026-06-24",
        "payment": {}
      }
    },
    {
      "type": "Feature",
      "geometry": {
        "type": "Point",
        "coordinates": [
          7.6490993,
          51.9642281
        ]
      },
      "properties": {
        "id": "tk_ms_osm_n8074904453",
        "name": "Tabak & Zeitungen",
        "address": {
          "street": "Warendorfer Straße",
          "number": "80",
          "postalcode": "48145",
          "city": "Münster"
        },
        "sources": [
          {
            "type": "osm",
            "id": "node/8074904453",
            "version": 0
          }
        ],
        "created": "2026-05-20",
        "updated": "2026-06-29",
        "hours": {
          "raw": "Mo-Sa 08:00-18:00"
        },
        "sources_by_field": {
          "name": "osm",
          "address.street": "osm",
          "address.number": "osm",
          "address.postalcode": "osm",
          "address.city": "osm",
          "hours": "osm"
        },
        "apple_id_attempted": "2026-06-24",
        "google_attempted": "2026-06-24",
        "payment": {}
      }
    },
    {
      "type": "Feature",
      "geometry": {
        "type": "Point",
        "coordinates": [
          7.595936,
          51.9803459
        ]
      },
      "properties": {
        "id": "tk_ms_osm_n841325440",
        "name": "Getränkehandel Winter",
        "address": {},
        "sources": [
          {
            "type": "osm",
            "id": "node/841325440",
            "version": 0
          }
        ],
        "created": "2026-05-20",
        "updated": "2026-06-29",
        "sources_by_field": {
          "name": "osm"
        },
        "apple_id_attempted": "2026-06-24",
        "google_attempted": "2026-06-24",
        "payment": {}
      }
    },
    {
      "type": "Feature",
      "geometry": {
        "type": "Point",
        "coordinates": [
          7.633476,
          51.9570574
        ]
      },
      "properties": {
        "id": "tk_ms_osm_n8651846703",
        "name": "Kiosk am Bahnhof",
        "address": {},
        "sources": [
          {
            "type": "osm",
            "id": "node/8651846703",
            "version": 0
          }
        ],
        "created": "2026-05-20",
        "updated": "2026-06-29",
        "hours": {
          "raw": "Mo-Sa 09:00-21:00"
        },
        "payment": {
          "cash": "unknown",
          "cards": "no",
          "contactless": "unknown",
          "girocard": "unknown"
        },
        "sources_by_field": {
          "name": "osm",
          "hours": "osm",
          "payment.cash": "osm",
          "payment.cards": "osm",
          "payment.contactless": "osm",
          "payment.girocard": "osm"
        },
        "apple_id_attempted": "2026-06-24"
      }
    },
    {
      "type": "Feature",
      "geometry": {
        "type": "Point",
        "coordinates": [
          7.690786,
          51.9476035
        ]
      },
      "properties": {
        "id": "tk_ms_osm_n9010306261",
        "name": "Munchiiz",
        "address": {},
        "sources": [
          {
            "type": "osm",
            "id": "node/9010306261",
            "version": 0
          }
        ],
        "created": "2026-06-29",
        "updated": "2026-06-29",
        "sources_by_field": {
          "name": "osm"
        },
        "apple_id_attempted": "2026-07-04",
        "google_attempted": "2026-07-04"
      }
    },
    {
      "type": "Feature",
      "geometry": {
        "type": "Point",
        "coordinates": [
          7.6616707,
          51.9947525
        ]
      },
      "properties": {
        "id": "tk_ms_osm_n997946998",
        "name": "Liba Getränke",
        "address": {
          "street": "An der Kleimannbrücke",
          "number": "57",
          "postalcode": "48157",
          "city": "Münster"
        },
        "sources": [
          {
            "type": "osm",
            "id": "node/997946998",
            "version": 0
          }
        ],
        "created": "2026-05-20",
        "updated": "2026-06-29",
        "sources_by_field": {
          "name": "osm",
          "address.street": "osm",
          "address.number": "osm",
          "address.postalcode": "osm",
          "address.city": "osm"
        },
        "apple_id_attempted": "2026-06-24",
        "google_attempted": "2026-06-24",
        "payment": {}
      }
    },
    {
      "type": "Feature",
      "geometry": {
        "type": "Point",
        "coordinates": [
          7.6395577,
          51.9930024
        ]
      },
      "properties": {
        "id": "tk_ms_osm_w391440410",
        "name": "bft",
        "address": {
          "street": "Königsberger Straße",
          "number": "6"
        },
        "sources": [
          {
            "type": "osm",
            "id": "way/391440410",
            "version": 0
          }
        ],
        "created": "2026-05-20",
        "updated": "2026-06-29",
        "hours": {
          "raw": "Mo-Th 05:00-23:00, Fr-Sa 05:00-24:00, Su 06:00-23:00"
        },
        "payment": {
          "cash": "unknown",
          "cards": "unknown",
          "contactless": "unknown",
          "girocard": "yes"
        },
        "tags": [
          "barrierefrei"
        ],
        "sources_by_field": {
          "name": "osm",
          "address.street": "osm",
          "address.number": "osm",
          "hours": "osm",
          "payment.cash": "osm",
          "payment.cards": "osm",
          "payment.contactless": "osm",
          "payment.girocard": "osm"
        },
        "apple_id_attempted": "2026-06-24"
      }
    },
    {
      "type": "Feature",
      "geometry": {
        "type": "Point",
        "coordinates": [
          7.6349704,
          51.9567329
        ]
      },
      "properties": {
        "id": "tk_ms_osm_w634421191",
        "name": "Yorma’s",
        "address": {},
        "sources": [
          {
            "type": "osm",
            "id": "way/634421191",
            "version": 0
          }
        ],
        "created": "2026-05-20",
        "updated": "2026-06-29",
        "hours": {
          "raw": "Mo-Fr 05:30-21:00; Sa 06:00-21:00; Su,PH 06:00-21:00"
        },
        "payment": {
          "cash": "unknown",
          "cards": "unknown",
          "contactless": "unknown",
          "girocard": "yes"
        },
        "tags": [
          "barrierefrei"
        ],
        "sources_by_field": {
          "name": "osm",
          "hours": "osm",
          "payment.cash": "osm",
          "payment.cards": "osm",
          "payment.contactless": "osm",
          "payment.girocard": "osm"
        },
        "apple_id_attempted": "2026-06-24"
      }
    },
    {
      "type": "Feature",
      "geometry": {
        "type": "Point",
        "coordinates": [
          7.6480236,
          51.9397372
        ]
      },
      "properties": {
        "id": "tk_ms_osm_w72751203",
        "name": "Ratio",
        "address": {
          "street": "Loddenheide",
          "postalcode": "48155",
          "city": "Münster"
        },
        "sources": [
          {
            "type": "osm",
            "id": "way/72751203",
            "version": 0
          }
        ],
        "created": "2026-05-20",
        "updated": "2026-06-29",
        "hours": {
          "raw": "24/7"
        },
        "payment": {
          "cash": "yes",
          "cards": "yes",
          "contactless": "unknown",
          "girocard": "unknown"
        },
        "tags": [
          "barrierefrei"
        ],
        "sources_by_field": {
          "name": "osm",
          "address.street": "osm",
          "address.postalcode": "osm",
          "address.city": "osm",
          "hours": "osm",
          "payment.cash": "osm",
          "payment.cards": "osm",
          "payment.contactless": "osm",
          "payment.girocard": "osm"
        },
        "apple_id_attempted": "2026-06-24"
      }
    }
  ]
}
