{
  "type": "FeatureCollection",
  "features": [
    {
      "type": "Feature",
      "geometry": {
        "type": "Point",
        "coordinates": [
          8.0161995,
          50.8686595
        ]
      },
      "properties": {
        "id": "tk_si_osm_n10293249583",
        "name": "Siegener Presse Laden",
        "address": {},
        "sources": [
          {
            "type": "osm",
            "id": "node/10293249583",
            "version": 0
          }
        ],
        "created": "2026-05-21",
        "updated": "2026-05-21"
      }
    },
    {
      "type": "Feature",
      "geometry": {
        "type": "Point",
        "coordinates": [
          8.0246954,
          50.87446
        ]
      },
      "properties": {
        "id": "tk_si_osm_n12434551578",
        "name": "Verlockung",
        "address": {
          "street": "Kornmarkt",
          "number": "2",
          "postalcode": "57072",
          "city": "Siegen"
        },
        "sources": [
          {
            "type": "osm",
            "id": "node/12434551578",
            "version": 0
          }
        ],
        "created": "2026-05-21",
        "updated": "2026-05-21",
        "hours": {
          "raw": "Tu-Th 16:00-23:00, Fr,Sa 16:00-01:00, Su 14:00-22:00; Mo off"
        },
        "payment": {
          "cash": "yes",
          "cards": "yes",
          "contactless": "yes",
          "girocard": "unknown",
          "mobile": "unknown"
        },
        "tags": [
          "wc"
        ]
      }
    },
    {
      "type": "Feature",
      "geometry": {
        "type": "Point",
        "coordinates": [
          8.0517771,
          50.874024
        ]
      },
      "properties": {
        "id": "tk_si_osm_n13021728759",
        "name": "REWE Getränkemarkt",
        "address": {},
        "sources": [
          {
            "type": "osm",
            "id": "node/13021728759",
            "version": 0
          }
        ],
        "created": "2026-05-21",
        "updated": "2026-05-21",
        "hours": {
          "raw": "Mo-Sa 07:00-22:00"
        }
      }
    },
    {
      "type": "Feature",
      "geometry": {
        "type": "Point",
        "coordinates": [
          8.0286573,
          50.8763453
        ]
      },
      "properties": {
        "id": "tk_si_osm_n13076652383",
        "name": "Ibo's Kiosk",
        "address": {
          "street": "Marburger Tor",
          "number": "18",
          "postalcode": "57074",
          "city": "Siegen"
        },
        "sources": [
          {
            "type": "osm",
            "id": "node/13076652383",
            "version": 0
          }
        ],
        "created": "2026-05-21",
        "updated": "2026-05-21"
      }
    },
    {
      "type": "Feature",
      "geometry": {
        "type": "Point",
        "coordinates": [
          8.015222,
          50.7845361
        ]
      },
      "properties": {
        "id": "tk_si_osm_n13521645874",
        "name": "Getränke Hoffmann",
        "address": {
          "street": "In der Au",
          "number": "18",
          "postalcode": "57290",
          "city": "Neunkirchen"
        },
        "sources": [
          {
            "type": "osm",
            "id": "node/13521645874",
            "version": 0
          }
        ],
        "created": "2026-05-21",
        "updated": "2026-05-21"
      }
    },
    {
      "type": "Feature",
      "geometry": {
        "type": "Point",
        "coordinates": [
          7.9660164,
          50.8410709
        ]
      },
      "properties": {
        "id": "tk_si_osm_n1790637095",
        "name": "Getränke Hoffmann",
        "address": {
          "street": "Kölner Straße",
          "number": "35c",
          "postalcode": "57555",
          "city": "Mudersbach",
          "district": "Niederschelderhütte"
        },
        "sources": [
          {
            "type": "osm",
            "id": "node/1790637095",
            "version": 0
          }
        ],
        "created": "2026-05-21",
        "updated": "2026-05-21",
        "hours": {
          "raw": "Mo-Fr 08:30-20:00; Sa 08:00-18:00; Su,PH off"
        }
      }
    },
    {
      "type": "Feature",
      "geometry": {
        "type": "Point",
        "coordinates": [
          7.9687303,
          50.8831881
        ]
      },
      "properties": {
        "id": "tk_si_osm_n1856917102",
        "name": "Getränke Hoffmann",
        "address": {},
        "sources": [
          {
            "type": "osm",
            "id": "node/1856917102",
            "version": 0
          }
        ],
        "created": "2026-05-21",
        "updated": "2026-05-21",
        "tags": [
          "barrierefrei"
        ]
      }
    },
    {
      "type": "Feature",
      "geometry": {
        "type": "Point",
        "coordinates": [
          8.1078073,
          50.8182565
        ]
      },
      "properties": {
        "id": "tk_si_osm_n390518609",
        "name": "REWE Getränkemarkt",
        "address": {},
        "sources": [
          {
            "type": "osm",
            "id": "node/390518609",
            "version": 0
          }
        ],
        "created": "2026-05-21",
        "updated": "2026-05-21",
        "tags": [
          "barrierefrei"
        ]
      }
    },
    {
      "type": "Feature",
      "geometry": {
        "type": "Point",
        "coordinates": [
          8.0266446,
          50.8962863
        ]
      },
      "properties": {
        "id": "tk_si_osm_n436398914",
        "name": "Bahar market",
        "address": {
          "street": "Hauptmarkt",
          "number": "15",
          "postalcode": "57076",
          "city": "Siegen"
        },
        "sources": [
          {
            "type": "osm",
            "id": "node/436398914",
            "version": 0
          }
        ],
        "created": "2026-05-21",
        "updated": "2026-05-21",
        "hours": {
          "raw": "Mo-Sa 08:00-20:00; PH off"
        },
        "tags": [
          "barrierefrei"
        ]
      }
    },
    {
      "type": "Feature",
      "geometry": {
        "type": "Point",
        "coordinates": [
          7.9870721,
          50.963905
        ]
      },
      "properties": {
        "id": "tk_si_osm_n453324690",
        "name": "Getränke Hoffmann",
        "address": {
          "street": "Hagener Straße",
          "number": "40",
          "postalcode": "57223",
          "city": "Kreuztal"
        },
        "sources": [
          {
            "type": "osm",
            "id": "node/453324690",
            "version": 0
          }
        ],
        "created": "2026-05-21",
        "updated": "2026-05-21",
        "hours": {
          "raw": "Mo-Fr 09:00-19:00; Sa 08:00-18:00"
        },
        "payment": {
          "cash": "yes",
          "cards": "yes",
          "contactless": "yes",
          "girocard": "unknown",
          "mobile": "unknown"
        },
        "tags": [
          "barrierefrei"
        ]
      }
    },
    {
      "type": "Feature",
      "geometry": {
        "type": "Point",
        "coordinates": [
          8.0284384,
          50.896183
        ]
      },
      "properties": {
        "id": "tk_si_osm_n4587841661",
        "name": "Tabakhaus Link",
        "address": {
          "street": "Weidenauer Straße",
          "number": "187",
          "postalcode": "57076",
          "city": "Siegen"
        },
        "sources": [
          {
            "type": "osm",
            "id": "node/4587841661",
            "version": 0
          }
        ],
        "created": "2026-05-21",
        "updated": "2026-05-21",
        "hours": {
          "raw": "Mo-Fr 07:00-18:00; Sa 07:00-16:00; Su 08:00-12:00; PH off"
        },
        "tags": [
          "barrierefrei"
        ]
      }
    },
    {
      "type": "Feature",
      "geometry": {
        "type": "Point",
        "coordinates": [
          8.012226,
          50.916671
        ]
      },
      "properties": {
        "id": "tk_si_osm_n4589436817",
        "name": "Kiosk am Bahnhof",
        "address": {
          "street": "Marktstraße",
          "number": "35",
          "postalcode": "57078",
          "city": "Siegen"
        },
        "sources": [
          {
            "type": "osm",
            "id": "node/4589436817",
            "version": 0
          }
        ],
        "created": "2026-05-21",
        "updated": "2026-05-21",
        "hours": {
          "raw": "Mo-Th 09:00-23:00, Fr 09:00-01:00, Sa 10:00-01:00, Su 11:00-23:00"
        }
      }
    },
    {
      "type": "Feature",
      "geometry": {
        "type": "Point",
        "coordinates": [
          7.9681962,
          50.8440302
        ]
      },
      "properties": {
        "id": "tk_si_osm_n4706498474",
        "name": "Schelder Presse Laden",
        "address": {},
        "sources": [
          {
            "type": "osm",
            "id": "node/4706498474",
            "version": 0
          }
        ],
        "created": "2026-05-21",
        "updated": "2026-05-21",
        "hours": {
          "raw": "Mo-Fr 08:00-18:00; Sa 08:00-13:00; PH closed"
        }
      }
    },
    {
      "type": "Feature",
      "geometry": {
        "type": "Point",
        "coordinates": [
          7.9882716,
          50.8422466
        ]
      },
      "properties": {
        "id": "tk_si_osm_n5318935810",
        "name": "Getränke Hoffmann",
        "address": {
          "street": "Eiserfelder Straße",
          "number": "357",
          "postalcode": "57080",
          "city": "Siegen"
        },
        "sources": [
          {
            "type": "osm",
            "id": "node/5318935810",
            "version": 0
          }
        ],
        "created": "2026-05-21",
        "updated": "2026-05-21"
      }
    },
    {
      "type": "Feature",
      "geometry": {
        "type": "Point",
        "coordinates": [
          8.0047942,
          50.9355628
        ]
      },
      "properties": {
        "id": "tk_si_osm_n8663512988",
        "name": "Edeka Getränkemarkt",
        "address": {},
        "sources": [
          {
            "type": "osm",
            "id": "node/8663512988",
            "version": 0
          }
        ],
        "created": "2026-05-21",
        "updated": "2026-05-21",
        "hours": {
          "raw": "Mo-Sa 08:00-20:00"
        },
        "tags": [
          "barrierefrei"
        ]
      }
    },
    {
      "type": "Feature",
      "geometry": {
        "type": "Point",
        "coordinates": [
          8.0487842,
          50.8735497
        ]
      },
      "properties": {
        "id": "tk_si_osm_n9426806595",
        "name": "Getränke Hoffmann",
        "address": {},
        "sources": [
          {
            "type": "osm",
            "id": "node/9426806595",
            "version": 0
          }
        ],
        "created": "2026-05-21",
        "updated": "2026-05-21",
        "tags": [
          "barrierefrei"
        ]
      }
    },
    {
      "type": "Feature",
      "geometry": {
        "type": "Point",
        "coordinates": [
          8.0089759,
          50.9084781
        ]
      },
      "properties": {
        "id": "tk_si_osm_n970683249",
        "name": "Getränke Hoffmann",
        "address": {
          "street": "Birlenbacher Straße",
          "number": "15b",
          "postalcode": "57078",
          "city": "Siegen"
        },
        "sources": [
          {
            "type": "osm",
            "id": "node/970683249",
            "version": 0
          }
        ],
        "created": "2026-05-21",
        "updated": "2026-05-21",
        "hours": {
          "raw": "Mo-Fr 08:30-20:00; Sa 08:00-18:00"
        },
        "tags": [
          "barrierefrei"
        ]
      }
    },
    {
      "type": "Feature",
      "geometry": {
        "type": "Point",
        "coordinates": [
          8.0573208,
          50.9148728
        ]
      },
      "properties": {
        "id": "tk_si_osm_w1180140593",
        "name": "Getränke Hoffmann",
        "address": {
          "street": "Dreisbachstraße",
          "number": "7a",
          "postalcode": "57250",
          "city": "Netphen"
        },
        "sources": [
          {
            "type": "osm",
            "id": "way/1180140593",
            "version": 0
          }
        ],
        "created": "2026-05-21",
        "updated": "2026-05-21",
        "tags": [
          "barrierefrei"
        ]
      }
    },
    {
      "type": "Feature",
      "geometry": {
        "type": "Point",
        "coordinates": [
          8.0485983,
          50.8832505
        ]
      },
      "properties": {
        "id": "tk_si_osm_w144390624",
        "name": "Getränke Diesel",
        "address": {
          "street": "Untere Dorfstraße",
          "number": "127,129",
          "postalcode": "57074",
          "city": "Siegen"
        },
        "sources": [
          {
            "type": "osm",
            "id": "way/144390624",
            "version": 0
          },
          {
            "type": "gmaps",
            "id": "payment"
          }
        ],
        "created": "2026-05-21",
        "updated": "2026-05-22",
        "hours": {
          "raw": "Mo-Fr 08:00-19:00,Sa 08:00-15:00; PH off"
        },
        "payment": {
          "cards": "no",
          "girocard": "yes",
          "contactless": "yes"
        }
      }
    },
    {
      "type": "Feature",
      "geometry": {
        "type": "Point",
        "coordinates": [
          8.031877,
          50.8956529
        ]
      },
      "properties": {
        "id": "tk_si_osm_w149734354",
        "name": "Getränke Hoffmann",
        "address": {
          "street": "Breite Straße",
          "number": "25a",
          "postalcode": "57076",
          "city": "Siegen"
        },
        "sources": [
          {
            "type": "osm",
            "id": "way/149734354",
            "version": 0
          }
        ],
        "created": "2026-05-21",
        "updated": "2026-05-21",
        "hours": {
          "raw": "Mo-Fr 08:30-20:00,Sa 08:00-18:00; PH off"
        },
        "tags": [
          "barrierefrei"
        ]
      }
    },
    {
      "type": "Feature",
      "geometry": {
        "type": "Point",
        "coordinates": [
          8.0273764,
          50.886443
        ]
      },
      "properties": {
        "id": "tk_si_osm_w152899546",
        "name": "Getränke Hoffmann",
        "address": {
          "street": "In der Hüttenwiese",
          "number": "11",
          "postalcode": "57072",
          "city": "Siegen"
        },
        "sources": [
          {
            "type": "osm",
            "id": "way/152899546",
            "version": 0
          }
        ],
        "created": "2026-05-21",
        "updated": "2026-05-21",
        "hours": {
          "raw": "Mo-Fr 08:30-20:00,Sa 08:00-18:00; PH off"
        },
        "tags": [
          "barrierefrei"
        ]
      }
    },
    {
      "type": "Feature",
      "geometry": {
        "type": "Point",
        "coordinates": [
          8.0061104,
          50.8696676
        ]
      },
      "properties": {
        "id": "tk_si_osm_w168424536",
        "name": "Olli's Getränkeshop",
        "address": {
          "street": "Effertsufer",
          "number": "82",
          "postalcode": "57072",
          "city": "Siegen"
        },
        "sources": [
          {
            "type": "osm",
            "id": "way/168424536",
            "version": 0
          }
        ],
        "created": "2026-05-21",
        "updated": "2026-05-21"
      }
    },
    {
      "type": "Feature",
      "geometry": {
        "type": "Point",
        "coordinates": [
          8.0327314,
          50.8994057
        ]
      },
      "properties": {
        "id": "tk_si_osm_w171149368",
        "name": "Edeka neukauf Haupt",
        "address": {
          "street": "Auf den Hütten",
          "number": "38",
          "postalcode": "57076",
          "city": "Siegen"
        },
        "sources": [
          {
            "type": "osm",
            "id": "way/171149368",
            "version": 0
          }
        ],
        "created": "2026-05-21",
        "updated": "2026-05-21",
        "hours": {
          "raw": "Mo-Sa 07:00-21:00; PH off"
        },
        "tags": [
          "barrierefrei"
        ]
      }
    },
    {
      "type": "Feature",
      "geometry": {
        "type": "Point",
        "coordinates": [
          8.0197068,
          50.856293
        ]
      },
      "properties": {
        "id": "tk_si_osm_w196148293",
        "name": "star",
        "address": {
          "street": "Leimbachstraße",
          "number": "195",
          "postalcode": "57074",
          "city": "Siegen"
        },
        "sources": [
          {
            "type": "osm",
            "id": "way/196148293",
            "version": 0
          }
        ],
        "created": "2026-05-21",
        "updated": "2026-05-21"
      }
    },
    {
      "type": "Feature",
      "geometry": {
        "type": "Point",
        "coordinates": [
          8.0141678,
          50.9593811
        ]
      },
      "properties": {
        "id": "tk_si_osm_w272717693",
        "name": "Getränke Hoffmann",
        "address": {},
        "sources": [
          {
            "type": "osm",
            "id": "way/272717693",
            "version": 0
          }
        ],
        "created": "2026-05-21",
        "updated": "2026-05-21",
        "hours": {
          "raw": "Mo-Fr 09:00-20:00; Sa 08:00-20:00"
        },
        "tags": [
          "barrierefrei"
        ]
      }
    },
    {
      "type": "Feature",
      "geometry": {
        "type": "Point",
        "coordinates": [
          8.0959424,
          50.9153572
        ]
      },
      "properties": {
        "id": "tk_si_osm_w287895404",
        "name": "Bell Oil",
        "address": {
          "street": "Kronprinzenstraße",
          "number": "23",
          "postalcode": "57250",
          "city": "Netphen"
        },
        "sources": [
          {
            "type": "osm",
            "id": "way/287895404",
            "version": 0
          }
        ],
        "created": "2026-05-21",
        "updated": "2026-05-21"
      }
    },
    {
      "type": "Feature",
      "geometry": {
        "type": "Point",
        "coordinates": [
          7.9087191,
          50.8676526
        ]
      },
      "properties": {
        "id": "tk_si_osm_w294379600",
        "name": "Getränke Quelle Braas",
        "address": {
          "street": "Niederndorfer Straße",
          "number": "110",
          "postalcode": "57258",
          "city": "Freudenberg"
        },
        "sources": [
          {
            "type": "osm",
            "id": "way/294379600",
            "version": 0
          }
        ],
        "created": "2026-05-21",
        "updated": "2026-05-21",
        "tags": [
          "barrierefrei"
        ]
      }
    },
    {
      "type": "Feature",
      "geometry": {
        "type": "Point",
        "coordinates": [
          8.1374781,
          50.8184255
        ]
      },
      "properties": {
        "id": "tk_si_osm_w30834134",
        "name": "REWE Getränkemarkt",
        "address": {
          "street": "Schönebachsweg",
          "number": "10",
          "postalcode": "57234",
          "city": "Wilnsdorf"
        },
        "sources": [
          {
            "type": "osm",
            "id": "way/30834134",
            "version": 0
          }
        ],
        "created": "2026-05-21",
        "updated": "2026-05-21"
      }
    },
    {
      "type": "Feature",
      "geometry": {
        "type": "Point",
        "coordinates": [
          7.988169,
          50.8365225
        ]
      },
      "properties": {
        "id": "tk_si_osm_w463071251",
        "name": "Esso",
        "address": {
          "street": "Eiserfelder Straße",
          "number": "439",
          "postalcode": "57080",
          "city": "Siegen"
        },
        "sources": [
          {
            "type": "osm",
            "id": "way/463071251",
            "version": 0
          }
        ],
        "created": "2026-05-21",
        "updated": "2026-05-21",
        "hours": {
          "raw": "24/7"
        }
      }
    },
    {
      "type": "Feature",
      "geometry": {
        "type": "Point",
        "coordinates": [
          7.9472348,
          50.8955305
        ]
      },
      "properties": {
        "id": "tk_si_osm_w46652269",
        "name": "Getränke Berg",
        "address": {
          "street": "Seelbacher Straße",
          "number": "53",
          "postalcode": "57258",
          "city": "Freudenberg"
        },
        "sources": [
          {
            "type": "osm",
            "id": "way/46652269",
            "version": 0
          }
        ],
        "created": "2026-05-21",
        "updated": "2026-05-21",
        "hours": {
          "raw": "Mo-Fr 09:00-12:00,14:00-18:00; Sa 09:00-13:00"
        }
      }
    },
    {
      "type": "Feature",
      "geometry": {
        "type": "Point",
        "coordinates": [
          8.0033962,
          50.9142406
        ]
      },
      "properties": {
        "id": "tk_si_osm_w48441339",
        "name": "Jungermann Getränke",
        "address": {
          "street": "In der Lehmkuhle",
          "number": "2",
          "postalcode": "57078",
          "city": "Siegen"
        },
        "sources": [
          {
            "type": "osm",
            "id": "way/48441339",
            "version": 0
          }
        ],
        "created": "2026-05-21",
        "updated": "2026-05-21",
        "tags": [
          "barrierefrei"
        ]
      }
    },
    {
      "type": "Feature",
      "geometry": {
        "type": "Point",
        "coordinates": [
          8.0784874,
          50.8244969
        ]
      },
      "properties": {
        "id": "tk_si_osm_w60708696",
        "name": "Getränkegroßhandel Fritz Wick GmbHe",
        "address": {
          "street": "Essener Straße",
          "number": "20",
          "postalcode": "57234",
          "city": "Wilnsdorf"
        },
        "sources": [
          {
            "type": "osm",
            "id": "way/60708696",
            "version": 0
          }
        ],
        "created": "2026-05-21",
        "updated": "2026-05-21"
      }
    },
    {
      "type": "Feature",
      "geometry": {
        "type": "Point",
        "coordinates": [
          7.9962078,
          50.8665026
        ]
      },
      "properties": {
        "id": "tk_si_osm_w753421181",
        "name": "EDEKA Getränkemarkt",
        "address": {},
        "sources": [
          {
            "type": "osm",
            "id": "way/753421181",
            "version": 0
          }
        ],
        "created": "2026-05-21",
        "updated": "2026-05-21",
        "hours": {
          "raw": "Mo-Sa 08:00-21:00; PH off"
        },
        "payment": {
          "cash": "yes",
          "cards": "unknown",
          "contactless": "unknown",
          "girocard": "yes",
          "mobile": "unknown"
        },
        "tags": [
          "barrierefrei"
        ]
      }
    },
    {
      "type": "Feature",
      "geometry": {
        "type": "Point",
        "coordinates": [
          7.963394,
          50.7833963
        ]
      },
      "properties": {
        "id": "tk_si_osm_w861278739",
        "name": "Getränke Hoffmann",
        "address": {
          "street": "Schneiderstraße",
          "number": "70",
          "postalcode": "57562",
          "city": "Herdorf"
        },
        "sources": [
          {
            "type": "osm",
            "id": "way/861278739",
            "version": 0
          }
        ],
        "created": "2026-05-21",
        "updated": "2026-05-21"
      }
    },
    {
      "type": "Feature",
      "geometry": {
        "type": "Point",
        "coordinates": [
          8.1064432,
          50.8115461
        ]
      },
      "properties": {
        "id": "tk_si_osm_w93406665",
        "name": "Heck",
        "address": {},
        "sources": [
          {
            "type": "osm",
            "id": "way/93406665",
            "version": 0
          }
        ],
        "created": "2026-05-21",
        "updated": "2026-05-21"
      }
    }
  ]
}
