{
  "type": "FeatureCollection",
  "features": [
    {
      "type": "Feature",
      "geometry": {
        "type": "Point",
        "coordinates": [
          5.9036742,
          50.5663162
        ]
      },
      "properties": {
        "id": "tk_obe_osm_n11226528758",
        "name": "Drink Boulanger",
        "address": {},
        "sources": [
          {
            "type": "osm",
            "id": "node/11226528758",
            "version": 0
          }
        ],
        "created": "2026-05-29",
        "updated": "2026-05-29",
        "sources_by_field": {
          "name": "osm"
        }
      }
    },
    {
      "type": "Feature",
      "geometry": {
        "type": "Point",
        "coordinates": [
          6.0144437,
          50.7149045
        ]
      },
      "properties": {
        "id": "tk_obe_osm_n1147907828",
        "name": "7-Eleven",
        "address": {
          "street": "Lütticher Straße",
          "number": "210",
          "city": "Kelmis"
        },
        "sources": [
          {
            "type": "osm",
            "id": "node/1147907828",
            "version": 0
          }
        ],
        "created": "2026-05-29",
        "updated": "2026-05-29",
        "sources_by_field": {
          "name": "osm",
          "address.street": "osm",
          "address.number": "osm",
          "address.city": "osm"
        }
      }
    },
    {
      "type": "Feature",
      "geometry": {
        "type": "Point",
        "coordinates": [
          5.9941516,
          50.7451703
        ]
      },
      "properties": {
        "id": "tk_obe_osm_n13056863501",
        "name": "Gemmenich Shop",
        "address": {},
        "sources": [
          {
            "type": "osm",
            "id": "node/13056863501",
            "version": 0
          }
        ],
        "created": "2026-05-29",
        "updated": "2026-05-29",
        "sources_by_field": {
          "name": "osm"
        }
      }
    },
    {
      "type": "Feature",
      "geometry": {
        "type": "Point",
        "coordinates": [
          6.0836791,
          50.6924578
        ]
      },
      "properties": {
        "id": "tk_obe_osm_n13179551640",
        "name": "Raeren Shop",
        "address": {
          "street": "Lichtenbuscher Straße",
          "number": "1"
        },
        "sources": [
          {
            "type": "osm",
            "id": "node/13179551640",
            "version": 0
          }
        ],
        "created": "2026-05-29",
        "updated": "2026-05-29",
        "sources_by_field": {
          "name": "osm",
          "address.street": "osm",
          "address.number": "osm"
        }
      }
    },
    {
      "type": "Feature",
      "geometry": {
        "type": "Point",
        "coordinates": [
          6.1112494,
          50.4152542
        ]
      },
      "properties": {
        "id": "tk_obe_osm_n3239176414",
        "name": "Night Shop Waimes",
        "address": {
          "street": "Rue du Centre",
          "number": "15"
        },
        "sources": [
          {
            "type": "osm",
            "id": "node/3239176414",
            "version": 0
          }
        ],
        "created": "2026-05-29",
        "updated": "2026-05-29",
        "sources_by_field": {
          "name": "osm",
          "address.street": "osm",
          "address.number": "osm"
        }
      }
    },
    {
      "type": "Feature",
      "geometry": {
        "type": "Point",
        "coordinates": [
          6.1128483,
          50.4160307
        ]
      },
      "properties": {
        "id": "tk_obe_osm_n6434549424",
        "name": "La Kane de Kako",
        "address": {},
        "sources": [
          {
            "type": "osm",
            "id": "node/6434549424",
            "version": 0
          }
        ],
        "created": "2026-05-29",
        "updated": "2026-05-29",
        "sources_by_field": {
          "name": "osm"
        }
      }
    },
    {
      "type": "Feature",
      "geometry": {
        "type": "Point",
        "coordinates": [
          5.9964745,
          50.6521948
        ]
      },
      "properties": {
        "id": "tk_obe_osm_n7004745651",
        "name": "Le Point Bleu",
        "address": {
          "street": "Rue Mitoyenne - Neutralstraße",
          "number": "903",
          "city": "Welkenraedt"
        },
        "sources": [
          {
            "type": "osm",
            "id": "node/7004745651",
            "version": 0
          }
        ],
        "created": "2026-05-29",
        "updated": "2026-05-29",
        "sources_by_field": {
          "name": "osm",
          "address.street": "osm",
          "address.number": "osm",
          "address.city": "osm"
        }
      }
    },
    {
      "type": "Feature",
      "geometry": {
        "type": "Point",
        "coordinates": [
          6.0272757,
          50.4240548
        ]
      },
      "properties": {
        "id": "tk_obe_osm_n7903027887",
        "name": "Le Fabrik",
        "address": {},
        "sources": [
          {
            "type": "osm",
            "id": "node/7903027887",
            "version": 0
          }
        ],
        "created": "2026-05-29",
        "updated": "2026-05-29",
        "sources_by_field": {
          "name": "osm"
        }
      }
    },
    {
      "type": "Feature",
      "geometry": {
        "type": "Point",
        "coordinates": [
          5.9974866,
          50.6136486
        ]
      },
      "properties": {
        "id": "tk_obe_osm_n9082149045",
        "name": "Pfeiffer Drink",
        "address": {},
        "sources": [
          {
            "type": "osm",
            "id": "node/9082149045",
            "version": 0
          }
        ],
        "created": "2026-05-29",
        "updated": "2026-05-29",
        "sources_by_field": {
          "name": "osm"
        }
      }
    },
    {
      "type": "Feature",
      "geometry": {
        "type": "Point",
        "coordinates": [
          6.001332,
          50.6529292
        ]
      },
      "properties": {
        "id": "tk_obe_osm_w897213583",
        "name": "Drink J-M. Grooten sa",
        "address": {
          "street": "Ernest Solvay Straße",
          "number": "2",
          "city": "Lontzen-Herbesthal"
        },
        "sources": [
          {
            "type": "osm",
            "id": "way/897213583",
            "version": 0
          }
        ],
        "created": "2026-05-29",
        "updated": "2026-05-29",
        "hours": {
          "raw": "Mo-Fr 10:00-18:00, Sa 09:00-13:00"
        },
        "payment": {
          "cash": "yes",
          "cards": "yes",
          "contactless": "unknown",
          "girocard": "unknown"
        },
        "tags": [
          "barrierefrei"
        ],
        "sources_by_field": {
          "name": "osm",
          "address.street": "osm",
          "address.number": "osm",
          "address.city": "osm",
          "hours": "osm",
          "payment.cash": "osm",
          "payment.cards": "osm",
          "payment.contactless": "osm",
          "payment.girocard": "osm"
        }
      }
    }
  ]
}
