{
  "type": "FeatureCollection",
  "features": [
    {
      "type": "Feature",
      "geometry": {
        "type": "Point",
        "coordinates": [
          9.9072042,
          51.552241
        ]
      },
      "properties": {
        "id": "tk_go_osm_n1026602841",
        "name": "Brunos Treff",
        "address": {
          "street": "Holtenser Landstraße",
          "number": "56",
          "postalcode": "37079",
          "city": "Göttingen"
        },
        "sources": [
          {
            "type": "osm",
            "id": "node/1026602841",
            "version": 0
          },
          {
            "type": "apple",
            "id": "2770956573176051870"
          },
          {
            "type": "gmaps",
            "id": "ChIJUYgAXcIru0cRe7G4_ACiTP4"
          }
        ],
        "created": "2026-05-21",
        "updated": "2026-07-27",
        "hours": {
          "raw": "Tu 07:00-13:00,15:00-18:00; Th 07:00-13:00,15:00-18:00; Fr 07:00-18:00; We 07:00-13:00,15:00-18:00; Mo 07:00-13:00,15:00-18:00; Sa 07:00-13:00"
        },
        "sources_by_field": {
          "name": "osm",
          "address.street": "osm",
          "address.number": "osm",
          "address.postalcode": "osm",
          "address.city": "osm",
          "hours": "google"
        },
        "apple_attempted": "2026-06-25",
        "google_attempted": "2026-06-25",
        "payment": {}
      }
    },
    {
      "type": "Feature",
      "geometry": {
        "type": "Point",
        "coordinates": [
          9.9565392,
          51.5129578
        ]
      },
      "properties": {
        "id": "tk_go_osm_n11654597206",
        "name": "Kempis Kiosk",
        "address": {
          "street": "Teichstraße",
          "number": "2",
          "postalcode": "37085",
          "city": "Göttingen",
          "district": "Geismar"
        },
        "sources": [
          {
            "type": "osm",
            "id": "node/11654597206",
            "version": 0
          },
          {
            "type": "apple",
            "id": "9982565335665022636"
          },
          {
            "type": "gmaps",
            "id": "ChIJHzWRk3jTpEcRk8-QxncDEjI"
          }
        ],
        "created": "2026-05-21",
        "updated": "2026-07-27",
        "hours": {
          "raw": "Tu 08:00-14:00; Th 08:00-17:00; Fr 08:00-17:00; We 08:00-17:00; Mo 08:00-14:00; Sa 08:00-13:00"
        },
        "tags": [
          "barrierefrei"
        ],
        "sources_by_field": {
          "name": "osm",
          "address.street": "osm",
          "address.number": "osm",
          "address.postalcode": "osm",
          "address.city": "osm",
          "address.district": "osm",
          "hours": "google"
        },
        "apple_attempted": "2026-06-25",
        "google_attempted": "2026-06-25",
        "payment": {}
      }
    },
    {
      "type": "Feature",
      "geometry": {
        "type": "Point",
        "coordinates": [
          9.9343373,
          51.5316921
        ]
      },
      "properties": {
        "id": "tk_go_osm_n12219469271",
        "name": "Gänseliesel-Kiosk",
        "address": {
          "street": "Nikolaistraße",
          "number": "17",
          "postalcode": "37073",
          "city": "Göttingen"
        },
        "sources": [
          {
            "type": "osm",
            "id": "node/12219469271",
            "version": 0
          },
          {
            "type": "apple",
            "id": "8740255230394826257"
          },
          {
            "type": "gmaps",
            "id": "ChIJX73maRDVpEcR3aa3mVyILXo"
          }
        ],
        "created": "2026-05-21",
        "updated": "2026-07-27",
        "hours": {
          "raw": "Mo-Th 08:00-00:00, Fr,Sa 08:00-02:00; Su,PH 09:00-23:00"
        },
        "sources_by_field": {
          "name": "osm",
          "address.street": "osm",
          "address.number": "osm",
          "address.postalcode": "osm",
          "address.city": "osm",
          "hours": "osm"
        },
        "payment": {
          "cards": "yes",
          "contactless": "yes"
        }
      }
    },
    {
      "type": "Feature",
      "geometry": {
        "type": "Point",
        "coordinates": [
          9.9312276,
          51.5322397
        ]
      },
      "properties": {
        "id": "tk_go_osm_n12396883245",
        "name": "Turbo-Kiosk",
        "address": {
          "street": "Groner Straße",
          "number": "59",
          "postalcode": "37073",
          "city": "Göttingen"
        },
        "sources": [
          {
            "type": "osm",
            "id": "node/12396883245",
            "version": 0
          },
          {
            "type": "gmaps",
            "id": "ChIJr7-4gPnVpEcROLVXoMoCxAA"
          },
          {
            "type": "apple",
            "id": "12847684760433339441"
          }
        ],
        "created": "2026-05-21",
        "updated": "2026-07-27",
        "hours": {
          "raw": "Mo-Th 10:30-24:00; Fr-Sa 10:30-01:00; Su,PH 13:00-20:00"
        },
        "sources_by_field": {
          "name": "osm",
          "address.street": "osm",
          "address.number": "osm",
          "address.postalcode": "osm",
          "address.city": "osm",
          "hours": "osm"
        },
        "payment": {
          "cards": "no",
          "contactless": "yes",
          "girocard": "yes"
        }
      }
    },
    {
      "type": "Feature",
      "geometry": {
        "type": "Point",
        "coordinates": [
          9.9324298,
          51.5321557
        ]
      },
      "properties": {
        "id": "tk_go_osm_n1299805695",
        "name": "D. Orzel",
        "address": {
          "street": "Groner Straße",
          "number": "51",
          "postalcode": "37073",
          "city": "Göttingen"
        },
        "sources": [
          {
            "type": "osm",
            "id": "node/1299805695",
            "version": 0
          },
          {
            "type": "gmaps",
            "id": "ChIJf-senb7UpEcRuFjsrqMr4vE"
          }
        ],
        "created": "2026-05-21",
        "updated": "2026-07-27",
        "hours": {
          "raw": "Tu 08:00-17:00; Th 08:00-17:00; Fr 08:00-17:00; We 08:00-17:00; Mo 08:00-17:00; Sa 08:30-14:00"
        },
        "sources_by_field": {
          "name": "osm",
          "address.street": "osm",
          "address.number": "osm",
          "address.postalcode": "osm",
          "address.city": "osm",
          "hours": "google"
        },
        "apple_id_attempted": "2026-06-25",
        "google_attempted": "2026-06-25",
        "payment": {}
      }
    },
    {
      "type": "Feature",
      "geometry": {
        "type": "Point",
        "coordinates": [
          9.9341085,
          51.5335067
        ]
      },
      "properties": {
        "id": "tk_go_osm_n13383850529",
        "name": "Kiosk",
        "address": {
          "street": "Gotmarstraße",
          "number": "9",
          "postalcode": "37073",
          "city": "Göttingen"
        },
        "sources": [
          {
            "type": "osm",
            "id": "node/13383850529",
            "version": 0
          },
          {
            "type": "gmaps",
            "id": "ChIJKa_yND3VpEcRSZW_WuW2PAE"
          }
        ],
        "created": "2026-05-21",
        "updated": "2026-07-27",
        "sources_by_field": {
          "name": "osm",
          "address.street": "osm",
          "address.number": "osm",
          "address.postalcode": "osm",
          "address.city": "osm",
          "hours": "google"
        },
        "apple_id_attempted": "2026-06-25",
        "google_attempted": "2026-06-25",
        "hours": {
          "raw": "Tu 10:00-00:00; Th 10:00-00:00; Fr 10:00-05:00; We 10:00-00:00; Mo 10:00-00:00; Sa 12:00-05:00; Su 12:00-02:00"
        },
        "payment": {}
      }
    },
    {
      "type": "Feature",
      "geometry": {
        "type": "Point",
        "coordinates": [
          9.9301747,
          51.534873
        ]
      },
      "properties": {
        "id": "tk_go_osm_n1351109524",
        "name": "La Vie",
        "address": {
          "street": "Goethe-Allee",
          "number": "15",
          "postalcode": "37073",
          "city": "Göttingen"
        },
        "sources": [
          {
            "type": "osm",
            "id": "node/1351109524",
            "version": 0
          },
          {
            "type": "gmaps",
            "id": "ChIJwWOBNKHVpEcRyFE7d2vNPEY"
          }
        ],
        "created": "2026-05-21",
        "updated": "2026-07-27",
        "sources_by_field": {
          "name": "osm",
          "address.street": "osm",
          "address.number": "osm",
          "address.postalcode": "osm",
          "address.city": "osm",
          "hours": "google"
        },
        "apple_id_attempted": "2026-06-25",
        "google_attempted": "2026-06-25",
        "hours": {
          "raw": "Tu 08:30-21:00; Th 08:30-21:00; Fr 08:30-21:00; We 08:30-21:00; Mo 08:30-21:00; Sa 08:30-21:00; Su 12:00-19:00"
        },
        "payment": {
          "cards": "yes"
        }
      }
    },
    {
      "type": "Feature",
      "geometry": {
        "type": "Point",
        "coordinates": [
          9.931965,
          51.5327846
        ]
      },
      "properties": {
        "id": "tk_go_osm_n13585776550",
        "name": "Snack & Chill",
        "address": {
          "street": "Johannisstraße",
          "number": "3",
          "postalcode": "37073",
          "city": "Göttingen"
        },
        "sources": [
          {
            "type": "osm",
            "id": "node/13585776550",
            "version": 0
          },
          {
            "type": "gmaps",
            "id": "ChIJZ1J23v7VpEcRDHXOG1OhvgE"
          }
        ],
        "created": "2026-05-21",
        "updated": "2026-07-27",
        "sources_by_field": {
          "name": "osm",
          "address.street": "osm",
          "address.number": "osm",
          "address.postalcode": "osm",
          "address.city": "osm",
          "hours": "google",
          "payment.cards": "google"
        },
        "apple_id_attempted": "2026-06-25",
        "google_attempted": "2026-06-25",
        "hours": {
          "raw": "Tu 10:00-23:00; Th 10:00-23:00; Fr 10:00-02:00; We 10:00-23:00; Mo 10:00-23:00; Sa 10:00-02:00; Su 12:00-22:00"
        },
        "payment": {
          "cards": "yes",
          "contactless": "yes",
          "girocard": "yes"
        }
      }
    },
    {
      "type": "Feature",
      "geometry": {
        "type": "Point",
        "coordinates": [
          9.9386867,
          51.5301612
        ]
      },
      "properties": {
        "id": "tk_go_osm_n1374182812",
        "name": "Tobacco Café",
        "address": {
          "street": "Kurze-Geismar-Straße",
          "number": "4",
          "postalcode": "37073",
          "city": "Göttingen"
        },
        "sources": [
          {
            "type": "osm",
            "id": "node/1374182812",
            "version": 0
          },
          {
            "type": "gmaps",
            "id": "ChIJG4fDQpbUpEcRdP10LzU_xag"
          }
        ],
        "created": "2026-05-21",
        "updated": "2026-07-27",
        "hours": {
          "raw": "Mo-Fr 07:30-18:00; Sa 08:30-14:30; PH off"
        },
        "sources_by_field": {
          "name": "osm",
          "address.street": "osm",
          "address.number": "osm",
          "address.postalcode": "osm",
          "address.city": "osm",
          "hours": "osm"
        },
        "apple_id_attempted": "2026-06-25",
        "payment": {
          "cards": "yes",
          "contactless": "yes",
          "girocard": "yes"
        }
      }
    },
    {
      "type": "Feature",
      "geometry": {
        "type": "Point",
        "coordinates": [
          9.934474,
          51.5305196
        ]
      },
      "properties": {
        "id": "tk_go_osm_n1395959491",
        "name": "NIKI",
        "address": {
          "street": "Nikolaistraße",
          "number": "25",
          "postalcode": "37073",
          "city": "Göttingen"
        },
        "sources": [
          {
            "type": "osm",
            "id": "node/1395959491",
            "version": 0
          },
          {
            "type": "gmaps",
            "id": "ChIJEXxpwL3UpEcRNC2Nc9UrZ6E"
          }
        ],
        "created": "2026-05-21",
        "updated": "2026-07-27",
        "hours": {
          "raw": "Tu 00:00-12:00; Th 00:00-12:00; Fr 12:00-00:00; We 12:00-00:00; Sa 00:00-14:00; Su 12:00-00:00"
        },
        "sources_by_field": {
          "name": "osm",
          "address.street": "osm",
          "address.number": "osm",
          "address.postalcode": "osm",
          "address.city": "osm",
          "hours": "google"
        },
        "apple_id_attempted": "2026-06-25",
        "google_attempted": "2026-06-25",
        "payment": {}
      }
    },
    {
      "type": "Feature",
      "geometry": {
        "type": "Point",
        "coordinates": [
          9.9374538,
          51.5277776
        ]
      },
      "properties": {
        "id": "tk_go_osm_n1574152832",
        "name": "Getränke-Ecke Nourmohammadi",
        "address": {
          "street": "Walkemühlenweg",
          "number": "13",
          "postalcode": "37083",
          "city": "Göttingen"
        },
        "sources": [
          {
            "type": "osm",
            "id": "node/1574152832",
            "version": 0
          },
          {
            "type": "gmaps",
            "id": "ChIJrS-rv5fUpEcRSP1nIkm7XpM"
          }
        ],
        "created": "2026-05-21",
        "updated": "2026-07-27",
        "hours": {
          "raw": "Mo-Su,PH 10:00-21:00"
        },
        "tags": [
          "barrierefrei"
        ],
        "sources_by_field": {
          "name": "osm",
          "address.street": "osm",
          "address.number": "osm",
          "address.postalcode": "osm",
          "address.city": "osm",
          "hours": "osm"
        },
        "apple_id_attempted": "2026-06-25",
        "google_attempted": "2026-06-25",
        "payment": {}
      }
    },
    {
      "type": "Feature",
      "geometry": {
        "type": "Point",
        "coordinates": [
          9.8811079,
          51.5292218
        ]
      },
      "properties": {
        "id": "tk_go_osm_n1612768647",
        "name": "Tabak-Center Denecke",
        "address": {
          "street": "Am Kauf Park",
          "number": "2",
          "postalcode": "37079",
          "city": "Göttingen",
          "district": "Grone"
        },
        "sources": [
          {
            "type": "osm",
            "id": "node/1612768647",
            "version": 0
          },
          {
            "type": "gmaps",
            "id": "ChIJGarQxl0ru0cRCvQxEb94qDM"
          },
          {
            "type": "apple",
            "id": "52776002670229542"
          }
        ],
        "created": "2026-05-21",
        "updated": "2026-07-27",
        "hours": {
          "raw": "Mo-Sa 09:00-20:00; PH off"
        },
        "sources_by_field": {
          "name": "osm",
          "address.street": "osm",
          "address.number": "osm",
          "address.postalcode": "osm",
          "address.city": "osm",
          "address.district": "osm",
          "hours": "osm"
        },
        "payment": {
          "cards": "no",
          "contactless": "yes",
          "girocard": "yes"
        }
      }
    },
    {
      "type": "Feature",
      "geometry": {
        "type": "Point",
        "coordinates": [
          9.9204572,
          51.520202
        ]
      },
      "properties": {
        "id": "tk_go_osm_n1907322893",
        "name": "Kiosk im Bootsverleih",
        "address": {
          "street": "Sandweg",
          "number": "9a",
          "postalcode": "37083",
          "city": "Göttingen",
          "district": "Innenstadt"
        },
        "sources": [
          {
            "type": "osm",
            "id": "node/1907322893",
            "version": 0
          },
          {
            "type": "gmaps",
            "id": "ChIJ9SBpSA_VpEcR2DTDyJZPrN8"
          }
        ],
        "created": "2026-05-21",
        "updated": "2026-07-27",
        "hours": {
          "raw": "Tu 13:00-18:00; Th 13:00-18:00; Fr 13:00-18:00; We 13:00-18:00; Mo 13:00-18:00; Sa 13:00-18:00; Su 13:00-18:00"
        },
        "sources_by_field": {
          "name": "osm",
          "hours": "google"
        },
        "apple_id_attempted": "2026-06-25",
        "google_attempted": "2026-06-25",
        "payment": {}
      }
    },
    {
      "type": "Feature",
      "geometry": {
        "type": "Point",
        "coordinates": [
          9.9044805,
          51.5611194
        ]
      },
      "properties": {
        "id": "tk_go_osm_n1991048663",
        "name": "Lotto Hoffmann",
        "address": {
          "street": "Genfstraße",
          "number": "5",
          "postalcode": "37079",
          "city": "Göttingen"
        },
        "sources": [
          {
            "type": "osm",
            "id": "node/1991048663",
            "version": 0
          },
          {
            "type": "gmaps",
            "id": "ChIJgx3fBtgqu0cRqJmB1drFbNs"
          }
        ],
        "created": "2026-05-21",
        "updated": "2026-07-27",
        "hours": {
          "raw": "Mo-Fr 07:00-18:00; Sa 07:00-14:00; PH off"
        },
        "sources_by_field": {
          "name": "osm",
          "address.street": "osm",
          "address.number": "osm",
          "address.postalcode": "osm",
          "address.city": "osm",
          "hours": "osm"
        },
        "apple_id_attempted": "2026-06-25",
        "payment": {
          "cards": "yes",
          "contactless": "yes",
          "girocard": "yes"
        }
      }
    },
    {
      "type": "Feature",
      "geometry": {
        "type": "Point",
        "coordinates": [
          9.9460935,
          51.5294855
        ]
      },
      "properties": {
        "id": "tk_go_osm_n2216365154",
        "name": "Kiosk 4 You",
        "address": {
          "street": "David-Hilbert-Straße",
          "number": "2",
          "postalcode": "37085",
          "city": "Göttingen"
        },
        "sources": [
          {
            "type": "osm",
            "id": "node/2216365154",
            "version": 0
          },
          {
            "type": "gmaps",
            "id": "ChIJw2ixDJHUpEcREfYXLQJ-GtI"
          }
        ],
        "created": "2026-05-21",
        "updated": "2026-07-27",
        "hours": {
          "raw": "Tu 07:00-17:00; Th 07:00-17:00; Fr 07:00-17:00; We 07:00-17:00; Mo 07:00-17:00; Sa 10:00-17:00; Su 11:00-16:30"
        },
        "sources_by_field": {
          "name": "osm",
          "address.street": "osm",
          "address.number": "osm",
          "address.postalcode": "osm",
          "address.city": "osm",
          "hours": "google"
        },
        "apple_id_attempted": "2026-06-25",
        "google_attempted": "2026-06-25",
        "payment": {}
      }
    },
    {
      "type": "Feature",
      "geometry": {
        "type": "Point",
        "coordinates": [
          9.9344787,
          51.5372348
        ]
      },
      "properties": {
        "id": "tk_go_osm_n2378753549",
        "name": "Zanko",
        "address": {
          "street": "Weender Straße",
          "number": "98",
          "postalcode": "37073",
          "city": "Göttingen"
        },
        "sources": [
          {
            "type": "osm",
            "id": "node/2378753549",
            "version": 0
          },
          {
            "type": "gmaps",
            "id": "ChIJP8BYgsDUpEcR6XuOdiecbqY"
          }
        ],
        "created": "2026-05-21",
        "updated": "2026-07-27",
        "hours": {
          "raw": "Mo-Sa 09:30-00:00; Su,PH 12:00-23:00"
        },
        "sources_by_field": {
          "name": "osm",
          "address.street": "osm",
          "address.number": "osm",
          "address.postalcode": "osm",
          "address.city": "osm",
          "hours": "osm"
        },
        "apple_id_attempted": "2026-06-25",
        "payment": {
          "cards": "no",
          "contactless": "yes",
          "girocard": "yes"
        }
      }
    },
    {
      "type": "Feature",
      "geometry": {
        "type": "Point",
        "coordinates": [
          9.9340921,
          51.5521836
        ]
      },
      "properties": {
        "id": "tk_go_osm_n2385891458",
        "name": "Kiosk Point Grüner Weg",
        "address": {
          "street": "Grüner Weg",
          "number": "17",
          "postalcode": "37075",
          "city": "Göttingen",
          "district": "Weende"
        },
        "sources": [
          {
            "type": "osm",
            "id": "node/2385891458",
            "version": 0
          },
          {
            "type": "gmaps",
            "id": "ChIJr8jgztvUpEcRND73QimyeHY"
          }
        ],
        "created": "2026-05-21",
        "updated": "2026-07-27",
        "sources_by_field": {
          "name": "osm",
          "address.street": "osm",
          "address.number": "osm",
          "address.postalcode": "osm",
          "address.city": "osm",
          "address.district": "osm",
          "hours": "google",
          "payment.cards": "google",
          "payment.contactless": "google"
        },
        "apple_id_attempted": "2026-06-25",
        "google_attempted": "2026-05-25",
        "hours": {
          "raw": "Tu 10:00-18:00; Th 10:00-18:00; Fr 10:00-18:00; We 10:00-18:00; Mo 10:00-18:00; Sa 10:00-18:00; Su 10:00-18:00"
        },
        "payment": {
          "cards": "no",
          "contactless": "yes"
        }
      }
    },
    {
      "type": "Feature",
      "geometry": {
        "type": "Point",
        "coordinates": [
          9.9310606,
          51.5344864
        ]
      },
      "properties": {
        "id": "tk_go_osm_n2908002129",
        "name": "Kiosk Amin",
        "address": {
          "street": "Goethe-Allee",
          "number": "6",
          "postalcode": "37073",
          "city": "Göttingen"
        },
        "sources": [
          {
            "type": "osm",
            "id": "node/2908002129",
            "version": 0
          },
          {
            "type": "gmaps",
            "id": "payment"
          },
          {
            "type": "apple",
            "id": "18371921566609310286"
          }
        ],
        "created": "2026-05-21",
        "updated": "2026-07-27",
        "hours": {
          "raw": "Mo-Sa 08:30-05:00; Su,PH 09:45-05:00"
        },
        "tags": [
          "barrierefrei"
        ],
        "sources_by_field": {
          "name": "osm",
          "address.street": "osm",
          "address.number": "osm",
          "address.postalcode": "osm",
          "address.city": "osm",
          "hours": "osm"
        },
        "google_attempted": "2026-05-22",
        "payment": {
          "cards": "no",
          "contactless": "yes",
          "girocard": "yes"
        }
      }
    },
    {
      "type": "Feature",
      "geometry": {
        "type": "Point",
        "coordinates": [
          9.9424348,
          51.5242478
        ]
      },
      "properties": {
        "id": "tk_go_osm_n2975858205",
        "name": "Elbinger Kiosk",
        "address": {
          "street": "Schopenhauerweg",
          "number": "2",
          "postalcode": "37083",
          "city": "Göttingen"
        },
        "sources": [
          {
            "type": "osm",
            "id": "node/2975858205",
            "version": 0
          },
          {
            "type": "gmaps",
            "id": "ChIJ2wKXPprUpEcRF4r6GEFdgpk"
          },
          {
            "type": "apple",
            "id": "3657710996294497260"
          }
        ],
        "created": "2026-05-21",
        "updated": "2026-07-27",
        "hours": {
          "raw": "Mo-Sa 07:30-19:00; Su 11:00-17:00"
        },
        "sources_by_field": {
          "name": "osm",
          "address.street": "osm",
          "address.number": "osm",
          "address.postalcode": "osm",
          "address.city": "osm",
          "hours": "osm"
        },
        "payment": {
          "cards": "yes",
          "contactless": "yes",
          "girocard": "yes"
        }
      }
    },
    {
      "type": "Feature",
      "geometry": {
        "type": "Point",
        "coordinates": [
          9.9369025,
          51.5331473
        ]
      },
      "properties": {
        "id": "tk_go_osm_n3179638773",
        "name": "GöKi",
        "address": {
          "street": "Jüdenstraße",
          "number": "13a",
          "postalcode": "37073",
          "city": "Göttingen"
        },
        "sources": [
          {
            "type": "osm",
            "id": "node/3179638773",
            "version": 0
          },
          {
            "type": "gmaps",
            "id": "ChIJB0-TI77UpEcR3bXhw2Q3KJA"
          }
        ],
        "created": "2026-05-21",
        "updated": "2026-07-27",
        "hours": {
          "raw": "Tu 10:00-00:00; Th 10:00-00:00; Fr 10:00-01:00; We 10:00-00:00; Mo 10:00-00:00; Sa 10:00-01:00; Su 09:00-00:00"
        },
        "tags": [
          "barrierefrei"
        ],
        "sources_by_field": {
          "name": "osm",
          "address.street": "osm",
          "address.number": "osm",
          "address.postalcode": "osm",
          "address.city": "osm",
          "hours": "google"
        },
        "apple_id_attempted": "2026-06-25",
        "google_attempted": "2026-06-25",
        "payment": {}
      }
    },
    {
      "type": "Feature",
      "geometry": {
        "type": "Point",
        "coordinates": [
          9.9333178,
          51.5459871
        ]
      },
      "properties": {
        "id": "tk_go_osm_n3237241707",
        "name": "Lotto-Tabackeck E. Keßler",
        "address": {
          "street": "Weender Landstraße",
          "number": "76",
          "postalcode": "37075",
          "city": "Göttingen",
          "district": "Nordstadt"
        },
        "sources": [
          {
            "type": "osm",
            "id": "node/3237241707",
            "version": 0
          },
          {
            "type": "gmaps",
            "id": "payment"
          },
          {
            "type": "apple",
            "id": "14371830031306341496"
          }
        ],
        "created": "2026-05-21",
        "updated": "2026-07-27",
        "hours": {
          "raw": "Mo-Sa 08:30-19:30"
        },
        "sources_by_field": {
          "name": "osm",
          "hours": "osm"
        },
        "google_attempted": "2026-05-22",
        "payment": {
          "cards": "yes",
          "contactless": "yes",
          "girocard": "yes"
        }
      }
    },
    {
      "type": "Feature",
      "geometry": {
        "type": "Point",
        "coordinates": [
          9.926728,
          51.5885827
        ]
      },
      "properties": {
        "id": "tk_go_osm_n3388523318",
        "name": "Christian Grischke",
        "address": {
          "street": "Göttinger Straße",
          "number": "33",
          "postalcode": "37120",
          "city": "Bovenden"
        },
        "sources": [
          {
            "type": "osm",
            "id": "node/3388523318",
            "version": 0
          },
          {
            "type": "gmaps",
            "id": "ChIJEQ8K4rIqu0cRI35r730BnWo"
          },
          {
            "type": "apple",
            "id": "1492402889002744366"
          }
        ],
        "created": "2026-05-21",
        "updated": "2026-07-27",
        "sources_by_field": {
          "name": "osm",
          "address.street": "osm",
          "address.number": "osm",
          "address.postalcode": "osm",
          "address.city": "osm"
        },
        "hours": {
          "raw": "Mo-Fr 09:00-18:00; Sa 09:00-13:00"
        },
        "payment": {
          "cards": "no",
          "contactless": "yes",
          "girocard": "yes"
        }
      }
    },
    {
      "type": "Feature",
      "geometry": {
        "type": "Point",
        "coordinates": [
          9.9342782,
          51.5597818
        ]
      },
      "properties": {
        "id": "tk_go_osm_n365055299",
        "name": "Lotto Hemetsberger",
        "address": {
          "street": "Hennebergstraße",
          "number": "12",
          "postalcode": "37077",
          "city": "Göttingen",
          "district": "Weende"
        },
        "sources": [
          {
            "type": "osm",
            "id": "node/365055299",
            "version": 0
          },
          {
            "type": "apple",
            "id": "13529121223644890925"
          },
          {
            "type": "gmaps",
            "id": "ChIJfVlF6ifVpEcRlWj8OFZO1bM"
          }
        ],
        "created": "2026-05-21",
        "updated": "2026-07-27",
        "hours": {
          "raw": "Mo-Fr 08:00-18:00; Sa 08:00-13:00; PH off"
        },
        "sources_by_field": {
          "name": "osm",
          "address.street": "osm",
          "address.number": "osm",
          "address.postalcode": "osm",
          "address.city": "osm",
          "address.district": "osm",
          "hours": "osm"
        },
        "payment": {
          "cards": "yes",
          "contactless": "yes"
        }
      }
    },
    {
      "type": "Feature",
      "geometry": {
        "type": "Point",
        "coordinates": [
          9.9324282,
          51.5425033
        ]
      },
      "properties": {
        "id": "tk_go_osm_n3790609595",
        "name": "Cams Eck",
        "address": {
          "street": "Weender Landstraße",
          "number": "37",
          "postalcode": "37075",
          "city": "Göttingen"
        },
        "sources": [
          {
            "type": "osm",
            "id": "node/3790609595",
            "version": 0
          },
          {
            "type": "gmaps",
            "id": "ChIJZf4ip8bUpEcRC1aMWlAKqgQ"
          }
        ],
        "created": "2026-05-21",
        "updated": "2026-07-27",
        "hours": {
          "raw": "Mo-Su,PH 09:45-00:00"
        },
        "sources_by_field": {
          "name": "osm",
          "address.street": "osm",
          "address.number": "osm",
          "address.postalcode": "osm",
          "address.city": "osm",
          "hours": "osm"
        },
        "apple_id_attempted": "2026-06-25",
        "payment": {
          "cards": "no",
          "contactless": "yes",
          "girocard": "yes"
        }
      }
    },
    {
      "type": "Feature",
      "geometry": {
        "type": "Point",
        "coordinates": [
          9.9375854,
          51.5330492
        ]
      },
      "properties": {
        "id": "tk_go_osm_n387521216",
        "name": "Miti-Kiosk",
        "address": {
          "street": "Rote Straße",
          "number": "9",
          "postalcode": "37073",
          "city": "Göttingen"
        },
        "sources": [
          {
            "type": "osm",
            "id": "node/387521216",
            "version": 0
          },
          {
            "type": "gmaps",
            "id": "ChIJ4xpxi5XUpEcR4gUbC5xRuCU"
          }
        ],
        "created": "2026-05-21",
        "updated": "2026-07-27",
        "sources_by_field": {
          "name": "osm",
          "address.street": "osm",
          "address.number": "osm",
          "address.postalcode": "osm",
          "address.city": "osm"
        },
        "apple_id_attempted": "2026-06-25",
        "google_attempted": "2026-06-25",
        "payment": {}
      }
    },
    {
      "type": "Feature",
      "geometry": {
        "type": "Point",
        "coordinates": [
          9.9372495,
          51.5316917
        ]
      },
      "properties": {
        "id": "tk_go_osm_n4043691547",
        "name": "bottles",
        "address": {
          "street": "Lange-Geismar-Straße",
          "number": "55",
          "postalcode": "37073",
          "city": "Göttingen"
        },
        "sources": [
          {
            "type": "osm",
            "id": "node/4043691547",
            "version": 0
          },
          {
            "type": "gmaps",
            "id": "ChIJ0_-Z_ZXUpEcREvJSMcUwyho"
          }
        ],
        "created": "2026-05-21",
        "updated": "2026-07-27",
        "hours": {
          "raw": "Mo 12:00-18:00; Tu-Fr 10:00-18:00; Sa 10:00-16:00; PH off"
        },
        "sources_by_field": {
          "name": "osm",
          "address.street": "osm",
          "address.number": "osm",
          "address.postalcode": "osm",
          "address.city": "osm",
          "hours": "osm"
        },
        "apple_id_attempted": "2026-06-25",
        "payment": {
          "cards": "no",
          "contactless": "yes",
          "girocard": "yes"
        }
      }
    },
    {
      "type": "Feature",
      "geometry": {
        "type": "Point",
        "coordinates": [
          9.9626034,
          51.5209747
        ]
      },
      "properties": {
        "id": "tk_go_osm_n4076694838",
        "name": "Lotto- und Tabakeck",
        "address": {
          "street": "Alfred-Delp-Weg",
          "number": "7",
          "postalcode": "37085",
          "city": "Göttingen",
          "district": "Geismar"
        },
        "sources": [
          {
            "type": "osm",
            "id": "node/4076694838",
            "version": 0
          },
          {
            "type": "gmaps",
            "id": "payment"
          }
        ],
        "created": "2026-05-21",
        "updated": "2026-07-27",
        "hours": {
          "raw": "Mo-Sa 07:30-19:00"
        },
        "tags": [
          "barrierefrei"
        ],
        "sources_by_field": {
          "name": "osm",
          "hours": "osm"
        },
        "apple_id_attempted": "2026-06-25",
        "google_attempted": "2026-05-22",
        "payment": {
          "cards": "yes",
          "girocard": "yes"
        }
      }
    },
    {
      "type": "Feature",
      "geometry": {
        "type": "Point",
        "coordinates": [
          9.8950178,
          51.5337774
        ]
      },
      "properties": {
        "id": "tk_go_osm_n416423917",
        "name": "Toto-Lotto D. Baranczyk",
        "address": {
          "street": "Krugstraße",
          "number": "24",
          "postalcode": "37081",
          "city": "Göttingen",
          "district": "Grone"
        },
        "sources": [
          {
            "type": "osm",
            "id": "node/416423917",
            "version": 0
          },
          {
            "type": "gmaps",
            "id": "ChIJVVWlikUru0cRedhbaghcYLU"
          }
        ],
        "created": "2026-05-21",
        "updated": "2026-07-27",
        "hours": {
          "raw": "Tu 06:30-13:00,15:00-18:00; Th 06:00-13:00; Fr 06:30-13:00,15:00-18:00; We 06:30-13:00,15:00-18:00; Mo 06:30-13:00,15:00-18:00; Sa 07:00-13:00"
        },
        "sources_by_field": {
          "name": "osm",
          "address.street": "osm",
          "address.number": "osm",
          "address.postalcode": "osm",
          "address.city": "osm",
          "address.district": "osm",
          "hours": "google"
        },
        "apple_id_attempted": "2026-06-25",
        "google_attempted": "2026-06-25",
        "payment": {}
      }
    },
    {
      "type": "Feature",
      "geometry": {
        "type": "Point",
        "coordinates": [
          9.898009,
          51.5392032
        ]
      },
      "properties": {
        "id": "tk_go_osm_n4200803556",
        "name": "Getränkefachhandel Gerke",
        "address": {
          "street": "Industriestraße",
          "number": "8",
          "postalcode": "37079",
          "city": "Göttingen",
          "district": "Grone"
        },
        "sources": [
          {
            "type": "osm",
            "id": "node/4200803556",
            "version": 0
          },
          {
            "type": "apple",
            "id": "12934409966481624349"
          }
        ],
        "created": "2026-05-21",
        "updated": "2026-07-27",
        "sources_by_field": {
          "name": "osm",
          "address.street": "osm",
          "address.number": "osm",
          "address.postalcode": "osm",
          "address.city": "osm",
          "address.district": "osm"
        },
        "google_attempted": "2026-05-22",
        "hours": {
          "raw": "Mo-Fr 07:00-18:00; Sa 08:30-12:00"
        },
        "payment": {
          "cards": "yes",
          "contactless": "yes"
        }
      }
    },
    {
      "type": "Feature",
      "geometry": {
        "type": "Point",
        "coordinates": [
          9.9280615,
          51.5212509
        ]
      },
      "properties": {
        "id": "tk_go_osm_n4270753837",
        "name": "Kiosk im Freibad Brauweg",
        "address": {
          "street": "Brauweg",
          "number": "60",
          "postalcode": "37073",
          "city": "Göttingen",
          "district": "Südstadt"
        },
        "sources": [
          {
            "type": "osm",
            "id": "node/4270753837",
            "version": 0
          },
          {
            "type": "gmaps",
            "id": "ChIJn2y_PbvUpEcRUDiw3eUhdNE"
          }
        ],
        "created": "2026-05-21",
        "updated": "2026-07-27",
        "hours": {
          "raw": "Tu 06:30-20:00; Th 06:30-20:00; Fr 06:30-20:00; We 06:30-20:00; Mo 06:30-20:00; Sa 08:00-19:00; Su 08:00-19:00"
        },
        "sources_by_field": {
          "name": "osm",
          "hours": "google"
        },
        "apple_id_attempted": "2026-06-25",
        "google_attempted": "2026-06-25",
        "payment": {}
      }
    },
    {
      "type": "Feature",
      "geometry": {
        "type": "Point",
        "coordinates": [
          9.8998227,
          51.5493091
        ]
      },
      "properties": {
        "id": "tk_go_osm_n429301753",
        "name": "Ritters Lotto-Shop im Kaufland",
        "address": {
          "street": "Robert-Bosch-Breite",
          "number": "8",
          "postalcode": "37079",
          "city": "Göttingen"
        },
        "sources": [
          {
            "type": "osm",
            "id": "node/429301753",
            "version": 0
          },
          {
            "type": "gmaps",
            "id": "payment"
          },
          {
            "type": "apple",
            "id": "5499023098541376532"
          }
        ],
        "created": "2026-05-21",
        "updated": "2026-07-27",
        "hours": {
          "raw": "Mo-Sa 08:00-19:00; PH off"
        },
        "tags": [
          "barrierefrei"
        ],
        "sources_by_field": {
          "name": "osm",
          "address.street": "osm",
          "address.number": "osm",
          "address.postalcode": "osm",
          "address.city": "osm",
          "hours": "osm"
        },
        "google_attempted": "2026-05-22",
        "payment": {
          "cards": "no",
          "contactless": "yes",
          "girocard": "yes"
        }
      }
    },
    {
      "type": "Feature",
      "geometry": {
        "type": "Point",
        "coordinates": [
          9.9263007,
          51.5310757
        ]
      },
      "properties": {
        "id": "tk_go_osm_n4350174471",
        "name": "Keller-Kiosk",
        "address": {
          "street": "Rosdorfer Weg",
          "number": "5",
          "postalcode": "37073",
          "city": "Göttingen"
        },
        "sources": [
          {
            "type": "osm",
            "id": "node/4350174471",
            "version": 0
          },
          {
            "type": "apple",
            "id": "11299811435448596011"
          },
          {
            "type": "gmaps",
            "id": "ChIJ95YytLvUpEcRgO9WG87HxLU"
          }
        ],
        "created": "2026-05-21",
        "updated": "2026-07-27",
        "hours": {
          "raw": "Mo-Su 09:00-24:00"
        },
        "sources_by_field": {
          "name": "osm",
          "address.street": "osm",
          "address.number": "osm",
          "address.postalcode": "osm",
          "address.city": "osm",
          "hours": "apple"
        },
        "apple_attempted": "2026-06-25",
        "google_attempted": "2026-06-25",
        "payment": {}
      }
    },
    {
      "type": "Feature",
      "geometry": {
        "type": "Point",
        "coordinates": [
          9.8710894,
          51.4907161
        ]
      },
      "properties": {
        "id": "tk_go_osm_n4899582246",
        "name": "Mengershäuser Getränkescheune",
        "address": {
          "street": "Lindenstraße",
          "number": "15",
          "postalcode": "37124",
          "city": "Rosdorf",
          "district": "Mengershausen"
        },
        "sources": [
          {
            "type": "osm",
            "id": "node/4899582246",
            "version": 0
          },
          {
            "type": "gmaps",
            "id": "ChIJ5dEDasMsu0cRCipdA_Fkh_Q"
          },
          {
            "type": "apple",
            "id": "247662064451476761"
          }
        ],
        "created": "2026-05-21",
        "updated": "2026-07-27",
        "sources_by_field": {
          "name": "osm",
          "address.street": "osm",
          "address.number": "osm",
          "address.postalcode": "osm",
          "address.city": "osm",
          "address.district": "osm"
        },
        "hours": {
          "raw": "Mo-Fr 15:00-19:00; Sa 09:00-13:00"
        },
        "payment": {
          "cards": "no",
          "contactless": "yes",
          "girocard": "yes"
        }
      }
    },
    {
      "type": "Feature",
      "geometry": {
        "type": "Point",
        "coordinates": [
          9.9157509,
          51.5270483
        ]
      },
      "properties": {
        "id": "tk_go_osm_n5171289655",
        "name": "Toto Lotto am Leineberg",
        "address": {
          "street": "Allerstraße",
          "number": "31",
          "postalcode": "37081",
          "city": "Göttingen"
        },
        "sources": [
          {
            "type": "osm",
            "id": "node/5171289655",
            "version": 0
          },
          {
            "type": "gmaps",
            "id": "ChIJ__9POa7UpEcRcKhnSIheAjo"
          }
        ],
        "created": "2026-05-21",
        "updated": "2026-07-27",
        "hours": {
          "raw": "Tu 09:00-17:00; Th 09:00-17:00; Fr 09:00-17:00; We 09:00-17:00; Mo 09:00-17:00; Sa 09:00-14:00"
        },
        "sources_by_field": {
          "name": "osm",
          "address.street": "osm",
          "address.number": "osm",
          "address.postalcode": "osm",
          "address.city": "osm",
          "hours": "google"
        },
        "apple_id_attempted": "2026-06-25",
        "google_attempted": "2026-06-25",
        "payment": {}
      }
    },
    {
      "type": "Feature",
      "geometry": {
        "type": "Point",
        "coordinates": [
          9.9283359,
          51.5324751
        ]
      },
      "properties": {
        "id": "tk_go_osm_n544540948",
        "name": "Aldoko Tabakwaren",
        "address": {
          "street": "Groner-Tor-Straße",
          "number": "8",
          "postalcode": "37073",
          "city": "Göttingen"
        },
        "sources": [
          {
            "type": "osm",
            "id": "node/544540948",
            "version": 0
          },
          {
            "type": "gmaps",
            "id": "ChIJRWTFX7nUpEcRmNzDFBvsB_w"
          }
        ],
        "created": "2026-05-21",
        "updated": "2026-07-27",
        "hours": {
          "raw": "Tu 08:30-17:00; Th 08:30-17:00; Fr 08:30-17:00; We 08:30-17:00; Mo 08:30-17:00; Sa 09:00-13:00"
        },
        "sources_by_field": {
          "name": "osm",
          "address.street": "osm",
          "address.number": "osm",
          "address.postalcode": "osm",
          "address.city": "osm",
          "hours": "google"
        },
        "apple_id_attempted": "2026-06-25",
        "google_attempted": "2026-06-25",
        "payment": {}
      }
    },
    {
      "type": "Feature",
      "geometry": {
        "type": "Point",
        "coordinates": [
          9.9151516,
          51.5467309
        ]
      },
      "properties": {
        "id": "tk_go_osm_n5611509279",
        "name": "Kiosk",
        "address": {
          "street": "Nelkenwinkel",
          "number": "2",
          "postalcode": "37081",
          "city": "Göttingen"
        },
        "sources": [
          {
            "type": "osm",
            "id": "node/5611509279",
            "version": 0
          },
          {
            "type": "gmaps",
            "id": "ChIJWWTb2MzUpEcREXkea9-pPhY"
          }
        ],
        "created": "2026-05-21",
        "updated": "2026-07-27",
        "hours": {
          "raw": "Mo-Su,PH 10:00-22:00"
        },
        "sources_by_field": {
          "name": "osm",
          "address.street": "osm",
          "address.number": "osm",
          "address.postalcode": "osm",
          "address.city": "osm",
          "hours": "osm"
        },
        "apple_id_attempted": "2026-06-25",
        "payment": {
          "cards": "yes",
          "girocard": "yes"
        }
      }
    },
    {
      "type": "Feature",
      "geometry": {
        "type": "Point",
        "coordinates": [
          9.8823698,
          51.4547975
        ]
      },
      "properties": {
        "id": "tk_go_osm_n5611635823",
        "name": "Timis Getränkehandel",
        "address": {
          "street": "Hauptstraße",
          "number": "18",
          "postalcode": "37124",
          "city": "Rosdorf",
          "district": "Dramfeld"
        },
        "sources": [
          {
            "type": "osm",
            "id": "node/5611635823",
            "version": 0
          },
          {
            "type": "gmaps",
            "id": "ChIJRSdBOrXSpEcRwHIwQ2IoldM"
          }
        ],
        "created": "2026-05-21",
        "updated": "2026-07-27",
        "sources_by_field": {
          "name": "osm",
          "address.street": "osm",
          "address.number": "osm",
          "address.postalcode": "osm",
          "address.city": "osm",
          "address.district": "osm",
          "hours": "google"
        },
        "apple_id_attempted": "2026-06-25",
        "google_attempted": "2026-06-25",
        "hours": {
          "raw": "Th 15:00-17:00; Mo 15:00-17:00"
        },
        "payment": {}
      }
    },
    {
      "type": "Feature",
      "geometry": {
        "type": "Point",
        "coordinates": [
          9.8969752,
          51.5361745
        ]
      },
      "properties": {
        "id": "tk_go_osm_n640128330",
        "name": "Andreas Treffpunkt",
        "address": {
          "street": "Martin-Luther-Straße",
          "number": "8",
          "postalcode": "37081",
          "city": "Göttingen",
          "district": "Grone"
        },
        "sources": [
          {
            "type": "osm",
            "id": "node/640128330",
            "version": 0
          },
          {
            "type": "gmaps",
            "id": "ChIJAc_OvEgru0cRngr5ORlaax0"
          },
          {
            "type": "apple",
            "id": "5399122270752268072"
          }
        ],
        "created": "2026-05-21",
        "updated": "2026-07-27",
        "hours": {
          "raw": "Tu-Fr 08:00-18:00; Sa 07:30-13:00; PH off; Mo 08:00-14:00"
        },
        "sources_by_field": {
          "name": "osm",
          "address.street": "osm",
          "address.number": "osm",
          "address.postalcode": "osm",
          "address.city": "osm",
          "address.district": "osm",
          "hours": "osm"
        },
        "payment": {
          "cards": "no",
          "contactless": "yes",
          "girocard": "yes"
        }
      }
    },
    {
      "type": "Feature",
      "geometry": {
        "type": "Point",
        "coordinates": [
          9.9352951,
          51.5345319
        ]
      },
      "properties": {
        "id": "tk_go_osm_n8014733493",
        "name": "An's Tea House",
        "address": {
          "street": "Weender Straße",
          "number": "54",
          "postalcode": "37073",
          "city": "Göttingen"
        },
        "sources": [
          {
            "type": "osm",
            "id": "node/8014733493",
            "version": 0
          },
          {
            "type": "gmaps",
            "id": "ChIJm1quFXvVpEcRJ8P5ORmAiss"
          }
        ],
        "created": "2026-05-21",
        "updated": "2026-07-27",
        "hours": {
          "raw": "Mo-Sa 12:00-19:00; Su,PH 13:00-19:30"
        },
        "tags": [
          "draussen",
          "raucherbereich",
          "sitzgelegenheiten"
        ],
        "sources_by_field": {
          "name": "osm",
          "address.street": "osm",
          "address.number": "osm",
          "address.postalcode": "osm",
          "address.city": "osm",
          "hours": "osm"
        },
        "apple_id_attempted": "2026-06-25",
        "payment": {
          "cards": "no",
          "contactless": "yes",
          "girocard": "yes"
        }
      }
    },
    {
      "type": "Feature",
      "geometry": {
        "type": "Point",
        "coordinates": [
          9.9298694,
          51.5866248
        ]
      },
      "properties": {
        "id": "tk_go_osm_n8151575754",
        "name": "Globi Shop",
        "address": {
          "street": "Rathausplatz",
          "number": "17",
          "postalcode": "37120",
          "city": "Bovenden"
        },
        "sources": [
          {
            "type": "osm",
            "id": "node/8151575754",
            "version": 0
          },
          {
            "type": "gmaps",
            "id": "ChIJu7siuUzVpEcR0CMsVHhtH2Q"
          }
        ],
        "created": "2026-05-21",
        "updated": "2026-07-27",
        "hours": {
          "raw": "Mo-Tu 07:30-13:00, Mo,We 15:00-18:00; Th 07:30-17:00; Fr 08:00-12:00; PH off"
        },
        "sources_by_field": {
          "name": "osm",
          "address.street": "osm",
          "address.number": "osm",
          "address.postalcode": "osm",
          "address.city": "osm",
          "hours": "osm"
        },
        "apple_id_attempted": "2026-06-25",
        "google_attempted": "2026-06-25",
        "payment": {}
      }
    },
    {
      "type": "Feature",
      "geometry": {
        "type": "Point",
        "coordinates": [
          9.9100912,
          51.537138
        ]
      },
      "properties": {
        "id": "tk_go_osm_n823470385",
        "name": "Kiosk Naturerlebnisbad Grone",
        "address": {
          "street": "Greitweg",
          "number": "50",
          "postalcode": "37081",
          "city": "Göttingen",
          "district": "Weststadt"
        },
        "sources": [
          {
            "type": "osm",
            "id": "node/823470385",
            "version": 0
          },
          {
            "type": "gmaps",
            "id": "ChIJJfm_0Uoru0cRiG06SllEOp0"
          }
        ],
        "created": "2026-05-21",
        "updated": "2026-07-27",
        "tags": [
          "barrierefrei"
        ],
        "sources_by_field": {
          "name": "osm",
          "hours": "google"
        },
        "apple_id_attempted": "2026-06-25",
        "google_attempted": "2026-06-25",
        "hours": {
          "raw": "Tu 12:00-20:00; Th 12:00-20:00; Fr 12:00-20:00; We 12:00-20:00; Mo 12:00-20:00; Sa 09:00-19:00; Su 09:00-19:00"
        },
        "payment": {}
      }
    },
    {
      "type": "Feature",
      "geometry": {
        "type": "Point",
        "coordinates": [
          9.938888,
          51.534086
        ]
      },
      "properties": {
        "id": "tk_go_osm_n8660546589",
        "name": "Kiosk am Wilhelmsplatz",
        "address": {
          "street": "Friedrichstraße",
          "number": "5",
          "postalcode": "37073",
          "city": "Göttingen"
        },
        "sources": [
          {
            "type": "osm",
            "id": "node/8660546589",
            "version": 0
          },
          {
            "type": "gmaps",
            "id": "ChIJW9aunZXUpEcRqw76J8mf40Q"
          }
        ],
        "created": "2026-05-21",
        "updated": "2026-07-27",
        "hours": {
          "raw": "Fr-Sa 09:00-05:00; Mo-Th,Su,PH 09:00-02:00"
        },
        "sources_by_field": {
          "name": "osm",
          "address.street": "osm",
          "address.number": "osm",
          "address.postalcode": "osm",
          "address.city": "osm",
          "hours": "osm"
        },
        "apple_id_attempted": "2026-06-25",
        "payment": {
          "cards": "no",
          "contactless": "yes",
          "girocard": "yes"
        }
      }
    },
    {
      "type": "Feature",
      "geometry": {
        "type": "Point",
        "coordinates": [
          9.8518731,
          51.5981341
        ]
      },
      "properties": {
        "id": "tk_go_osm_n9442924991",
        "name": "Getränke-Baldauf",
        "address": {
          "street": "Westbergsweg",
          "number": "6",
          "postalcode": "37120",
          "city": "Bovenden",
          "district": "Harste"
        },
        "sources": [
          {
            "type": "osm",
            "id": "node/9442924991",
            "version": 0
          },
          {
            "type": "gmaps",
            "id": "ChIJLe09ZXIqu0cRwUesvKXqvuo"
          }
        ],
        "created": "2026-05-21",
        "updated": "2026-07-27",
        "hours": {
          "raw": "off"
        },
        "sources_by_field": {
          "name": "osm",
          "address.street": "osm",
          "address.number": "osm",
          "address.postalcode": "osm",
          "address.city": "osm",
          "address.district": "osm",
          "hours": "osm"
        },
        "apple_id_attempted": "2026-06-25",
        "google_attempted": "2026-06-25",
        "payment": {}
      }
    },
    {
      "type": "Feature",
      "geometry": {
        "type": "Point",
        "coordinates": [
          9.931941,
          51.5619513
        ]
      },
      "properties": {
        "id": "tk_go_osm_n9663431487",
        "name": "my kiosk am Kloster",
        "address": {
          "street": "Hannoversche Straße",
          "number": "117",
          "postalcode": "37077",
          "city": "Göttingen",
          "district": "Weende"
        },
        "sources": [
          {
            "type": "osm",
            "id": "node/9663431487",
            "version": 0
          },
          {
            "type": "gmaps",
            "id": "ChIJEwMfbknVpEcRYsZ-gjsi8j0"
          },
          {
            "type": "apple",
            "id": "8359666379168043165"
          }
        ],
        "created": "2026-05-21",
        "updated": "2026-07-27",
        "hours": {
          "raw": "Mo-Fr 13:00-23:00; Sa 16:00-23:00; Su,PH 13:00-20:00"
        },
        "sources_by_field": {
          "name": "osm",
          "address.street": "osm",
          "address.number": "osm",
          "address.postalcode": "osm",
          "address.city": "osm",
          "address.district": "osm",
          "hours": "osm"
        },
        "payment": {
          "cards": "no",
          "contactless": "yes",
          "girocard": "yes"
        }
      }
    },
    {
      "type": "Feature",
      "geometry": {
        "type": "Point",
        "coordinates": [
          9.9134329,
          51.5409914
        ]
      },
      "properties": {
        "id": "tk_go_osm_n984398060",
        "name": "Goe-Nachtexpress",
        "address": {
          "street": "Friedrich-Naumann-Straße",
          "number": "71",
          "postalcode": "37081",
          "city": "Göttingen"
        },
        "sources": [
          {
            "type": "osm",
            "id": "node/984398060",
            "version": 0
          },
          {
            "type": "gmaps",
            "id": "ChIJJ1su3crUpEcRJ-UagGU-dck"
          }
        ],
        "created": "2026-05-21",
        "updated": "2026-07-27",
        "hours": {
          "raw": "Mo-Th 17:00-23:00, Fr-Sa 17:00-02:00, Su,PH 15:00-23:00"
        },
        "sources_by_field": {
          "name": "osm",
          "address.street": "osm",
          "address.number": "osm",
          "address.postalcode": "osm",
          "address.city": "osm",
          "hours": "osm"
        },
        "apple_id_attempted": "2026-06-25",
        "google_attempted": "2026-06-25",
        "payment": {}
      }
    },
    {
      "type": "Feature",
      "geometry": {
        "type": "Point",
        "coordinates": [
          9.9134075,
          51.5410008
        ]
      },
      "properties": {
        "id": "tk_go_osm_n9945992349",
        "name": "Kiosk Egelsberg",
        "address": {
          "street": "Friedrich-Naumann-Straße",
          "number": "71",
          "postalcode": "37081",
          "city": "Göttingen"
        },
        "sources": [
          {
            "type": "osm",
            "id": "node/9945992349",
            "version": 0
          },
          {
            "type": "gmaps",
            "id": "ChIJpd0y6sTVpEcRnaqc6SWNMgU"
          }
        ],
        "created": "2026-05-21",
        "updated": "2026-07-27",
        "hours": {
          "raw": "Mo-Fr 11:00-20:00; Sa,Su,PH 14:00-20:00"
        },
        "sources_by_field": {
          "name": "osm",
          "address.street": "osm",
          "address.number": "osm",
          "address.postalcode": "osm",
          "address.city": "osm",
          "hours": "osm"
        },
        "apple_id_attempted": "2026-06-25",
        "google_attempted": "2026-06-25",
        "payment": {}
      }
    },
    {
      "type": "Feature",
      "geometry": {
        "type": "Point",
        "coordinates": [
          9.9080669,
          51.5338951
        ]
      },
      "properties": {
        "id": "tk_go_osm_w1123437649",
        "name": "Esso",
        "address": {
          "street": "Kasseler Landstraße",
          "number": "12",
          "postalcode": "37081",
          "city": "Göttingen",
          "district": "Grone"
        },
        "sources": [
          {
            "type": "osm",
            "id": "way/1123437649",
            "version": 0
          },
          {
            "type": "gmaps",
            "id": "ChIJpTGnqEwru0cRX2W0gUaPlBY"
          }
        ],
        "created": "2026-05-21",
        "updated": "2026-07-27",
        "hours": {
          "raw": "Mo-Su,PH 05:00-21:00"
        },
        "sources_by_field": {
          "name": "osm",
          "address.street": "osm",
          "address.number": "osm",
          "address.postalcode": "osm",
          "address.city": "osm",
          "address.district": "osm",
          "hours": "osm"
        },
        "apple_id_attempted": "2026-06-25",
        "payment": {
          "cards": "no",
          "contactless": "yes",
          "girocard": "yes"
        }
      }
    },
    {
      "type": "Feature",
      "geometry": {
        "type": "Point",
        "coordinates": [
          9.9340979,
          51.5391908
        ]
      },
      "properties": {
        "id": "tk_go_osm_w1123437655",
        "name": "Esso",
        "address": {
          "street": "Weender Landstraße",
          "number": "10",
          "postalcode": "37073",
          "city": "Göttingen"
        },
        "sources": [
          {
            "type": "osm",
            "id": "way/1123437655",
            "version": 0
          },
          {
            "type": "gmaps",
            "id": "payment"
          }
        ],
        "created": "2026-05-21",
        "updated": "2026-07-27",
        "hours": {
          "raw": "24/7"
        },
        "tags": [
          "barrierefrei"
        ],
        "sources_by_field": {
          "name": "osm",
          "address.street": "osm",
          "address.number": "osm",
          "address.postalcode": "osm",
          "address.city": "osm",
          "hours": "osm"
        },
        "apple_id_attempted": "2026-06-25",
        "google_attempted": "2026-05-22",
        "payment": {
          "cards": "no",
          "contactless": "yes",
          "girocard": "yes"
        }
      }
    },
    {
      "type": "Feature",
      "geometry": {
        "type": "Point",
        "coordinates": [
          9.9310696,
          51.5539603
        ]
      },
      "properties": {
        "id": "tk_go_osm_w1123437657",
        "name": "Aral Center",
        "address": {
          "street": "Hannoversche Straße",
          "number": "45",
          "postalcode": "37075",
          "city": "Göttingen",
          "district": "Weende"
        },
        "sources": [
          {
            "type": "osm",
            "id": "way/1123437657",
            "version": 0
          },
          {
            "type": "gmaps",
            "id": "ChIJNSPT3dnUpEcRJUKSfZ_EG3E"
          }
        ],
        "created": "2026-05-21",
        "updated": "2026-07-27",
        "hours": {
          "raw": "24/7"
        },
        "tags": [
          "barrierefrei"
        ],
        "sources_by_field": {
          "name": "osm",
          "address.street": "osm",
          "address.number": "osm",
          "address.postalcode": "osm",
          "address.city": "osm",
          "address.district": "osm",
          "hours": "osm"
        },
        "apple_id_attempted": "2026-06-25",
        "payment": {
          "cards": "no",
          "contactless": "yes",
          "girocard": "yes"
        }
      }
    },
    {
      "type": "Feature",
      "geometry": {
        "type": "Point",
        "coordinates": [
          9.9324174,
          51.544455
        ]
      },
      "properties": {
        "id": "tk_go_osm_w1123437665",
        "name": "Aral",
        "address": {
          "street": "Weender Landstraße",
          "number": "62a",
          "postalcode": "37075",
          "city": "Göttingen"
        },
        "sources": [
          {
            "type": "osm",
            "id": "way/1123437665",
            "version": 0
          },
          {
            "type": "gmaps",
            "id": "payment"
          }
        ],
        "created": "2026-05-21",
        "updated": "2026-07-27",
        "hours": {
          "raw": "24/7"
        },
        "sources_by_field": {
          "name": "osm",
          "address.street": "osm",
          "address.number": "osm",
          "address.postalcode": "osm",
          "address.city": "osm",
          "hours": "osm"
        },
        "apple_id_attempted": "2026-06-25",
        "google_attempted": "2026-05-22",
        "payment": {
          "cards": "no",
          "contactless": "yes",
          "girocard": "yes"
        }
      }
    },
    {
      "type": "Feature",
      "geometry": {
        "type": "Point",
        "coordinates": [
          9.891678,
          51.5285019
        ]
      },
      "properties": {
        "id": "tk_go_osm_w1123437670",
        "name": "Shell",
        "address": {
          "street": "Kasseler Landstraße",
          "number": "99",
          "postalcode": "37081",
          "city": "Göttingen",
          "district": "Grone"
        },
        "sources": [
          {
            "type": "osm",
            "id": "way/1123437670",
            "version": 0
          },
          {
            "type": "gmaps",
            "id": "payment"
          }
        ],
        "created": "2026-05-21",
        "updated": "2026-07-27",
        "hours": {
          "raw": "24/7"
        },
        "sources_by_field": {
          "name": "osm",
          "address.street": "osm",
          "address.number": "osm",
          "address.postalcode": "osm",
          "address.city": "osm",
          "address.district": "osm",
          "hours": "osm"
        },
        "apple_id_attempted": "2026-06-25",
        "google_attempted": "2026-05-22",
        "payment": {
          "cards": "no",
          "contactless": "yes",
          "girocard": "yes"
        }
      }
    },
    {
      "type": "Feature",
      "geometry": {
        "type": "Point",
        "coordinates": [
          9.940175,
          51.5201679
        ]
      },
      "properties": {
        "id": "tk_go_osm_w1123437676",
        "name": "Aral",
        "address": {
          "street": "Reinhäuser Landstraße",
          "number": "108",
          "postalcode": "37083",
          "city": "Göttingen"
        },
        "sources": [
          {
            "type": "osm",
            "id": "way/1123437676",
            "version": 0
          },
          {
            "type": "gmaps",
            "id": "payment"
          }
        ],
        "created": "2026-05-21",
        "updated": "2026-07-27",
        "hours": {
          "raw": "Mo-Sa 06:00-22:00; Su,PH 07:30-22:00"
        },
        "sources_by_field": {
          "name": "osm",
          "address.street": "osm",
          "address.number": "osm",
          "address.postalcode": "osm",
          "address.city": "osm",
          "hours": "osm"
        },
        "apple_id_attempted": "2026-06-25",
        "google_attempted": "2026-05-22",
        "payment": {
          "cards": "no",
          "contactless": "yes",
          "girocard": "yes"
        }
      }
    },
    {
      "type": "Feature",
      "geometry": {
        "type": "Point",
        "coordinates": [
          9.9404325,
          51.5236375
        ]
      },
      "properties": {
        "id": "tk_go_osm_w164679504",
        "name": "Ilse's Trinkhalle",
        "address": {
          "street": "Reinhäuser Landstraße",
          "number": "43",
          "postalcode": "37083",
          "city": "Göttingen"
        },
        "sources": [
          {
            "type": "osm",
            "id": "way/164679504",
            "version": 0
          },
          {
            "type": "gmaps",
            "id": "ChIJ_w4sWXvVpEcR_pzp1bAP6cc"
          },
          {
            "type": "apple",
            "id": "12521577688635770425"
          }
        ],
        "created": "2026-05-21",
        "updated": "2026-07-27",
        "hours": {
          "raw": "Tu 16:00-23:00; Th 16:00-23:00; Fr 16:00-23:00; We 16:00-23:00; Sa 16:00-23:00; Su 16:00-23:00"
        },
        "sources_by_field": {
          "name": "osm",
          "address.street": "osm",
          "address.number": "osm",
          "address.postalcode": "osm",
          "address.city": "osm",
          "hours": "google"
        },
        "apple_attempted": "2026-06-25",
        "google_attempted": "2026-06-25",
        "payment": {
          "cash": "yes"
        }
      }
    },
    {
      "type": "Feature",
      "geometry": {
        "type": "Point",
        "coordinates": [
          9.9542629,
          51.5336645
        ]
      },
      "properties": {
        "id": "tk_go_osm_w216626658",
        "name": "Schiller-Kiosk",
        "address": {
          "street": "Hainholzweg",
          "number": "41",
          "postalcode": "37085",
          "city": "Göttingen"
        },
        "sources": [
          {
            "type": "osm",
            "id": "way/216626658",
            "version": 0
          },
          {
            "type": "gmaps",
            "id": "ChIJV1aEEI3UpEcRXcnwq-SjK2I"
          }
        ],
        "created": "2026-05-21",
        "updated": "2026-07-27",
        "hours": {
          "raw": "Tu 07:00-18:00; Th 07:00-18:00; Fr 07:00-18:00; We 07:00-18:00; Mo 07:00-18:00"
        },
        "sources_by_field": {
          "name": "osm",
          "address.street": "osm",
          "address.number": "osm",
          "address.postalcode": "osm",
          "address.city": "osm",
          "hours": "google"
        },
        "apple_id_attempted": "2026-06-25",
        "google_attempted": "2026-06-25",
        "payment": {}
      }
    },
    {
      "type": "Feature",
      "geometry": {
        "type": "Point",
        "coordinates": [
          9.9344966,
          51.6265409
        ]
      },
      "properties": {
        "id": "tk_go_osm_w228897407",
        "name": "Total",
        "address": {
          "street": "Lauenförder Straße",
          "number": "3",
          "postalcode": "37176",
          "city": "Nörten-Hardenberg"
        },
        "sources": [
          {
            "type": "osm",
            "id": "way/228897407",
            "version": 0
          },
          {
            "type": "gmaps",
            "id": "ChIJubYTJiI7cEERZWGih8v86XU"
          }
        ],
        "created": "2026-05-21",
        "updated": "2026-07-27",
        "hours": {
          "raw": "24/7"
        },
        "sources_by_field": {
          "name": "osm",
          "address.street": "osm",
          "address.number": "osm",
          "address.postalcode": "osm",
          "address.city": "osm",
          "hours": "osm"
        },
        "apple_id_attempted": "2026-06-25",
        "payment": {
          "cards": "no",
          "contactless": "yes",
          "girocard": "yes"
        }
      }
    },
    {
      "type": "Feature",
      "geometry": {
        "type": "Point",
        "coordinates": [
          9.936926,
          51.5451251
        ]
      },
      "properties": {
        "id": "tk_go_osm_w258395886",
        "name": "Am \"Blauen Turm\"",
        "address": {
          "street": "Beyerstraße",
          "postalcode": "37075",
          "city": "Göttingen",
          "number": "26",
          "district": "Nordstadt"
        },
        "sources": [
          {
            "type": "osm",
            "id": "way/258395886",
            "version": 0
          },
          {
            "type": "gmaps",
            "id": "ChIJy2m5CMPUpEcRN3nh_WPZwEU"
          },
          {
            "type": "apple",
            "id": "6744900207030017006"
          }
        ],
        "created": "2026-05-21",
        "updated": "2026-07-27",
        "hours": {
          "raw": "Mo-Su 09:00-20:00"
        },
        "sources_by_field": {
          "name": "osm",
          "address.street": "osm",
          "address.postalcode": "osm",
          "address.city": "osm",
          "hours": "apple"
        },
        "apple_attempted": "2026-06-25",
        "google_attempted": "2026-06-25",
        "payment": {
          "cash": "yes"
        }
      }
    },
    {
      "type": "Feature",
      "geometry": {
        "type": "Point",
        "coordinates": [
          9.9032884,
          51.5410905
        ]
      },
      "properties": {
        "id": "tk_go_osm_w36971678",
        "name": "Kiosk SB-Wasch",
        "address": {
          "street": "Industriestraße",
          "number": "22",
          "postalcode": "37079",
          "city": "Göttingen",
          "district": "Grone"
        },
        "sources": [
          {
            "type": "osm",
            "id": "way/36971678",
            "version": 0
          },
          {
            "type": "gmaps",
            "id": "ChIJ6wXSFDYru0cRswLAlDiSvI8"
          }
        ],
        "created": "2026-05-21",
        "updated": "2026-07-27",
        "sources_by_field": {
          "name": "osm",
          "address.street": "osm",
          "address.number": "osm",
          "address.postalcode": "osm",
          "address.city": "osm",
          "address.district": "osm",
          "hours": "google"
        },
        "apple_id_attempted": "2026-06-25",
        "google_attempted": "2026-06-25",
        "hours": {
          "raw": "Tu 06:00-22:00; Th 06:00-22:00; Fr 06:00-22:00; We 06:00-22:00; Mo 06:00-22:00; Sa 06:00-22:00"
        },
        "payment": {}
      }
    },
    {
      "type": "Feature",
      "geometry": {
        "type": "Point",
        "coordinates": [
          9.9430366,
          51.550561
        ]
      },
      "properties": {
        "id": "tk_go_osm_w405976570",
        "name": "kleiner [genuss]",
        "address": {
          "street": "Robert-Koch-Straße",
          "number": "40",
          "postalcode": "37075",
          "city": "Göttingen"
        },
        "sources": [
          {
            "type": "osm",
            "id": "way/405976570",
            "version": 0
          },
          {
            "type": "gmaps",
            "id": "ChIJU9lGJyTVpEcR_NsQQ9G8oRE"
          }
        ],
        "created": "2026-05-21",
        "updated": "2026-07-27",
        "hours": {
          "raw": "Tu 07:00-17:00; Th 07:00-17:00; Fr 07:00-17:00; We 07:00-17:00; Mo 07:00-17:00; Sa 09:00-17:00; Su 09:00-17:00"
        },
        "tags": [
          "barrierefrei"
        ],
        "sources_by_field": {
          "name": "osm",
          "address.street": "osm",
          "address.number": "osm",
          "address.postalcode": "osm",
          "address.city": "osm",
          "hours": "google"
        },
        "apple_id_attempted": "2026-06-25",
        "google_attempted": "2026-06-25",
        "payment": {}
      }
    },
    {
      "type": "Feature",
      "geometry": {
        "type": "Point",
        "coordinates": [
          9.944966,
          51.5507176
        ]
      },
      "properties": {
        "id": "tk_go_osm_w405978532",
        "name": "Marktplatz [genuss]OASE",
        "address": {
          "street": "Robert-Koch-Straße",
          "number": "40",
          "postalcode": "37075",
          "city": "Göttingen"
        },
        "sources": [
          {
            "type": "osm",
            "id": "way/405978532",
            "version": 0
          },
          {
            "type": "gmaps",
            "id": "ChIJNbuAbufUpEcR_z4ot5U7epA"
          }
        ],
        "created": "2026-05-21",
        "updated": "2026-07-27",
        "hours": {
          "raw": "Tu 10:00-18:00; Th 10:00-18:00; Fr 10:00-18:00; We 10:00-18:00; Mo 10:00-18:00; Sa 10:00-18:00; Su 12:00-17:00"
        },
        "tags": [
          "barrierefrei"
        ],
        "sources_by_field": {
          "name": "osm",
          "address.street": "osm",
          "address.number": "osm",
          "address.postalcode": "osm",
          "address.city": "osm",
          "hours": "google"
        },
        "apple_id_attempted": "2026-06-25",
        "google_attempted": "2026-06-25",
        "payment": {}
      }
    },
    {
      "type": "Feature",
      "geometry": {
        "type": "Point",
        "coordinates": [
          9.9537186,
          51.5157907
        ]
      },
      "properties": {
        "id": "tk_go_osm_w422711510",
        "name": "bft",
        "address": {
          "street": "Hauptstraße",
          "number": "28",
          "postalcode": "37083",
          "city": "Göttingen",
          "district": "Geismar"
        },
        "sources": [
          {
            "type": "osm",
            "id": "way/422711510",
            "version": 0
          },
          {
            "type": "gmaps",
            "id": "ChIJ2WFblIHUpEcRfGM1NZjO30c"
          }
        ],
        "created": "2026-05-21",
        "updated": "2026-07-27",
        "hours": {
          "raw": "Mo-Fr 06:00-22:00; Sa 07:00-22:00; Su,PH 08:00-22:00"
        },
        "sources_by_field": {
          "name": "osm",
          "address.street": "osm",
          "address.number": "osm",
          "address.postalcode": "osm",
          "address.city": "osm",
          "address.district": "osm",
          "hours": "osm"
        },
        "apple_id_attempted": "2026-06-25",
        "payment": {
          "cards": "no",
          "contactless": "yes",
          "girocard": "yes"
        }
      }
    },
    {
      "type": "Feature",
      "geometry": {
        "type": "Point",
        "coordinates": [
          9.9311381,
          51.5454596
        ]
      },
      "properties": {
        "id": "tk_go_osm_w485391586",
        "name": "Shell",
        "address": {
          "street": "Weender Landstraße",
          "number": "61a",
          "postalcode": "37075",
          "city": "Göttingen"
        },
        "sources": [
          {
            "type": "osm",
            "id": "way/485391586",
            "version": 0
          },
          {
            "type": "gmaps",
            "id": "ChIJu5HB_8TUpEcRsQna7SZ60Yc"
          }
        ],
        "created": "2026-05-21",
        "updated": "2026-07-27",
        "hours": {
          "raw": "Mo-Fr 06:00-20:00; Sa,Su,PH 07:00-20:00"
        },
        "sources_by_field": {
          "name": "osm",
          "address.street": "osm",
          "address.number": "osm",
          "address.postalcode": "osm",
          "address.city": "osm",
          "hours": "osm"
        },
        "apple_id_attempted": "2026-06-25",
        "payment": {
          "cards": "no",
          "contactless": "yes",
          "girocard": "yes"
        }
      }
    },
    {
      "type": "Feature",
      "geometry": {
        "type": "Point",
        "coordinates": [
          9.9306306,
          51.5324957
        ]
      },
      "properties": {
        "id": "tk_go_osm_n13737527807",
        "name": "Göz Nachti",
        "address": {
          "street": "Groner-Tor-Straße",
          "number": "29",
          "postalcode": "37073",
          "city": "Göttingen"
        },
        "sources": [
          {
            "type": "osm",
            "id": "node/13737527807",
            "version": 0
          }
        ],
        "created": "2026-07-06",
        "updated": "2026-07-27",
        "hours": {
          "raw": "Fr-Sa 12:00-00:00; Mo-Th,Su,PH 12:00-22:00"
        },
        "sources_by_field": {
          "name": "osm",
          "address.street": "osm",
          "address.number": "osm",
          "address.postalcode": "osm",
          "address.city": "osm",
          "hours": "osm"
        },
        "apple_id_attempted": "2026-07-14",
        "google_attempted": "2026-07-14",
        "payment": {}
      }
    },
    {
      "type": "Feature",
      "geometry": {
        "type": "Point",
        "coordinates": [
          9.9342851,
          51.5266668
        ]
      },
      "properties": {
        "id": "tk_go_osm_n13754472554",
        "name": "R1",
        "address": {
          "street": "Lotzestraße",
          "number": "13a",
          "postalcode": "37083",
          "city": "Göttingen"
        },
        "sources": [
          {
            "type": "osm",
            "id": "node/13754472554",
            "version": 0
          }
        ],
        "created": "2026-05-21",
        "updated": "2026-07-27",
        "sources_by_field": {
          "name": "osm",
          "address.street": "osm",
          "address.number": "osm",
          "address.postalcode": "osm",
          "address.city": "osm"
        },
        "payment": {}
      }
    },
    {
      "type": "Feature",
      "geometry": {
        "type": "Point",
        "coordinates": [
          9.9428403,
          51.53974
        ]
      },
      "properties": {
        "id": "tk_go_osm_n4254713953",
        "name": "St. Unterberger",
        "address": {
          "street": "Nikolausberger Weg",
          "number": "34",
          "postalcode": "37073",
          "city": "Göttingen"
        },
        "sources": [
          {
            "type": "osm",
            "id": "node/4254713953",
            "version": 0
          }
        ],
        "created": "2026-05-21",
        "updated": "2026-07-27",
        "hours": {
          "raw": "Mo-Fr 07:30-18:00; Sa 08:30-13:00; PH off"
        },
        "payment": {
          "cash": "unknown",
          "cards": "unknown",
          "contactless": "unknown",
          "girocard": "yes"
        },
        "tags": [
          "barrierefrei"
        ],
        "sources_by_field": {
          "name": "osm",
          "address.street": "osm",
          "address.number": "osm",
          "address.postalcode": "osm",
          "address.city": "osm",
          "hours": "osm",
          "payment.cash": "osm",
          "payment.cards": "osm",
          "payment.contactless": "osm",
          "payment.girocard": "osm"
        },
        "apple_id_attempted": "2026-06-25"
      }
    },
    {
      "type": "Feature",
      "geometry": {
        "type": "Point",
        "coordinates": [
          9.9721063,
          51.5116914
        ]
      },
      "properties": {
        "id": "tk_go_osm_n4270773243",
        "name": "GDA-Kiosk",
        "address": {},
        "sources": [
          {
            "type": "osm",
            "id": "node/4270773243",
            "version": 0
          }
        ],
        "created": "2026-05-21",
        "updated": "2026-07-27",
        "sources_by_field": {
          "name": "osm"
        },
        "apple_id_attempted": "2026-06-25",
        "google_attempted": "2026-06-25",
        "payment": {}
      }
    },
    {
      "type": "Feature",
      "geometry": {
        "type": "Point",
        "coordinates": [
          9.9089352,
          51.5097202
        ]
      },
      "properties": {
        "id": "tk_go_osm_n4350847384",
        "name": "A. Kühne",
        "address": {
          "street": "Rischenweg",
          "number": "5",
          "postalcode": "37124",
          "city": "Rosdorf"
        },
        "sources": [
          {
            "type": "osm",
            "id": "node/4350847384",
            "version": 0
          }
        ],
        "created": "2026-05-21",
        "updated": "2026-07-27",
        "hours": {
          "raw": "Mo-Sa 08:00-15:00, Fr 08:00-18:00"
        },
        "sources_by_field": {
          "name": "osm",
          "address.street": "osm",
          "address.number": "osm",
          "address.postalcode": "osm",
          "address.city": "osm",
          "hours": "osm"
        },
        "apple_id_attempted": "2026-06-25",
        "google_attempted": "2026-06-25",
        "payment": {}
      }
    },
    {
      "type": "Feature",
      "geometry": {
        "type": "Point",
        "coordinates": [
          9.9370992,
          51.5529841
        ]
      },
      "properties": {
        "id": "tk_go_osm_n4436921730",
        "name": "Kiosk Voigtschule",
        "address": {},
        "sources": [
          {
            "type": "osm",
            "id": "node/4436921730",
            "version": 0
          }
        ],
        "created": "2026-05-21",
        "updated": "2026-07-27",
        "sources_by_field": {
          "name": "osm"
        },
        "apple_id_attempted": "2026-06-25",
        "google_attempted": "2026-06-25",
        "payment": {}
      }
    },
    {
      "type": "Feature",
      "geometry": {
        "type": "Point",
        "coordinates": [
          9.872115,
          51.5855478
        ]
      },
      "properties": {
        "id": "tk_go_osm_n6907053991",
        "name": "Dorfladen Lenglern",
        "address": {
          "street": "Graseweg",
          "number": "11 Eingang Graseweg",
          "postalcode": "37120",
          "city": "Lenglern"
        },
        "sources": [
          {
            "type": "osm",
            "id": "node/6907053991",
            "version": 0
          }
        ],
        "created": "2026-07-20",
        "updated": "2026-07-27",
        "sources_by_field": {
          "name": "osm",
          "address.street": "osm",
          "address.number": "osm",
          "address.postalcode": "osm",
          "address.city": "osm"
        },
        "apple_id_attempted": "2026-07-20",
        "google_attempted": "2026-07-20",
        "payment": {}
      }
    },
    {
      "type": "Feature",
      "geometry": {
        "type": "Point",
        "coordinates": [
          9.9552772,
          51.533442
        ]
      },
      "properties": {
        "id": "tk_go_osm_w289232949",
        "name": "1. MGC Göttingen",
        "address": {},
        "sources": [
          {
            "type": "osm",
            "id": "way/289232949",
            "version": 0
          }
        ],
        "created": "2026-05-21",
        "updated": "2026-07-27",
        "sources_by_field": {
          "name": "osm"
        },
        "apple_id_attempted": "2026-06-25",
        "google_attempted": "2026-06-25",
        "payment": {}
      }
    },
    {
      "type": "Feature",
      "geometry": {
        "type": "Point",
        "coordinates": [
          9.8804347,
          51.5263255
        ]
      },
      "properties": {
        "id": "tk_go_osm_w363769804",
        "name": "JET",
        "address": {
          "street": "Am Kauf Park",
          "number": "7",
          "postalcode": "37079",
          "city": "Göttingen",
          "district": "Grone"
        },
        "sources": [
          {
            "type": "osm",
            "id": "way/363769804",
            "version": 0
          }
        ],
        "created": "2026-05-21",
        "updated": "2026-07-27",
        "hours": {
          "raw": "24/7"
        },
        "payment": {
          "cash": "yes",
          "cards": "unknown",
          "contactless": "unknown",
          "girocard": "unknown"
        },
        "sources_by_field": {
          "name": "osm",
          "address.street": "osm",
          "address.number": "osm",
          "address.postalcode": "osm",
          "address.city": "osm",
          "address.district": "osm",
          "hours": "osm",
          "payment.cash": "osm",
          "payment.cards": "osm",
          "payment.contactless": "osm",
          "payment.girocard": "osm"
        },
        "apple_id_attempted": "2026-06-25"
      }
    },
    {
      "type": "Feature",
      "geometry": {
        "type": "Point",
        "coordinates": [
          9.9262685,
          51.5368592
        ]
      },
      "properties": {
        "id": "tk_go_osm_w410664722",
        "name": "ServiceStore DB",
        "address": {
          "street": "Bahnhofsplatz",
          "number": "1",
          "postalcode": "37073",
          "city": "Göttingen"
        },
        "sources": [
          {
            "type": "osm",
            "id": "way/410664722",
            "version": 0
          }
        ],
        "created": "2026-05-21",
        "updated": "2026-07-27",
        "hours": {
          "raw": "Mo-Fr 06:00-19:00; Sa,Su,PH 08:00-19:00"
        },
        "tags": [
          "barrierefrei"
        ],
        "sources_by_field": {
          "name": "osm",
          "address.street": "osm",
          "address.number": "osm",
          "address.postalcode": "osm",
          "address.city": "osm",
          "hours": "osm"
        },
        "apple_id_attempted": "2026-06-25",
        "google_attempted": "2026-06-25",
        "payment": {}
      }
    }
  ]
}
