{
  "type": "FeatureCollection",
  "features": [
    {
      "type": "Feature",
      "geometry": {
        "type": "Point",
        "coordinates": [
          9.9505611,
          52.1529726
        ]
      },
      "properties": {
        "id": "tk_hi_osm_n10128934692",
        "name": "Aladdin Kiosk",
        "address": {
          "street": "Almsstraße",
          "number": "50",
          "postalcode": "31134",
          "city": "Hildesheim",
          "district": "Stadtmitte"
        },
        "sources": [
          {
            "type": "osm",
            "id": "node/10128934692",
            "version": 0
          },
          {
            "type": "gmaps",
            "id": "ChIJhzzUS0-vukcREWhmzL1ecjg"
          }
        ],
        "created": "2026-05-21",
        "updated": "2026-06-24",
        "sources_by_field": {
          "name": "osm",
          "hours": "google"
        },
        "apple_id_attempted": "2026-06-24",
        "google_attempted": "2026-06-24",
        "payment": {},
        "hours": {
          "raw": "Tu 09:00-00:00; Th 09:00-00:00; Fr 09:00-02:00; We 09:00-00:00; Mo 09:00-00:00; Sa 09:00-02:00; Su 10:00-23:30"
        }
      }
    },
    {
      "type": "Feature",
      "geometry": {
        "type": "Point",
        "coordinates": [
          9.9530046,
          52.1487705
        ]
      },
      "properties": {
        "id": "tk_hi_osm_n10929429808",
        "name": "Mini Kaufhaus",
        "address": {
          "street": "Wollenweberstraße",
          "number": "6",
          "postalcode": "31134",
          "city": "Hildesheim",
          "district": "Neustadt"
        },
        "sources": [
          {
            "type": "osm",
            "id": "node/10929429808",
            "version": 0
          },
          {
            "type": "apple",
            "id": "16024344506562839453"
          }
        ],
        "created": "2026-05-21",
        "updated": "2026-06-22",
        "sources_by_field": {
          "name": "osm"
        },
        "hours": {
          "raw": "Sa-Su 00:00-04:00,08:00-24:00; Mo-Fr 08:00-24:00"
        },
        "payment": {
          "cards": "yes",
          "contactless": "yes"
        }
      }
    },
    {
      "type": "Feature",
      "geometry": {
        "type": "Point",
        "coordinates": [
          9.953288,
          52.1492839
        ]
      },
      "properties": {
        "id": "tk_hi_osm_n10945071685",
        "name": "Kiosk Wollenweber",
        "address": {
          "street": "Wollenweberstraße",
          "number": "4",
          "postalcode": "31134",
          "city": "Hildesheim"
        },
        "sources": [
          {
            "type": "osm",
            "id": "node/10945071685",
            "version": 0
          },
          {
            "type": "apple",
            "id": "16777182110658036889"
          }
        ],
        "created": "2026-05-21",
        "updated": "2026-06-22",
        "hours": {
          "raw": "Mo-Sa 08:00-19:00"
        },
        "sources_by_field": {
          "name": "osm",
          "address.street": "osm",
          "address.number": "osm",
          "address.postalcode": "osm",
          "address.city": "osm",
          "hours": "osm"
        },
        "payment": {
          "cards": "yes",
          "contactless": "yes"
        }
      }
    },
    {
      "type": "Feature",
      "geometry": {
        "type": "Point",
        "coordinates": [
          9.9521252,
          52.155131
        ]
      },
      "properties": {
        "id": "tk_hi_osm_n10980273859",
        "name": "Ringo Kiosk",
        "address": {
          "street": "Almsstraße",
          "number": "34",
          "postalcode": "31134",
          "city": "Hildesheim",
          "district": "Stadtmitte"
        },
        "sources": [
          {
            "type": "osm",
            "id": "node/10980273859",
            "version": 0
          },
          {
            "type": "gmaps",
            "id": "payment"
          },
          {
            "type": "apple",
            "id": "3022579803273988754"
          }
        ],
        "created": "2026-05-21",
        "updated": "2026-06-22",
        "sources_by_field": {
          "name": "osm"
        },
        "hours": {
          "raw": "Mo-Su 07:00-24:00"
        },
        "payment": {
          "cards": "no",
          "contactless": "yes",
          "girocard": "yes"
        }
      }
    },
    {
      "type": "Feature",
      "geometry": {
        "type": "Point",
        "coordinates": [
          9.9527384,
          52.1551276
        ]
      },
      "properties": {
        "id": "tk_hi_osm_n10980298777",
        "name": "City Markt",
        "address": {
          "street": "Wallstraße",
          "number": "20",
          "postalcode": "31134",
          "city": "Hildesheim",
          "district": "Stadtmitte"
        },
        "sources": [
          {
            "type": "osm",
            "id": "node/10980298777",
            "version": 0
          },
          {
            "type": "gmaps",
            "id": "ChIJNSKpT-6vukcRmFKs26p_nc8"
          }
        ],
        "created": "2026-05-21",
        "updated": "2026-06-22",
        "sources_by_field": {
          "name": "osm"
        },
        "apple_id_attempted": "2026-06-24",
        "google_attempted": "2026-06-24",
        "payment": {}
      }
    },
    {
      "type": "Feature",
      "geometry": {
        "type": "Point",
        "coordinates": [
          9.9514468,
          52.1502862
        ]
      },
      "properties": {
        "id": "tk_hi_osm_n11107281032",
        "name": "1001 Nacht",
        "address": {
          "street": "Friesenstraße",
          "number": "1",
          "postalcode": "31134",
          "city": "Hildesheim",
          "district": "Altstadt"
        },
        "sources": [
          {
            "type": "osm",
            "id": "node/11107281032",
            "version": 0
          },
          {
            "type": "gmaps",
            "id": "ChIJbzW9Q6mvukcRrTXcGJOdkIo"
          }
        ],
        "created": "2026-05-21",
        "updated": "2026-06-24",
        "sources_by_field": {
          "name": "osm",
          "hours": "google"
        },
        "apple_id_attempted": "2026-06-24",
        "google_attempted": "2026-06-24",
        "payment": {},
        "hours": {
          "raw": "Tu 12:00-01:00; Th 12:00-01:00; Fr 12:00-04:00; We 12:00-01:00; Mo 12:00-01:00; Sa 12:00-04:00; Su 12:00-01:00"
        }
      }
    },
    {
      "type": "Feature",
      "geometry": {
        "type": "Point",
        "coordinates": [
          9.9548226,
          52.1572466
        ]
      },
      "properties": {
        "id": "tk_hi_osm_n11677239987",
        "name": "HI-Kiosk",
        "address": {
          "street": "Bahnhofsallee",
          "number": "35",
          "postalcode": "31134",
          "city": "Hildesheim"
        },
        "sources": [
          {
            "type": "osm",
            "id": "node/11677239987",
            "version": 0
          },
          {
            "type": "gmaps",
            "id": "ChIJoXZfNMavukcRmueIzCfDW9Y"
          }
        ],
        "created": "2026-05-21",
        "updated": "2026-06-24",
        "sources_by_field": {
          "name": "osm",
          "address.street": "osm",
          "address.number": "osm",
          "address.postalcode": "osm",
          "address.city": "osm",
          "hours": "google"
        },
        "apple_id_attempted": "2026-06-24",
        "google_attempted": "2026-06-24",
        "payment": {
          "cards": "no",
          "contactless": "yes",
          "girocard": "yes"
        },
        "hours": {
          "raw": "Tu 09:00-00:00; Th 09:00-00:00; Fr 09:00-02:00; We 09:00-00:00; Mo 09:00-00:00; Sa 09:00-02:00; Su 09:00-02:00"
        }
      }
    },
    {
      "type": "Feature",
      "geometry": {
        "type": "Point",
        "coordinates": [
          9.9536089,
          52.1562626
        ]
      },
      "properties": {
        "id": "tk_hi_osm_n11684881577",
        "name": "Kiosk Osterstraße",
        "address": {
          "street": "Kaiserstraße",
          "number": "46",
          "postalcode": "31134",
          "city": "Hildesheim",
          "district": "Stadtmitte"
        },
        "sources": [
          {
            "type": "osm",
            "id": "node/11684881577",
            "version": 0
          },
          {
            "type": "apple",
            "id": "7819107219602502836"
          }
        ],
        "created": "2026-05-21",
        "updated": "2026-06-22",
        "sources_by_field": {
          "name": "osm"
        },
        "hours": {
          "raw": "Su 00:00-03:00,09:00-24:00; Mo-Fr 00:00-00:15,08:00-24:00; Sa 00:00-03:00,08:00-24:00"
        },
        "payment": {
          "cards": "yes",
          "contactless": "yes"
        }
      }
    },
    {
      "type": "Feature",
      "geometry": {
        "type": "Point",
        "coordinates": [
          9.9527033,
          52.1584122
        ]
      },
      "properties": {
        "id": "tk_hi_osm_n11687966270",
        "name": "Bahnhof-Kiosk",
        "address": {
          "street": "Bernwardstraße",
          "number": "24",
          "postalcode": "31134",
          "city": "Hildesheim",
          "district": "Stadtmitte"
        },
        "sources": [
          {
            "type": "osm",
            "id": "node/11687966270",
            "version": 0
          },
          {
            "type": "gmaps",
            "id": "ChIJSZwQ8wavukcR_y5p8LCxpBU"
          }
        ],
        "created": "2026-05-21",
        "updated": "2026-06-24",
        "sources_by_field": {
          "name": "osm",
          "hours": "google"
        },
        "apple_id_attempted": "2026-06-24",
        "google_attempted": "2026-06-24",
        "payment": {
          "cards": "no",
          "contactless": "yes",
          "girocard": "yes"
        },
        "hours": {
          "raw": "Tu 09:00-23:00; Th 09:00-23:00; Fr 09:00-02:00; We 09:00-23:00; Mo 09:00-23:00; Sa 09:00-02:00; Su 09:00-23:00"
        }
      }
    },
    {
      "type": "Feature",
      "geometry": {
        "type": "Point",
        "coordinates": [
          9.9515698,
          52.160967
        ]
      },
      "properties": {
        "id": "tk_hi_osm_n12047071587",
        "name": "Loko Kiosk",
        "address": {
          "street": "Peiner Straße",
          "number": "20",
          "postalcode": "31137",
          "city": "Hildesheim",
          "district": "Nordstadt"
        },
        "sources": [
          {
            "type": "osm",
            "id": "node/12047071587",
            "version": 0
          },
          {
            "type": "gmaps",
            "id": "payment"
          },
          {
            "type": "apple",
            "id": "1533469164678797225"
          }
        ],
        "created": "2026-05-21",
        "updated": "2026-06-22",
        "hours": {
          "raw": "Mo-Sa 10:00-24:00; Su,PH 11:00-24:00"
        },
        "sources_by_field": {
          "name": "osm",
          "hours": "osm"
        },
        "payment": {
          "cards": "no",
          "contactless": "yes",
          "girocard": "yes"
        }
      }
    },
    {
      "type": "Feature",
      "geometry": {
        "type": "Point",
        "coordinates": [
          9.9416453,
          52.149586
        ]
      },
      "properties": {
        "id": "tk_hi_osm_n12157173171",
        "name": "Royal Kiosk",
        "address": {
          "street": "Dammstraße",
          "number": "28",
          "postalcode": "31134",
          "city": "Hildesheim",
          "district": "Altstadt"
        },
        "sources": [
          {
            "type": "osm",
            "id": "node/12157173171",
            "version": 0
          },
          {
            "type": "gmaps",
            "id": "payment"
          }
        ],
        "created": "2026-05-21",
        "updated": "2026-06-22",
        "hours": {
          "raw": "Su-Th 10:00-22:00; Fr,Sa 10:00-23:00"
        },
        "sources_by_field": {
          "name": "osm",
          "hours": "osm"
        },
        "apple_id_attempted": "2026-06-24",
        "payment": {
          "cards": "no",
          "contactless": "yes",
          "girocard": "yes"
        }
      }
    },
    {
      "type": "Feature",
      "geometry": {
        "type": "Point",
        "coordinates": [
          9.9612374,
          52.1511402
        ]
      },
      "properties": {
        "id": "tk_hi_osm_n12345528501",
        "name": "Kiosk Steingrube",
        "address": {
          "street": "Luisenstraße",
          "number": "6",
          "postalcode": "31141"
        },
        "sources": [
          {
            "type": "osm",
            "id": "node/12345528501",
            "version": 0
          },
          {
            "type": "gmaps",
            "id": "payment"
          },
          {
            "type": "apple",
            "id": "4756630593335199415"
          }
        ],
        "created": "2026-05-21",
        "updated": "2026-06-22",
        "hours": {
          "raw": "Mo-Su 09:00-00:00"
        },
        "sources_by_field": {
          "name": "osm",
          "address.street": "osm",
          "address.number": "osm",
          "address.postalcode": "osm",
          "hours": "osm"
        },
        "payment": {
          "cards": "no",
          "contactless": "yes",
          "girocard": "yes"
        }
      }
    },
    {
      "type": "Feature",
      "geometry": {
        "type": "Point",
        "coordinates": [
          9.8508757,
          52.0540832
        ]
      },
      "properties": {
        "id": "tk_hi_osm_n12410046654",
        "name": "Rudolf Brandes",
        "address": {
          "street": "Eberholzer Hauptstraße",
          "number": "30",
          "postalcode": "31079",
          "city": "Sibbesse"
        },
        "sources": [
          {
            "type": "osm",
            "id": "node/12410046654",
            "version": 0
          },
          {
            "type": "gmaps",
            "id": "ChIJgecY7BK6ukcRcuNH7U6pss4"
          }
        ],
        "created": "2026-05-21",
        "updated": "2026-06-22",
        "sources_by_field": {
          "name": "osm",
          "address.street": "osm",
          "address.number": "osm",
          "address.postalcode": "osm",
          "address.city": "osm"
        },
        "apple_id_attempted": "2026-06-24",
        "google_attempted": "2026-06-24",
        "payment": {}
      }
    },
    {
      "type": "Feature",
      "geometry": {
        "type": "Point",
        "coordinates": [
          9.9073366,
          52.1271469
        ]
      },
      "properties": {
        "id": "tk_hi_osm_n13508525642",
        "name": "Späti Neuhof",
        "address": {
          "street": "Trockener Kamp",
          "number": "8",
          "postalcode": "31139",
          "city": "Hildesheim"
        },
        "sources": [
          {
            "type": "osm",
            "id": "node/13508525642",
            "version": 0
          },
          {
            "type": "gmaps",
            "id": "payment"
          },
          {
            "type": "apple",
            "id": "16378356492978512650"
          }
        ],
        "created": "2026-05-21",
        "updated": "2026-06-22",
        "hours": {
          "raw": "Mo.-Do 9:00-22:00, Fr-Sa 9:00-23:00, So 9:00 -21:00"
        },
        "sources_by_field": {
          "name": "osm",
          "address.street": "osm",
          "address.number": "osm",
          "address.postalcode": "osm",
          "address.city": "osm",
          "hours": "osm"
        },
        "payment": {
          "cards": "no",
          "contactless": "yes",
          "girocard": "yes"
        }
      }
    },
    {
      "type": "Feature",
      "geometry": {
        "type": "Point",
        "coordinates": [
          9.9571761,
          52.1545366
        ]
      },
      "properties": {
        "id": "tk_hi_osm_n13788038537",
        "name": "A&K Kiosk",
        "address": {
          "street": "Zingel",
          "number": "24",
          "postalcode": "31134",
          "city": "Hildesheim"
        },
        "sources": [
          {
            "type": "osm",
            "id": "node/13788038537",
            "version": 0
          },
          {
            "type": "apple",
            "id": "16201340173481667914"
          }
        ],
        "created": "2026-05-21",
        "updated": "2026-06-22",
        "sources_by_field": {
          "name": "osm",
          "address.street": "osm",
          "address.number": "osm",
          "address.postalcode": "osm",
          "address.city": "osm"
        },
        "hours": {
          "raw": "Su 00:00-02:00,10:00-24:00; Mo-Tu,Th-Fr 08:00-24:00; We 07:00-23:00; Sa 00:00-02:00,08:00-24:00"
        },
        "payment": {
          "cards": "yes",
          "contactless": "yes"
        }
      }
    },
    {
      "type": "Feature",
      "geometry": {
        "type": "Point",
        "coordinates": [
          9.9453653,
          52.1630018
        ]
      },
      "properties": {
        "id": "tk_hi_osm_n1512522362",
        "name": "Samson's Einkaufsmarkt",
        "address": {
          "street": "Steuerwalder Straße",
          "number": "43",
          "postalcode": "31137",
          "city": "Hildesheim"
        },
        "sources": [
          {
            "type": "osm",
            "id": "node/1512522362",
            "version": 0
          },
          {
            "type": "gmaps",
            "id": "ChIJS_w09g6vukcRWv0xNvGP6jE"
          }
        ],
        "created": "2026-05-21",
        "updated": "2026-06-22",
        "sources_by_field": {
          "name": "osm",
          "address.street": "osm",
          "address.number": "osm",
          "address.postalcode": "osm",
          "address.city": "osm"
        },
        "apple_id_attempted": "2026-06-24",
        "google_attempted": "2026-06-24",
        "payment": {}
      }
    },
    {
      "type": "Feature",
      "geometry": {
        "type": "Point",
        "coordinates": [
          9.9523862,
          52.1629284
        ]
      },
      "properties": {
        "id": "tk_hi_osm_n1597758069",
        "name": "Nordstadtbüdchen",
        "address": {
          "street": "Peiner Straße",
          "number": "47",
          "postalcode": "31137",
          "city": "Hildesheim",
          "district": "Nordstadt"
        },
        "sources": [
          {
            "type": "osm",
            "id": "node/1597758069",
            "version": 0
          },
          {
            "type": "apple",
            "id": "1938349258812509500"
          }
        ],
        "created": "2026-05-21",
        "updated": "2026-06-22",
        "sources_by_field": {
          "name": "osm"
        },
        "hours": {
          "raw": "Mo-Th 06:00-22:30; Fr 06:00-23:30; Sa 08:00-23:30; Su 08:00-22:30"
        },
        "payment": {
          "cards": "yes",
          "contactless": "yes"
        }
      }
    },
    {
      "type": "Feature",
      "geometry": {
        "type": "Point",
        "coordinates": [
          9.9443281,
          52.151427
        ]
      },
      "properties": {
        "id": "tk_hi_osm_n1684921108",
        "name": "C & M",
        "address": {
          "street": "Alter Markt",
          "number": "16",
          "postalcode": "31134",
          "city": "Hildesheim",
          "district": "Altstadt"
        },
        "sources": [
          {
            "type": "osm",
            "id": "node/1684921108",
            "version": 0
          },
          {
            "type": "gmaps",
            "id": "ChIJBTpCXa2vukcRMavADMflYBI"
          }
        ],
        "created": "2026-05-21",
        "updated": "2026-06-24",
        "hours": {
          "raw": "Tu 07:00-21:30; Th 07:00-21:30; Fr 07:00-21:30; We 07:00-21:30; Mo 08:30-21:30; Sa 09:00-21:30; Su 09:00-21:30"
        },
        "sources_by_field": {
          "name": "osm",
          "hours": "google"
        },
        "apple_id_attempted": "2026-06-24",
        "google_attempted": "2026-06-24",
        "payment": {}
      }
    },
    {
      "type": "Feature",
      "geometry": {
        "type": "Point",
        "coordinates": [
          9.9594987,
          52.1395709
        ]
      },
      "properties": {
        "id": "tk_hi_osm_n2465516633",
        "name": "Sydra's Kiosk",
        "address": {
          "street": "Wiesenstraße",
          "number": "20",
          "postalcode": "31134",
          "city": "Hildesheim",
          "district": "Neustadt"
        },
        "sources": [
          {
            "type": "osm",
            "id": "node/2465516633",
            "version": 0
          },
          {
            "type": "gmaps",
            "id": "payment"
          }
        ],
        "created": "2026-05-21",
        "updated": "2026-06-22",
        "hours": {
          "raw": "Mo-Su 07:00-22:00"
        },
        "sources_by_field": {
          "name": "osm",
          "hours": "osm"
        },
        "apple_id_attempted": "2026-06-24",
        "payment": {
          "contactless": "yes"
        }
      }
    },
    {
      "type": "Feature",
      "geometry": {
        "type": "Point",
        "coordinates": [
          9.9671122,
          52.1376359
        ]
      },
      "properties": {
        "id": "tk_hi_osm_n276765717",
        "name": "Klara's Kiosk",
        "address": {
          "street": "Lüneburger Straße",
          "number": "1",
          "postalcode": "31141",
          "city": "Hildesheim",
          "district": "Marienburger Höhe"
        },
        "sources": [
          {
            "type": "osm",
            "id": "node/276765717",
            "version": 0
          },
          {
            "type": "gmaps",
            "id": "ChIJBaHmLk-uukcRj3o8STFk73I"
          }
        ],
        "created": "2026-05-21",
        "updated": "2026-06-22",
        "hours": {
          "raw": "Mo-Th 06:00-21:00; Fr 06:00-22:00; Sa 07:00-22:00; Su 08:00-22:00"
        },
        "tags": [
          "barrierefrei"
        ],
        "sources_by_field": {
          "name": "osm",
          "hours": "osm"
        },
        "apple_id_attempted": "2026-06-24",
        "google_attempted": "2026-05-22",
        "payment": {
          "cards": "yes"
        }
      }
    },
    {
      "type": "Feature",
      "geometry": {
        "type": "Point",
        "coordinates": [
          9.9535374,
          52.1505611
        ]
      },
      "properties": {
        "id": "tk_hi_osm_n2834148102",
        "name": "Koschum Tabakwaren",
        "address": {
          "street": "Schuhstraße",
          "number": "49",
          "postalcode": "31134",
          "city": "Hildesheim",
          "district": "Stadtmitte"
        },
        "sources": [
          {
            "type": "osm",
            "id": "node/2834148102",
            "version": 0
          },
          {
            "type": "gmaps",
            "id": "payment"
          }
        ],
        "created": "2026-05-21",
        "updated": "2026-06-22",
        "sources_by_field": {
          "name": "osm"
        },
        "apple_id_attempted": "2026-06-24",
        "google_attempted": "2026-06-24",
        "payment": {
          "cards": "yes",
          "contactless": "yes",
          "girocard": "yes"
        }
      }
    },
    {
      "type": "Feature",
      "geometry": {
        "type": "Point",
        "coordinates": [
          9.9549517,
          52.1535413
        ]
      },
      "properties": {
        "id": "tk_hi_osm_n3126145929",
        "name": "Kiosk 46",
        "address": {
          "street": "Osterstraße",
          "number": "46",
          "postalcode": "31134",
          "city": "Hildesheim"
        },
        "sources": [
          {
            "type": "osm",
            "id": "node/3126145929",
            "version": 0
          },
          {
            "type": "gmaps",
            "id": "ChIJe70NaaevukcRxuDWOq_dyeM"
          }
        ],
        "created": "2026-05-21",
        "updated": "2026-06-24",
        "sources_by_field": {
          "name": "osm",
          "address.street": "osm",
          "address.number": "osm",
          "address.postalcode": "osm",
          "address.city": "osm",
          "hours": "google"
        },
        "apple_id_attempted": "2026-06-24",
        "google_attempted": "2026-06-24",
        "payment": {},
        "hours": {
          "raw": "Tu 08:00-00:00; Th 08:00-00:00; Fr 08:00-00:00; We 08:00-00:00; Mo 08:00-00:00; Sa 08:00-18:00; Su 08:00-18:00"
        }
      }
    },
    {
      "type": "Feature",
      "geometry": {
        "type": "Point",
        "coordinates": [
          9.9376654,
          52.1492013
        ]
      },
      "properties": {
        "id": "tk_hi_osm_n330030009",
        "name": "Kiosk am Dammtor",
        "address": {
          "street": "Bergsteinweg",
          "postalcode": "31137",
          "city": "Hildesheim",
          "district": "Moritzberg"
        },
        "sources": [
          {
            "type": "osm",
            "id": "node/330030009",
            "version": 0
          },
          {
            "type": "gmaps",
            "id": "payment"
          },
          {
            "type": "apple",
            "id": "6197567864119392374"
          }
        ],
        "created": "2026-05-21",
        "updated": "2026-06-22",
        "tags": [
          "barrierefrei"
        ],
        "sources_by_field": {
          "name": "osm"
        },
        "hours": {
          "raw": "Su 09:30-22:00; Mo-Th 06:30-23:00; Fr 06:30-23:59; Sa 09:15-23:59"
        },
        "payment": {
          "cards": "no",
          "contactless": "yes",
          "girocard": "yes"
        }
      }
    },
    {
      "type": "Feature",
      "geometry": {
        "type": "Point",
        "coordinates": [
          9.9521696,
          52.1594569
        ]
      },
      "properties": {
        "id": "tk_hi_osm_n4231136590",
        "name": "Jonas Tabak",
        "address": {
          "street": "Bahnhofsplatz",
          "postalcode": "31134",
          "city": "Hildesheim",
          "district": "Stadtmitte"
        },
        "sources": [
          {
            "type": "osm",
            "id": "node/4231136590",
            "version": 0
          },
          {
            "type": "gmaps",
            "id": "payment"
          }
        ],
        "created": "2026-05-21",
        "updated": "2026-06-22",
        "hours": {
          "raw": "Mo-Fr 06:00-20:00; Sa,Su 08:00-20:00"
        },
        "sources_by_field": {
          "name": "osm",
          "hours": "osm"
        },
        "apple_id_attempted": "2026-06-24",
        "payment": {
          "cards": "no",
          "contactless": "yes",
          "girocard": "yes"
        }
      }
    },
    {
      "type": "Feature",
      "geometry": {
        "type": "Point",
        "coordinates": [
          9.9634893,
          52.1527015
        ]
      },
      "properties": {
        "id": "tk_hi_osm_n4338075389",
        "name": "Kiosk",
        "address": {
          "street": "Steingrube",
          "number": "18",
          "postalcode": "31141",
          "city": "Hildesheim"
        },
        "sources": [
          {
            "type": "osm",
            "id": "node/4338075389",
            "version": 0
          },
          {
            "type": "gmaps",
            "id": "payment"
          }
        ],
        "created": "2026-05-21",
        "updated": "2026-06-22",
        "sources_by_field": {
          "name": "osm",
          "address.street": "osm",
          "address.number": "osm",
          "address.postalcode": "osm",
          "address.city": "osm"
        },
        "apple_id_attempted": "2026-06-24",
        "google_attempted": "2026-06-24",
        "payment": {
          "cards": "no",
          "contactless": "yes",
          "girocard": "yes"
        }
      }
    },
    {
      "type": "Feature",
      "geometry": {
        "type": "Point",
        "coordinates": [
          9.9169221,
          52.1630599
        ]
      },
      "properties": {
        "id": "tk_hi_osm_n4965672548",
        "name": "King Kiosk",
        "address": {
          "street": "An der Pauluskirche",
          "number": "6",
          "postalcode": "31137",
          "city": "Hildesheim",
          "district": "Himmelsthür"
        },
        "sources": [
          {
            "type": "osm",
            "id": "node/4965672548",
            "version": 0
          },
          {
            "type": "gmaps",
            "id": "ChIJU0_-cWOvukcRhZuowM0jtzI"
          }
        ],
        "created": "2026-05-21",
        "updated": "2026-06-24",
        "sources_by_field": {
          "name": "osm",
          "hours": "google"
        },
        "apple_id_attempted": "2026-06-24",
        "google_attempted": "2026-06-24",
        "payment": {},
        "hours": {
          "raw": "Tu 08:00-22:00; Th 08:00-22:00; Fr 08:00-23:00; We 08:00-22:00; Mo 08:00-22:00; Sa 08:00-23:00; Su 09:00-22:00"
        }
      }
    },
    {
      "type": "Feature",
      "geometry": {
        "type": "Point",
        "coordinates": [
          9.8702711,
          52.2348211
        ]
      },
      "properties": {
        "id": "tk_hi_osm_n5035216164",
        "name": "JET",
        "address": {
          "street": "Hildesheimer Straße",
          "number": "114a",
          "postalcode": "31157",
          "city": "Sarstedt"
        },
        "sources": [
          {
            "type": "osm",
            "id": "node/5035216164",
            "version": 0
          },
          {
            "type": "gmaps",
            "id": "payment"
          }
        ],
        "created": "2026-05-21",
        "updated": "2026-06-22",
        "hours": {
          "raw": "Mo-Su 06:00-22:00"
        },
        "tags": [
          "barrierefrei"
        ],
        "sources_by_field": {
          "name": "osm",
          "address.street": "osm",
          "address.number": "osm",
          "address.postalcode": "osm",
          "address.city": "osm",
          "hours": "osm"
        },
        "apple_id_attempted": "2026-06-24",
        "payment": {
          "cards": "no",
          "contactless": "yes",
          "girocard": "yes"
        }
      }
    },
    {
      "type": "Feature",
      "geometry": {
        "type": "Point",
        "coordinates": [
          9.9558191,
          52.1601513
        ]
      },
      "properties": {
        "id": "tk_hi_osm_n7888039477",
        "name": "Kiosk Buterborn",
        "address": {
          "street": "Butterborn",
          "number": "11",
          "postalcode": "31134",
          "city": "Hildesheim"
        },
        "sources": [
          {
            "type": "osm",
            "id": "node/7888039477",
            "version": 0
          },
          {
            "type": "apple",
            "id": "18214535649793023692"
          }
        ],
        "created": "2026-05-21",
        "updated": "2026-06-22",
        "hours": {
          "raw": "Mo-Sa 06:00-23:59; Su 09:00-23:00"
        },
        "sources_by_field": {
          "name": "osm",
          "address.street": "osm",
          "address.number": "osm",
          "address.postalcode": "osm",
          "address.city": "osm",
          "hours": "osm",
          "payment.cards": "apple",
          "payment.contactless": "apple"
        },
        "apple_attempted": "2026-05-25",
        "payment": {
          "cards": "yes",
          "contactless": "yes"
        }
      }
    },
    {
      "type": "Feature",
      "geometry": {
        "type": "Point",
        "coordinates": [
          9.915652,
          52.2034883
        ]
      },
      "properties": {
        "id": "tk_hi_osm_n8004334765",
        "name": "Rewe",
        "address": {
          "street": "Vor dem Kampe",
          "number": "1",
          "city": "Giesen",
          "district": "Hasede"
        },
        "sources": [
          {
            "type": "osm",
            "id": "node/8004334765",
            "version": 0
          },
          {
            "type": "gmaps",
            "id": "payment"
          }
        ],
        "created": "2026-05-21",
        "updated": "2026-06-15",
        "hours": {
          "raw": "Mo-Sa 07:00-22:00"
        },
        "tags": [
          "barrierefrei"
        ],
        "sources_by_field": {
          "name": "osm",
          "address.street": "osm",
          "address.number": "osm",
          "address.city": "osm",
          "address.district": "osm",
          "hours": "osm"
        },
        "apple_id_attempted": "2026-06-24",
        "payment": {
          "cards": "yes",
          "contactless": "yes",
          "girocard": "yes"
        }
      }
    },
    {
      "type": "Feature",
      "geometry": {
        "type": "Point",
        "coordinates": [
          10.0330346,
          52.0827905
        ]
      },
      "properties": {
        "id": "tk_hi_osm_n8211269570",
        "name": "Schau rein bei Steigi",
        "address": {
          "street": "Büntestraße",
          "number": "2",
          "postalcode": "31162",
          "city": "Bad Salzdetfurth",
          "district": "Wesseln"
        },
        "sources": [
          {
            "type": "osm",
            "id": "node/8211269570",
            "version": 0
          },
          {
            "type": "apple",
            "id": "16433566047329133231"
          }
        ],
        "created": "2026-05-21",
        "updated": "2026-06-22",
        "sources_by_field": {
          "name": "osm",
          "hours": "apple"
        },
        "apple_attempted": "2026-06-24",
        "google_attempted": "2026-06-24",
        "hours": {
          "raw": "Mo-Fr 07:30-12:00,16:00-18:00; Sa 07:30-12:00"
        },
        "payment": {}
      }
    },
    {
      "type": "Feature",
      "geometry": {
        "type": "Point",
        "coordinates": [
          9.9610361,
          52.155777
        ]
      },
      "properties": {
        "id": "tk_hi_osm_n8588289130",
        "name": "Selins Kiosk",
        "address": {
          "street": "Katharinenstraße",
          "number": "43",
          "postalcode": "31135",
          "city": "Hildesheim"
        },
        "sources": [
          {
            "type": "osm",
            "id": "node/8588289130",
            "version": 0
          },
          {
            "type": "apple",
            "id": "2646484451003145457"
          }
        ],
        "created": "2026-05-21",
        "updated": "2026-06-22",
        "sources_by_field": {
          "name": "osm",
          "address.street": "osm",
          "address.number": "osm",
          "address.postalcode": "osm",
          "address.city": "osm"
        },
        "hours": {
          "raw": "Mo-Th,Su 08:00-22:00; Fr-Sa 08:00-23:00"
        },
        "payment": {
          "cards": "yes",
          "contactless": "yes"
        }
      }
    },
    {
      "type": "Feature",
      "geometry": {
        "type": "Point",
        "coordinates": [
          9.9495282,
          52.1598218
        ]
      },
      "properties": {
        "id": "tk_hi_osm_n1121251554",
        "name": "Tabakwaren Cansu",
        "address": {
          "street": "Steuerwalder Straße",
          "number": "2",
          "postalcode": "31137",
          "city": "Hildesheim"
        },
        "sources": [
          {
            "type": "osm",
            "id": "node/1121251554",
            "version": 0
          }
        ],
        "created": "2026-05-21",
        "updated": "2026-06-22",
        "hours": {
          "raw": "Mo-Th 09:00-22:00; Fr 09:00-24:00; Sa 10:00-24:00; PH,Su 10:00-22:00"
        },
        "sources_by_field": {
          "name": "osm",
          "address.street": "osm",
          "address.number": "osm",
          "address.postalcode": "osm",
          "address.city": "osm",
          "hours": "osm"
        },
        "apple_id_attempted": "2026-06-24",
        "google_attempted": "2026-06-24",
        "payment": {}
      }
    },
    {
      "type": "Feature",
      "geometry": {
        "type": "Point",
        "coordinates": [
          9.9485745,
          52.1535354
        ]
      },
      "properties": {
        "id": "tk_hi_osm_n1147188198",
        "name": "Kiosk Lale",
        "address": {
          "street": "Kurzer Hagen",
          "number": "12a",
          "postalcode": "31134",
          "city": "Hildesheim"
        },
        "sources": [
          {
            "type": "osm",
            "id": "node/1147188198",
            "version": 0
          }
        ],
        "created": "2026-05-21",
        "updated": "2026-06-22",
        "sources_by_field": {
          "name": "osm",
          "address.street": "osm",
          "address.number": "osm",
          "address.postalcode": "osm",
          "address.city": "osm"
        },
        "apple_id_attempted": "2026-06-24",
        "google_attempted": "2026-06-24",
        "payment": {}
      }
    },
    {
      "type": "Feature",
      "geometry": {
        "type": "Point",
        "coordinates": [
          9.9645315,
          52.2088034
        ]
      },
      "properties": {
        "id": "tk_hi_osm_n11757232996",
        "name": "Karam Kiosk",
        "address": {},
        "sources": [
          {
            "type": "osm",
            "id": "node/11757232996",
            "version": 0
          },
          {
            "type": "gmaps",
            "id": "ChIJE_iKYQCpukcRdrJ8_B1sNZA"
          }
        ],
        "created": "2026-05-21",
        "updated": "2026-06-24",
        "hours": {
          "raw": "Tu 10:00-22:00; Th 10:00-22:00; Fr 10:00-22:00; We 10:00-22:00; Mo 10:00-22:00; Sa 10:00-22:00; Su 10:00-22:00"
        },
        "tags": [
          "barrierefrei"
        ],
        "sources_by_field": {
          "name": "osm",
          "hours": "google"
        },
        "apple_id_attempted": "2026-06-24",
        "google_attempted": "2026-06-24",
        "payment": {}
      }
    },
    {
      "type": "Feature",
      "geometry": {
        "type": "Point",
        "coordinates": [
          9.9574348,
          52.1517881
        ]
      },
      "properties": {
        "id": "tk_hi_osm_n258644523",
        "name": "Kleines Lädchen",
        "address": {},
        "sources": [
          {
            "type": "osm",
            "id": "node/258644523",
            "version": 0
          }
        ],
        "created": "2026-05-21",
        "updated": "2026-06-22",
        "hours": {
          "raw": "Mo-Sa 08:00-13:00,15:00-20:30; Su 08:00-13:00,16:00-20:00"
        },
        "sources_by_field": {
          "name": "osm",
          "hours": "osm"
        },
        "apple_id_attempted": "2026-06-24",
        "google_attempted": "2026-06-24",
        "payment": {}
      }
    },
    {
      "type": "Feature",
      "geometry": {
        "type": "Point",
        "coordinates": [
          9.9518605,
          52.150905
        ]
      },
      "properties": {
        "id": "tk_hi_osm_n2834223120",
        "name": "Neddermeyer Tabakwaren",
        "address": {},
        "sources": [
          {
            "type": "osm",
            "id": "node/2834223120",
            "version": 0
          }
        ],
        "created": "2026-05-21",
        "updated": "2026-06-22",
        "hours": {
          "raw": "Mo-Fr 08:00-18:30; Sa 08:00-15:30"
        },
        "payment": {
          "cash": "unknown",
          "cards": "yes",
          "contactless": "unknown",
          "girocard": "unknown"
        },
        "tags": [
          "barrierefrei"
        ],
        "sources_by_field": {
          "name": "osm",
          "hours": "osm",
          "payment.cash": "osm",
          "payment.cards": "osm",
          "payment.contactless": "osm",
          "payment.girocard": "osm"
        },
        "apple_id_attempted": "2026-06-24"
      }
    },
    {
      "type": "Feature",
      "geometry": {
        "type": "Point",
        "coordinates": [
          9.9643263,
          52.1553165
        ]
      },
      "properties": {
        "id": "tk_hi_osm_n4329381189",
        "name": "Kiosk 23",
        "address": {
          "street": "Einumer Straße",
          "number": "23",
          "postalcode": "31135",
          "city": "Hildesheim"
        },
        "sources": [
          {
            "type": "osm",
            "id": "node/4329381189",
            "version": 0
          }
        ],
        "created": "2026-05-21",
        "updated": "2026-06-22",
        "hours": {
          "raw": "Mo-Su 08:00-21:00"
        },
        "sources_by_field": {
          "name": "osm",
          "address.street": "osm",
          "address.number": "osm",
          "address.postalcode": "osm",
          "address.city": "osm",
          "hours": "osm"
        },
        "apple_id_attempted": "2026-06-24",
        "google_attempted": "2026-06-24",
        "payment": {}
      }
    },
    {
      "type": "Feature",
      "geometry": {
        "type": "Point",
        "coordinates": [
          9.963164,
          52.1551907
        ]
      },
      "properties": {
        "id": "tk_hi_osm_n4358743089",
        "name": "Toto Lotto Roth",
        "address": {
          "street": "Einumer Straße",
          "number": "18",
          "postalcode": "31135",
          "city": "Hildesheim"
        },
        "sources": [
          {
            "type": "osm",
            "id": "node/4358743089",
            "version": 0
          }
        ],
        "created": "2026-05-21",
        "updated": "2026-06-22",
        "tags": [
          "barrierefrei"
        ],
        "sources_by_field": {
          "name": "osm",
          "address.street": "osm",
          "address.number": "osm",
          "address.postalcode": "osm",
          "address.city": "osm"
        },
        "apple_id_attempted": "2026-06-24",
        "google_attempted": "2026-06-24",
        "payment": {}
      }
    },
    {
      "type": "Feature",
      "geometry": {
        "type": "Point",
        "coordinates": [
          9.8584027,
          52.2356266
        ]
      },
      "properties": {
        "id": "tk_hi_osm_n933285224",
        "name": "Kiosk",
        "address": {},
        "sources": [
          {
            "type": "osm",
            "id": "node/933285224",
            "version": 0
          }
        ],
        "created": "2026-05-21",
        "updated": "2026-06-22",
        "sources_by_field": {
          "name": "osm"
        },
        "apple_id_attempted": "2026-06-24",
        "google_attempted": "2026-06-24",
        "payment": {}
      }
    }
  ]
}
