{
  "type": "FeatureCollection",
  "features": [
    {
      "type": "Feature",
      "geometry": {
        "type": "Point",
        "coordinates": [
          8.0267078,
          52.297229
        ]
      },
      "properties": {
        "id": "tk_os_osm_n10039156335",
        "name": "Hafenkiosk",
        "address": {
          "street": "Am Speicher",
          "number": "1",
          "postalcode": "49090",
          "city": "Osnabrück",
          "district": "Hafen"
        },
        "sources": [
          {
            "type": "osm",
            "id": "node/10039156335",
            "version": 0
          },
          {
            "type": "gmaps",
            "id": "ChIJO_5ZDAHluUcRt6XXAdYqit0"
          }
        ],
        "created": "2026-05-20",
        "updated": "2026-05-23",
        "payment_attempted": "2026-05-22",
        "apple_id_attempted": "2026-05-23",
        "google_attempted": "2026-05-23"
      }
    },
    {
      "type": "Feature",
      "geometry": {
        "type": "Point",
        "coordinates": [
          8.0437788,
          52.279957
        ]
      },
      "properties": {
        "id": "tk_os_osm_n1014350241",
        "name": "Lotto",
        "address": {
          "street": "Hasestraße",
          "number": "59",
          "postalcode": "49074"
        },
        "sources": [
          {
            "type": "osm",
            "id": "node/1014350241",
            "version": 0
          },
          {
            "type": "gmaps",
            "id": "payment"
          }
        ],
        "created": "2026-05-20",
        "updated": "2026-05-21",
        "hours": {
          "raw": "Mo-Sa 07:00-01:00, Su 12:00-01:00"
        },
        "payment": {
          "cards": "no",
          "girocard": "yes",
          "contactless": "yes"
        },
        "apple_id_attempted": "2026-05-23"
      }
    },
    {
      "type": "Feature",
      "geometry": {
        "type": "Point",
        "coordinates": [
          8.0480734,
          52.2737285
        ]
      },
      "properties": {
        "id": "tk_os_osm_n1014395161",
        "name": "Kiosk Royal",
        "address": {
          "street": "Große Straße",
          "number": "12",
          "postalcode": "49074",
          "city": "Osnabrück",
          "district": "Innenstadt"
        },
        "sources": [
          {
            "type": "osm",
            "id": "node/1014395161",
            "version": 0
          },
          {
            "type": "gmaps",
            "id": "payment"
          },
          {
            "type": "apple",
            "id": "5371802169542238884"
          }
        ],
        "created": "2026-05-20",
        "updated": "2026-05-23",
        "payment": {
          "girocard": "yes",
          "cards": "no",
          "contactless": "yes"
        },
        "hours": {
          "raw": "Su 11:00-20:30; Mo-Th 08:30-20:30; Fr 08:30-24:00; Sa 09:00-24:00"
        }
      }
    },
    {
      "type": "Feature",
      "geometry": {
        "type": "Point",
        "coordinates": [
          8.0626612,
          52.2619048
        ]
      },
      "properties": {
        "id": "tk_os_osm_n10207604038",
        "name": "KIOSK 2 go",
        "address": {
          "street": "Meller Straße",
          "number": "92",
          "postalcode": "49082",
          "city": "Osnabrück",
          "district": "Schölerberg"
        },
        "sources": [
          {
            "type": "osm",
            "id": "node/10207604038",
            "version": 0
          },
          {
            "type": "gmaps",
            "id": "ChIJLcfhXXHluUcR9ZqOh6h4kPw"
          }
        ],
        "created": "2026-05-20",
        "updated": "2026-05-23",
        "payment": {
          "cards": "no",
          "girocard": "yes",
          "contactless": "yes"
        },
        "apple_id_attempted": "2026-05-23",
        "google_attempted": "2026-05-23"
      }
    },
    {
      "type": "Feature",
      "geometry": {
        "type": "Point",
        "coordinates": [
          8.0168212,
          52.2950793
        ]
      },
      "properties": {
        "id": "tk_os_osm_n1036418215",
        "name": "Getränke Hoffmann",
        "address": {
          "street": "Pagenstecherstraße",
          "number": "142",
          "postalcode": "49090",
          "city": "Osnabrück"
        },
        "sources": [
          {
            "type": "osm",
            "id": "node/1036418215",
            "version": 0
          },
          {
            "type": "gmaps",
            "id": "payment"
          }
        ],
        "created": "2026-05-20",
        "updated": "2026-05-21",
        "hours": {
          "raw": "Mo-Fr 09:00-19:00; Sa 09:00-18:00"
        },
        "payment": {
          "cards": "no",
          "girocard": "yes",
          "contactless": "yes"
        },
        "apple_id_attempted": "2026-05-23"
      }
    },
    {
      "type": "Feature",
      "geometry": {
        "type": "Point",
        "coordinates": [
          8.0312534,
          52.2745652
        ]
      },
      "properties": {
        "id": "tk_os_osm_n1036511372",
        "name": "Day'N'Night",
        "address": {
          "street": "Lotter Straße",
          "number": "31",
          "postalcode": "49078",
          "city": "Osnabrück",
          "district": "Westerberg"
        },
        "sources": [
          {
            "type": "osm",
            "id": "node/1036511372",
            "version": 0
          },
          {
            "type": "gmaps",
            "id": "ChIJ9YIQGADluUcRT1CNSIWSICk"
          }
        ],
        "created": "2026-05-20",
        "updated": "2026-05-23",
        "hours": {
          "raw": "24/7"
        },
        "payment_attempted": "2026-05-22",
        "apple_id_attempted": "2026-05-23",
        "google_attempted": "2026-05-23"
      }
    },
    {
      "type": "Feature",
      "geometry": {
        "type": "Point",
        "coordinates": [
          8.0449836,
          52.2743699
        ]
      },
      "properties": {
        "id": "tk_os_osm_n1141742174",
        "name": "Presse-Center / Raucheroase",
        "address": {
          "street": "Jürgensort",
          "number": "7",
          "postalcode": "49074",
          "city": "Osnabrück"
        },
        "sources": [
          {
            "type": "osm",
            "id": "node/1141742174",
            "version": 0
          },
          {
            "type": "gmaps",
            "id": "payment"
          }
        ],
        "created": "2026-05-20",
        "updated": "2026-05-21",
        "hours": {
          "raw": "Mo-Fr 08:30-18:30; Sa 08:30-19:00"
        },
        "tags": [
          "barrierefrei"
        ],
        "payment": {
          "cards": "yes",
          "girocard": "yes",
          "contactless": "yes"
        },
        "apple_id_attempted": "2026-05-23"
      }
    },
    {
      "type": "Feature",
      "geometry": {
        "type": "Point",
        "coordinates": [
          8.0974485,
          52.2544819
        ]
      },
      "properties": {
        "id": "tk_os_osm_n12049666472",
        "name": "Steinkämper Kiosk und Touristik",
        "address": {
          "street": "An der Spitze",
          "postalcode": "49086",
          "city": "Osnabrück",
          "number": "5",
          "district": "Voxtrup"
        },
        "sources": [
          {
            "type": "osm",
            "id": "node/12049666472",
            "version": 0
          },
          {
            "type": "gmaps",
            "id": "payment"
          },
          {
            "type": "apple",
            "id": "11618104592667654174"
          }
        ],
        "created": "2026-05-20",
        "updated": "2026-05-23",
        "payment": {
          "girocard": "yes",
          "cards": "yes"
        },
        "hours": {
          "raw": "Mo-Tu,Th 08:30-13:00,14:30-18:00; We 08:30-13:00; Fr 08:30-18:00; Sa 08:30-12:00"
        }
      }
    },
    {
      "type": "Feature",
      "geometry": {
        "type": "Point",
        "coordinates": [
          8.0655554,
          52.205557
        ]
      },
      "properties": {
        "id": "tk_os_osm_n12750328939",
        "name": "Kiosk am Rathaus",
        "address": {
          "street": "Oeseder Straße",
          "number": "76",
          "postalcode": "49124",
          "city": "Georgsmarienhütte",
          "district": "Oesede"
        },
        "sources": [
          {
            "type": "osm",
            "id": "node/12750328939",
            "version": 0
          },
          {
            "type": "gmaps",
            "id": "ChIJaeGPQ3zvuUcRTEvlqZBLay4"
          }
        ],
        "created": "2026-05-20",
        "updated": "2026-05-23",
        "payment": {
          "cards": "no",
          "girocard": "yes",
          "contactless": "yes"
        },
        "apple_id_attempted": "2026-05-23",
        "google_attempted": "2026-05-23"
      }
    },
    {
      "type": "Feature",
      "geometry": {
        "type": "Point",
        "coordinates": [
          8.0479386,
          52.2626643
        ]
      },
      "properties": {
        "id": "tk_os_osm_n1349551091",
        "name": "Getränke Glandorf",
        "address": {
          "street": "Sutthauser Straße",
          "number": "60",
          "postalcode": "49080",
          "city": "Osnabrück"
        },
        "sources": [
          {
            "type": "osm",
            "id": "node/1349551091",
            "version": 0
          },
          {
            "type": "apple",
            "id": "6189614867089792972"
          }
        ],
        "created": "2026-05-20",
        "updated": "2026-05-21",
        "tags": [
          "barrierefrei"
        ],
        "payment_attempted": "2026-05-22",
        "google_attempted": "2026-05-23"
      }
    },
    {
      "type": "Feature",
      "geometry": {
        "type": "Point",
        "coordinates": [
          8.0660324,
          52.2804775
        ]
      },
      "properties": {
        "id": "tk_os_osm_n13619846827",
        "name": "REWE Getränkemarkt",
        "address": {
          "street": "Bohmter Straße",
          "number": "64",
          "postalcode": "49074",
          "city": "Osnabrück",
          "district": "Gartlage"
        },
        "sources": [
          {
            "type": "osm",
            "id": "node/13619846827",
            "version": 0
          },
          {
            "type": "gmaps",
            "id": "ChIJr4KSSADluUcR0Lpk2MaDQGg"
          }
        ],
        "created": "2026-05-20",
        "updated": "2026-05-23",
        "payment": {
          "cards": "yes",
          "girocard": "yes",
          "contactless": "yes"
        },
        "apple_id_attempted": "2026-05-23",
        "google_attempted": "2026-05-23"
      }
    },
    {
      "type": "Feature",
      "geometry": {
        "type": "Point",
        "coordinates": [
          8.0693781,
          52.2498918
        ]
      },
      "properties": {
        "id": "tk_os_osm_n1864048552",
        "name": "Safari-Eck",
        "address": {
          "street": "Klaus-Strick-Weg",
          "number": "12",
          "postalcode": "49082",
          "city": "Osnabrück",
          "district": "Nahne"
        },
        "sources": [
          {
            "type": "osm",
            "id": "node/1864048552",
            "version": 0
          },
          {
            "type": "gmaps",
            "id": "ChIJo9EDy4XvuUcRgs2P13I_lqY"
          }
        ],
        "created": "2026-05-20",
        "updated": "2026-05-23",
        "payment": {
          "girocard": "yes",
          "cards": "no",
          "contactless": "yes"
        },
        "apple_id_attempted": "2026-05-23",
        "google_attempted": "2026-05-23"
      }
    },
    {
      "type": "Feature",
      "geometry": {
        "type": "Point",
        "coordinates": [
          7.9771516,
          52.1929158
        ]
      },
      "properties": {
        "id": "tk_os_osm_n2886022886",
        "name": "Altenhoff",
        "address": {
          "street": "Iburger Straße",
          "number": "20",
          "postalcode": "49170",
          "city": "Hagen am Teutoburger Wald"
        },
        "sources": [
          {
            "type": "osm",
            "id": "node/2886022886",
            "version": 0
          },
          {
            "type": "gmaps",
            "id": "ChIJ9a210k7puUcRhoVE4MWQXS4"
          }
        ],
        "created": "2026-05-20",
        "updated": "2026-05-21",
        "payment": {
          "cards": "yes",
          "girocard": "yes",
          "contactless": "yes"
        },
        "apple_id_attempted": "2026-05-23",
        "google_attempted": "2026-05-23"
      }
    },
    {
      "type": "Feature",
      "geometry": {
        "type": "Point",
        "coordinates": [
          7.9206304,
          52.2107502
        ]
      },
      "properties": {
        "id": "tk_os_osm_n2913417925",
        "name": "Obermeyer",
        "address": {
          "street": "Ziegeleiweg",
          "number": "4"
        },
        "sources": [
          {
            "type": "osm",
            "id": "node/2913417925",
            "version": 0
          },
          {
            "type": "gmaps",
            "id": "ChIJTW7i2rrpuUcRAjjLQTGcpmI"
          }
        ],
        "created": "2026-05-20",
        "updated": "2026-05-21",
        "payment": {
          "cards": "no",
          "girocard": "yes"
        },
        "apple_id_attempted": "2026-05-23",
        "google_attempted": "2026-05-23"
      }
    },
    {
      "type": "Feature",
      "geometry": {
        "type": "Point",
        "coordinates": [
          8.0493535,
          52.2721679
        ]
      },
      "properties": {
        "id": "tk_os_osm_n2991038995",
        "name": "Open End Kiosk",
        "address": {
          "street": "Johannisstraße",
          "number": "56",
          "postalcode": "49074",
          "city": "Osnabrück"
        },
        "sources": [
          {
            "type": "osm",
            "id": "node/2991038995",
            "version": 0
          },
          {
            "type": "gmaps",
            "id": "ChIJs4peVwDluUcRRZBZS_t7eik"
          }
        ],
        "created": "2026-05-20",
        "updated": "2026-05-21",
        "payment": {
          "cards": "yes",
          "girocard": "yes",
          "contactless": "yes"
        },
        "apple_id_attempted": "2026-05-23",
        "google_attempted": "2026-05-23"
      }
    },
    {
      "type": "Feature",
      "geometry": {
        "type": "Point",
        "coordinates": [
          8.047503,
          52.2731033
        ]
      },
      "properties": {
        "id": "tk_os_osm_n308266392",
        "name": "Am Neumarkt",
        "address": {
          "street": "Große Hamkenstraße",
          "number": "21",
          "postalcode": "49074",
          "city": "Osnabrück",
          "district": "Innenstadt"
        },
        "sources": [
          {
            "type": "osm",
            "id": "node/308266392",
            "version": 0
          },
          {
            "type": "gmaps",
            "id": "payment"
          }
        ],
        "created": "2026-05-20",
        "updated": "2026-05-23",
        "hours": {
          "raw": "Mo-Th 11:00-22:00, Fr 12:00-23:00, Sa 12:00-24:00, Su 11:00-22:00"
        },
        "payment": {
          "cards": "no",
          "girocard": "yes",
          "contactless": "yes"
        },
        "apple_id_attempted": "2026-05-23"
      }
    },
    {
      "type": "Feature",
      "geometry": {
        "type": "Point",
        "coordinates": [
          8.0414316,
          52.2771413
        ]
      },
      "properties": {
        "id": "tk_os_osm_n3284120661",
        "name": "Kaufmannsladen",
        "address": {
          "street": "Krahnstraße",
          "number": "58",
          "postalcode": "49074",
          "city": "Osnabrück",
          "district": "Innenstadt"
        },
        "sources": [
          {
            "type": "osm",
            "id": "node/3284120661",
            "version": 0
          },
          {
            "type": "gmaps",
            "id": "payment"
          }
        ],
        "created": "2026-05-20",
        "updated": "2026-05-23",
        "hours": {
          "raw": "Mo-Th 08:00-18:00; Fr 08:00-18:30; Sa 08:00-19:00"
        },
        "tags": [
          "barrierefrei"
        ],
        "payment": {
          "cards": "no",
          "girocard": "yes",
          "contactless": "yes"
        },
        "apple_id_attempted": "2026-05-23"
      }
    },
    {
      "type": "Feature",
      "geometry": {
        "type": "Point",
        "coordinates": [
          8.0059803,
          52.2654592
        ]
      },
      "properties": {
        "id": "tk_os_osm_n3803550785",
        "name": "Lotto Shop Barlage",
        "address": {
          "street": "Kurt-Schumacher-Damm",
          "postalcode": "49078",
          "city": "Osnabrück",
          "district": "Weststadt"
        },
        "sources": [
          {
            "type": "osm",
            "id": "node/3803550785",
            "version": 0
          },
          {
            "type": "apple",
            "id": "18330443555528973445"
          }
        ],
        "created": "2026-05-20",
        "updated": "2026-05-23",
        "payment_attempted": "2026-05-22",
        "payment": {
          "cards": "yes",
          "contactless": "yes",
          "mobile": "yes"
        },
        "hours": {
          "raw": "Mo-Sa 08:00-20:00"
        }
      }
    },
    {
      "type": "Feature",
      "geometry": {
        "type": "Point",
        "coordinates": [
          7.9501118,
          52.301602
        ]
      },
      "properties": {
        "id": "tk_os_osm_n408830044",
        "name": "Shell",
        "address": {
          "street": "Prof.-Porsche-Straße",
          "postalcode": "49076",
          "city": "Osnabrück",
          "number": "1",
          "district": "Atter"
        },
        "sources": [
          {
            "type": "osm",
            "id": "node/408830044",
            "version": 0
          },
          {
            "type": "gmaps",
            "id": "payment"
          }
        ],
        "created": "2026-05-20",
        "updated": "2026-05-23",
        "hours": {
          "raw": "24/7"
        },
        "tags": [
          "barrierefrei"
        ],
        "payment": {
          "cards": "no",
          "girocard": "yes",
          "contactless": "yes"
        },
        "apple_id_attempted": "2026-05-23"
      }
    },
    {
      "type": "Feature",
      "geometry": {
        "type": "Point",
        "coordinates": [
          8.0370124,
          52.2920483
        ]
      },
      "properties": {
        "id": "tk_os_osm_n426868467",
        "name": "Getränke Hoffmann",
        "address": {
          "street": "Bramscher Straße",
          "number": "159",
          "postalcode": "49088",
          "city": "Osnabrück",
          "district": "Sonnenhügel"
        },
        "sources": [
          {
            "type": "osm",
            "id": "node/426868467",
            "version": 0
          },
          {
            "type": "gmaps",
            "id": "payment"
          }
        ],
        "created": "2026-05-20",
        "updated": "2026-05-23",
        "hours": {
          "raw": "Mo-Fr 07:00-20:00; Sa 08:00-19:00"
        },
        "tags": [
          "barrierefrei"
        ],
        "payment": {
          "cards": "no",
          "girocard": "yes",
          "contactless": "yes"
        },
        "apple_id_attempted": "2026-05-23"
      }
    },
    {
      "type": "Feature",
      "geometry": {
        "type": "Point",
        "coordinates": [
          8.0736094,
          52.2499929
        ]
      },
      "properties": {
        "id": "tk_os_osm_n4428819603",
        "name": "Giraffenhütte",
        "address": {
          "street": "Klaus-Strick-Weg",
          "number": "12",
          "postalcode": "49082",
          "city": "Osnabrück",
          "district": "Nahne"
        },
        "sources": [
          {
            "type": "osm",
            "id": "node/4428819603",
            "version": 0
          },
          {
            "type": "apple",
            "id": "16473209713960833182"
          },
          {
            "type": "gmaps",
            "id": "ChIJEcNVsVnvuUcRZ84Y4wdB1EI"
          }
        ],
        "created": "2026-05-20",
        "updated": "2026-05-23",
        "hours": {
          "raw": "PH,Sa,Su 11:00-18:00+"
        },
        "tags": [
          "barrierefrei"
        ],
        "payment_attempted": "2026-05-22",
        "google_attempted": "2026-05-23"
      }
    },
    {
      "type": "Feature",
      "geometry": {
        "type": "Point",
        "coordinates": [
          8.064566,
          52.2455254
        ]
      },
      "properties": {
        "id": "tk_os_osm_n474496313",
        "name": "Marktkauf Getränkemarkt",
        "address": {
          "street": "Im Nahner Feld",
          "number": "10",
          "postalcode": "49082",
          "city": "Osnabrück",
          "district": "Nahne"
        },
        "sources": [
          {
            "type": "osm",
            "id": "node/474496313",
            "version": 0
          },
          {
            "type": "gmaps",
            "id": "payment"
          }
        ],
        "created": "2026-05-20",
        "updated": "2026-05-23",
        "hours": {
          "raw": "Mo-Sa 08:00-20:00; PH off"
        },
        "tags": [
          "barrierefrei"
        ],
        "payment": {
          "cards": "yes",
          "girocard": "yes",
          "contactless": "yes"
        },
        "apple_id_attempted": "2026-05-23"
      }
    },
    {
      "type": "Feature",
      "geometry": {
        "type": "Point",
        "coordinates": [
          8.0656063,
          52.3031386
        ]
      },
      "properties": {
        "id": "tk_os_osm_n474542621",
        "name": "Laschkes Laden",
        "address": {
          "street": "In der Dodesheide",
          "number": "41",
          "postalcode": "49088",
          "city": "Osnabrück",
          "district": "Dodesheide"
        },
        "sources": [
          {
            "type": "osm",
            "id": "node/474542621",
            "version": 0
          },
          {
            "type": "gmaps",
            "id": "ChIJHyJzv1PkuUcRcmoOYDjRDHg"
          }
        ],
        "created": "2026-05-20",
        "updated": "2026-05-23",
        "payment": {
          "cards": "no",
          "girocard": "yes",
          "contactless": "yes"
        },
        "apple_id_attempted": "2026-05-23",
        "google_attempted": "2026-05-23"
      }
    },
    {
      "type": "Feature",
      "geometry": {
        "type": "Point",
        "coordinates": [
          8.0228239,
          52.289796
        ]
      },
      "properties": {
        "id": "tk_os_osm_n516676154",
        "name": "Getränke Schröder",
        "address": {
          "street": "Berghoffstraße",
          "number": "33",
          "postalcode": "49090",
          "city": "Osnabrück"
        },
        "sources": [
          {
            "type": "osm",
            "id": "node/516676154",
            "version": 0
          },
          {
            "type": "gmaps",
            "id": "payment"
          },
          {
            "type": "apple",
            "id": "7938762645948333174"
          }
        ],
        "created": "2026-05-20",
        "updated": "2026-05-21",
        "hours": {
          "raw": "Mo-Fr 08:00-19:00; Sa 08:00-18:00"
        },
        "tags": [
          "barrierefrei"
        ],
        "payment": {
          "cards": "no",
          "girocard": "yes",
          "contactless": "yes"
        }
      }
    },
    {
      "type": "Feature",
      "geometry": {
        "type": "Point",
        "coordinates": [
          8.0372291,
          52.1518682
        ]
      },
      "properties": {
        "id": "tk_os_osm_n5806429593",
        "name": "Getränke Hoffmann",
        "address": {
          "street": "Fuchsbreite",
          "number": "17"
        },
        "sources": [
          {
            "type": "osm",
            "id": "node/5806429593",
            "version": 0
          },
          {
            "type": "gmaps",
            "id": "ChIJNcVUAsrtuUcR3XZk7OswcC4"
          }
        ],
        "created": "2026-05-20",
        "updated": "2026-05-21",
        "payment": {
          "cards": "no",
          "girocard": "yes",
          "contactless": "yes"
        },
        "apple_id_attempted": "2026-05-23",
        "google_attempted": "2026-05-23"
      }
    },
    {
      "type": "Feature",
      "geometry": {
        "type": "Point",
        "coordinates": [
          8.0530863,
          52.2670809
        ]
      },
      "properties": {
        "id": "tk_os_osm_n5941030048",
        "name": "Mr. Kiosk",
        "address": {
          "street": "Johannisstraße",
          "number": "127",
          "postalcode": "49074",
          "city": "Osnabrück"
        },
        "sources": [
          {
            "type": "osm",
            "id": "node/5941030048",
            "version": 0
          },
          {
            "type": "gmaps",
            "id": "payment"
          }
        ],
        "created": "2026-05-20",
        "updated": "2026-05-21",
        "hours": {
          "raw": "Mo-Fr 10:00-23:00; Sa 10:00-24:00; Su 00:00-01:00,10:00-23:00"
        },
        "payment": {
          "girocard": "yes",
          "cards": "no",
          "contactless": "yes"
        },
        "apple_id_attempted": "2026-05-23"
      }
    },
    {
      "type": "Feature",
      "geometry": {
        "type": "Point",
        "coordinates": [
          8.0489818,
          52.2721672
        ]
      },
      "properties": {
        "id": "tk_os_osm_n6634800286",
        "name": "Kiosk 24",
        "address": {
          "street": "Johannisstraße",
          "number": "67",
          "postalcode": "49074",
          "city": "Osnabrück"
        },
        "sources": [
          {
            "type": "osm",
            "id": "node/6634800286",
            "version": 0
          },
          {
            "type": "gmaps",
            "id": "payment"
          }
        ],
        "created": "2026-05-20",
        "updated": "2026-05-21",
        "payment": {
          "cards": "no",
          "girocard": "yes",
          "contactless": "yes"
        },
        "apple_id_attempted": "2026-05-23",
        "google_attempted": "2026-05-23"
      }
    },
    {
      "type": "Feature",
      "geometry": {
        "type": "Point",
        "coordinates": [
          8.0433513,
          52.2786349
        ]
      },
      "properties": {
        "id": "tk_os_osm_n702578028",
        "name": "All2Go",
        "address": {
          "street": "Hasestraße",
          "number": "33"
        },
        "sources": [
          {
            "type": "osm",
            "id": "node/702578028",
            "version": 0
          },
          {
            "type": "gmaps",
            "id": "payment"
          }
        ],
        "created": "2026-05-20",
        "updated": "2026-05-21",
        "hours": {
          "raw": "Tu-Th 09:30-21:00; Fr 09:30-02:00; Sa 10:00-02:00; Su 12:00-21:00"
        },
        "payment": {
          "cards": "no",
          "girocard": "yes",
          "contactless": "yes"
        },
        "apple_id_attempted": "2026-05-23"
      }
    },
    {
      "type": "Feature",
      "geometry": {
        "type": "Point",
        "coordinates": [
          8.0434207,
          52.2800165
        ]
      },
      "properties": {
        "id": "tk_os_osm_n7609653250",
        "name": "Hasespäti",
        "address": {
          "street": "Hasestraße",
          "number": "14"
        },
        "sources": [
          {
            "type": "osm",
            "id": "node/7609653250",
            "version": 0
          },
          {
            "type": "apple",
            "id": "6012151389576383518"
          }
        ],
        "created": "2026-05-20",
        "updated": "2026-05-23",
        "hours": {
          "raw": "Mo-Th 07:00-00:00; Fr-Su 00:00-24:00"
        },
        "tags": [
          "barrierefrei"
        ],
        "payment_attempted": "2026-05-22",
        "payment": {
          "cards": "yes",
          "contactless": "yes",
          "mobile": "yes"
        }
      }
    },
    {
      "type": "Feature",
      "geometry": {
        "type": "Point",
        "coordinates": [
          8.0412367,
          52.2696686
        ]
      },
      "properties": {
        "id": "tk_os_osm_n906686411",
        "name": "Rehm Kiosk",
        "address": {
          "street": "Rehmstraße",
          "number": "2",
          "postalcode": "49080",
          "city": "Osnabrück"
        },
        "sources": [
          {
            "type": "osm",
            "id": "node/906686411",
            "version": 0
          },
          {
            "type": "gmaps",
            "id": "payment"
          }
        ],
        "created": "2026-05-20",
        "updated": "2026-05-21",
        "hours": {
          "raw": "Mo-Sa 08:00-13:00, Mo,We-Fr 15:00-18:00"
        },
        "payment": {
          "cards": "no",
          "girocard": "yes",
          "contactless": "yes"
        },
        "apple_id_attempted": "2026-05-23"
      }
    },
    {
      "type": "Feature",
      "geometry": {
        "type": "Point",
        "coordinates": [
          8.0504178,
          52.2711064
        ]
      },
      "properties": {
        "id": "tk_os_osm_n965180423",
        "name": "Prima Kiosk",
        "address": {
          "street": "Johannisstraße",
          "number": "84/85",
          "postalcode": "49074",
          "city": "Osnabrück"
        },
        "sources": [
          {
            "type": "osm",
            "id": "node/965180423",
            "version": 0
          },
          {
            "type": "gmaps",
            "id": "ChIJzWcOphHluUcRVtZY64vu3h4"
          }
        ],
        "created": "2026-05-20",
        "updated": "2026-05-21",
        "payment_attempted": "2026-05-22",
        "apple_id_attempted": "2026-05-23",
        "google_attempted": "2026-05-23"
      }
    },
    {
      "type": "Feature",
      "geometry": {
        "type": "Point",
        "coordinates": [
          8.0581798,
          52.2730227
        ]
      },
      "properties": {
        "id": "tk_os_osm_n966188254",
        "name": "Kiosk Gleis 1",
        "address": {
          "street": "Möserstraße",
          "number": "49 - 51",
          "postalcode": "49074",
          "city": "Osnabrück",
          "district": "Innenstadt"
        },
        "sources": [
          {
            "type": "osm",
            "id": "node/966188254",
            "version": 0
          },
          {
            "type": "gmaps",
            "id": "payment"
          },
          {
            "type": "apple",
            "id": "15461949562336169435"
          }
        ],
        "created": "2026-05-20",
        "updated": "2026-05-23",
        "hours": {
          "raw": "Mo-Fr 10:00-22:00; Sa,Su 10:00-22:00"
        },
        "tags": [
          "barrierefrei"
        ],
        "payment": {
          "cards": "no",
          "girocard": "yes",
          "contactless": "yes"
        }
      }
    },
    {
      "type": "Feature",
      "geometry": {
        "type": "Point",
        "coordinates": [
          8.0805728,
          52.3240318
        ]
      },
      "properties": {
        "id": "tk_os_osm_n9799368569",
        "name": "Minigolf Nettetal",
        "address": {
          "street": "Nettetal",
          "number": "3",
          "postalcode": "49134",
          "city": "Wallenhorst"
        },
        "sources": [
          {
            "type": "osm",
            "id": "node/9799368569",
            "version": 0
          },
          {
            "type": "apple",
            "id": "12820728804385687262"
          },
          {
            "type": "gmaps",
            "id": "ChIJNxL0AWLkuUcRvZmlcyHqmko"
          }
        ],
        "created": "2026-05-20",
        "updated": "2026-05-23",
        "payment_attempted": "2026-05-22",
        "hours": {
          "raw": "Sa-Su 10:00-19:00; Mo-Fr 14:00-19:00"
        },
        "google_attempted": "2026-05-23"
      }
    },
    {
      "type": "Feature",
      "geometry": {
        "type": "Point",
        "coordinates": [
          8.0598059,
          52.273572
        ]
      },
      "properties": {
        "id": "tk_os_osm_w116828718",
        "name": "Olafs Laden",
        "address": {
          "street": "An der Humboldtbrücke",
          "postalcode": "49074",
          "city": "Osnabrück",
          "district": "Gartlage"
        },
        "sources": [
          {
            "type": "osm",
            "id": "way/116828718",
            "version": 0
          },
          {
            "type": "apple",
            "id": "16239057622753441671"
          }
        ],
        "created": "2026-05-20",
        "updated": "2026-05-23",
        "hours": {
          "raw": "Mo-Fr 07:30-19:00; Sa 07:30-19:00; Su 09:30-19:00"
        },
        "payment": {
          "cash": "unknown",
          "cards": "yes",
          "contactless": "unknown",
          "girocard": "unknown",
          "mobile": "unknown"
        },
        "tags": [
          "barrierefrei"
        ]
      }
    },
    {
      "type": "Feature",
      "geometry": {
        "type": "Point",
        "coordinates": [
          8.0586779,
          52.3367349
        ]
      },
      "properties": {
        "id": "tk_os_osm_w142657918",
        "name": "Getränkehaus",
        "address": {
          "street": "St. Bernhardsweg",
          "number": "2",
          "postalcode": "49134",
          "city": "Wallenhorst",
          "district": "Rulle"
        },
        "sources": [
          {
            "type": "osm",
            "id": "way/142657918",
            "version": 0
          },
          {
            "type": "gmaps",
            "id": "payment"
          }
        ],
        "created": "2026-05-20",
        "updated": "2026-05-23",
        "hours": {
          "raw": "Mo-Fr 08:00-19:00; Sa 08:00-18:00"
        },
        "tags": [
          "barrierefrei"
        ],
        "payment": {
          "cards": "no",
          "girocard": "yes",
          "contactless": "yes"
        },
        "apple_id_attempted": "2026-05-23"
      }
    },
    {
      "type": "Feature",
      "geometry": {
        "type": "Point",
        "coordinates": [
          8.0682646,
          52.2078133
        ]
      },
      "properties": {
        "id": "tk_os_osm_w146862432",
        "name": "Dütman Getränkemarkt",
        "address": {
          "street": "Alte Seilerei",
          "number": "4",
          "city": "Georgsmarienhütte"
        },
        "sources": [
          {
            "type": "osm",
            "id": "way/146862432",
            "version": 0
          },
          {
            "type": "gmaps",
            "id": "ChIJiXVFUEnuuUcRvthyffbG8Zs"
          }
        ],
        "created": "2026-05-20",
        "updated": "2026-05-21",
        "payment": {
          "cards": "yes",
          "girocard": "yes",
          "contactless": "yes"
        },
        "apple_id_attempted": "2026-05-23",
        "google_attempted": "2026-05-23"
      }
    },
    {
      "type": "Feature",
      "geometry": {
        "type": "Point",
        "coordinates": [
          8.0747294,
          52.261532
        ]
      },
      "properties": {
        "id": "tk_os_osm_w151292309",
        "name": "Getränke Hoffmann",
        "address": {
          "street": "Hannoversche Straße",
          "number": "57",
          "postalcode": "49084",
          "city": "Osnabrück"
        },
        "sources": [
          {
            "type": "osm",
            "id": "way/151292309",
            "version": 0
          },
          {
            "type": "gmaps",
            "id": "payment"
          }
        ],
        "created": "2026-05-20",
        "updated": "2026-05-21",
        "hours": {
          "raw": "Mo-Sa 06:00-20:00; PH off"
        },
        "tags": [
          "barrierefrei"
        ],
        "payment": {
          "cards": "no",
          "girocard": "yes",
          "contactless": "yes"
        },
        "apple_id_attempted": "2026-05-23"
      }
    },
    {
      "type": "Feature",
      "geometry": {
        "type": "Point",
        "coordinates": [
          8.070955,
          52.2630887
        ]
      },
      "properties": {
        "id": "tk_os_osm_w206156936",
        "name": "trinkgut",
        "address": {
          "street": "Großer Fledderweg",
          "number": "27",
          "postalcode": "49084",
          "city": "Osnabrück"
        },
        "sources": [
          {
            "type": "osm",
            "id": "way/206156936",
            "version": 0
          },
          {
            "type": "gmaps",
            "id": "payment"
          }
        ],
        "created": "2026-05-20",
        "updated": "2026-05-21",
        "hours": {
          "raw": "Mo-Sa 08:00-20:00; PH off"
        },
        "tags": [
          "barrierefrei"
        ],
        "payment": {
          "cards": "yes",
          "girocard": "yes",
          "contactless": "yes"
        },
        "apple_id_attempted": "2026-05-23"
      }
    },
    {
      "type": "Feature",
      "geometry": {
        "type": "Point",
        "coordinates": [
          8.1803394,
          52.2671313
        ]
      },
      "properties": {
        "id": "tk_os_osm_w282584854",
        "name": "Durst Express Kröger",
        "address": {
          "street": "Heidekamm",
          "number": "2",
          "postalcode": "49143",
          "city": "Bissendorf"
        },
        "sources": [
          {
            "type": "osm",
            "id": "way/282584854",
            "version": 0
          },
          {
            "type": "gmaps",
            "id": "ChIJ5-atHWH6uUcRDGf0bno7BGo"
          }
        ],
        "created": "2026-05-20",
        "updated": "2026-05-21",
        "payment": {
          "cards": "no",
          "girocard": "yes",
          "contactless": "yes"
        },
        "apple_id_attempted": "2026-05-23",
        "google_attempted": "2026-05-23"
      }
    },
    {
      "type": "Feature",
      "geometry": {
        "type": "Point",
        "coordinates": [
          7.9409598,
          52.3900683
        ]
      },
      "properties": {
        "id": "tk_os_osm_w448340512",
        "name": "Getränke Lewandowsky",
        "address": {
          "street": "Lange Straße",
          "number": "7",
          "postalcode": "49565",
          "city": "Bramsche",
          "district": "Achmer"
        },
        "sources": [
          {
            "type": "osm",
            "id": "way/448340512",
            "version": 0
          },
          {
            "type": "apple",
            "id": "3410466716015377713"
          },
          {
            "type": "gmaps",
            "id": "ChIJycGy3PfguUcRZY4ZOLBqqTo"
          }
        ],
        "created": "2026-05-20",
        "updated": "2026-05-23",
        "payment_attempted": "2026-05-22",
        "hours": {
          "raw": "Mo-Fr 09:00-12:00,14:00-17:00; Sa 09:00-12:30"
        },
        "google_attempted": "2026-05-23"
      }
    },
    {
      "type": "Feature",
      "geometry": {
        "type": "Point",
        "coordinates": [
          8.081463,
          52.3234481
        ]
      },
      "properties": {
        "id": "tk_os_osm_w528151329",
        "name": "Kletterwald Osnabrück",
        "address": {
          "street": "Nettetal",
          "number": "4",
          "postalcode": "49134",
          "city": "Wallenhorst"
        },
        "sources": [
          {
            "type": "osm",
            "id": "way/528151329",
            "version": 0
          },
          {
            "type": "apple",
            "id": "4984223418112417665"
          },
          {
            "type": "gmaps",
            "id": "ChIJNxL0AWLkuUcReLbcVYulABI"
          }
        ],
        "created": "2026-05-20",
        "updated": "2026-05-23",
        "payment_attempted": "2026-05-22",
        "hours": {
          "raw": "Tu 12:00-16:00; Th-Fr 09:00-13:00"
        },
        "google_attempted": "2026-05-23"
      }
    },
    {
      "type": "Feature",
      "geometry": {
        "type": "Point",
        "coordinates": [
          8.076356,
          52.2817853
        ]
      },
      "properties": {
        "id": "tk_os_osm_n1025441058",
        "name": "Globus",
        "address": {},
        "sources": [
          {
            "type": "osm",
            "id": "node/1025441058",
            "version": 0
          }
        ],
        "created": "2026-05-20",
        "updated": "2026-05-25",
        "hours": {
          "raw": "Mo-Fr 09:00-19:00; Sa 08:00-15:00"
        }
      }
    },
    {
      "type": "Feature",
      "geometry": {
        "type": "Point",
        "coordinates": [
          8.0796028,
          52.27394
        ]
      },
      "properties": {
        "id": "tk_os_osm_n13305033542",
        "name": "Kiosk84",
        "address": {},
        "sources": [
          {
            "type": "osm",
            "id": "node/13305033542",
            "version": 0
          }
        ],
        "created": "2026-05-20",
        "updated": "2026-05-25",
        "hours": {
          "raw": "Mo-Th 09:00-01:00, Fr,Sa 09:00-03:00, Su 10:00-01:00"
        }
      }
    },
    {
      "type": "Feature",
      "geometry": {
        "type": "Point",
        "coordinates": [
          8.0048294,
          52.2656173
        ]
      },
      "properties": {
        "id": "tk_os_osm_n1911679429",
        "name": "Kaufland Getränkemarkt",
        "address": {},
        "sources": [
          {
            "type": "osm",
            "id": "node/1911679429",
            "version": 0
          }
        ],
        "created": "2026-05-20",
        "updated": "2026-05-25",
        "hours": {
          "raw": "Mo-Sa 07:00-22:00"
        }
      }
    },
    {
      "type": "Feature",
      "geometry": {
        "type": "Point",
        "coordinates": [
          8.1622265,
          52.2386449
        ]
      },
      "properties": {
        "id": "tk_os_osm_n248825453",
        "name": "Getränke Hoffmann",
        "address": {},
        "sources": [
          {
            "type": "osm",
            "id": "node/248825453",
            "version": 0
          }
        ],
        "created": "2026-05-20",
        "updated": "2026-05-25",
        "hours": {
          "raw": "Mo-Fr 09:00-19:00; Sa 08:00-16:00"
        },
        "tags": [
          "barrierefrei"
        ]
      }
    },
    {
      "type": "Feature",
      "geometry": {
        "type": "Point",
        "coordinates": [
          8.047089,
          52.2670449
        ]
      },
      "properties": {
        "id": "tk_os_osm_n267976240",
        "name": "Kiez Kiosk",
        "address": {},
        "sources": [
          {
            "type": "osm",
            "id": "node/267976240",
            "version": 0
          }
        ],
        "created": "2026-05-20",
        "updated": "2026-05-25",
        "hours": {
          "raw": "\"bei Bedarf klopfen\""
        }
      }
    },
    {
      "type": "Feature",
      "geometry": {
        "type": "Point",
        "coordinates": [
          8.0499234,
          52.2716048
        ]
      },
      "properties": {
        "id": "tk_os_osm_n308264330",
        "name": "City Kiosk",
        "address": {
          "street": "Johannisstraße",
          "number": "46-47",
          "postalcode": "49074",
          "city": "Osnabrück"
        },
        "sources": [
          {
            "type": "osm",
            "id": "node/308264330",
            "version": 0
          }
        ],
        "created": "2026-05-20",
        "updated": "2026-05-25",
        "hours": {
          "raw": "Mo-Th 07:00-23:00; Fr 07:00-01:00; Sa 08:00-01:00; Su 11:00-23:00"
        },
        "tags": [
          "barrierefrei"
        ]
      }
    },
    {
      "type": "Feature",
      "geometry": {
        "type": "Point",
        "coordinates": [
          8.0619955,
          52.2578105
        ]
      },
      "properties": {
        "id": "tk_os_osm_n457110041",
        "name": "Tabak und Zeitschriften, Deutsch Post Filiale 668",
        "address": {},
        "sources": [
          {
            "type": "osm",
            "id": "node/457110041",
            "version": 0
          }
        ],
        "created": "2026-05-20",
        "updated": "2026-05-25",
        "hours": {
          "raw": "Mo 07:00-12:30; Tu-Fr 07:00-12:30,15:00-17:30; Sa 07:00-12:00; PH off"
        }
      }
    },
    {
      "type": "Feature",
      "geometry": {
        "type": "Point",
        "coordinates": [
          8.051894,
          52.2696667
        ]
      },
      "properties": {
        "id": "tk_os_osm_n5297565075",
        "name": "Sun & Night",
        "address": {
          "street": "Johannisstraße",
          "number": "36",
          "postalcode": "49074",
          "city": "Osnabrück"
        },
        "sources": [
          {
            "type": "osm",
            "id": "node/5297565075",
            "version": 0
          }
        ],
        "created": "2026-05-20",
        "updated": "2026-05-25"
      }
    },
    {
      "type": "Feature",
      "geometry": {
        "type": "Point",
        "coordinates": [
          7.9427262,
          52.3132281
        ]
      },
      "properties": {
        "id": "tk_os_osm_n5593444680",
        "name": "Getränke Lewandowsky",
        "address": {
          "street": "Westerkappelner Straße",
          "number": "8",
          "postalcode": "49504",
          "city": "Lotte",
          "district": "Wersen"
        },
        "sources": [
          {
            "type": "osm",
            "id": "node/5593444680",
            "version": 0
          }
        ],
        "created": "2026-05-20",
        "updated": "2026-05-25",
        "hours": {
          "raw": "Mo-Tu 14:30-18:30; We-Fr 09:00-18:30; Sa 08:30-13:00"
        },
        "tags": [
          "barrierefrei"
        ]
      }
    },
    {
      "type": "Feature",
      "geometry": {
        "type": "Point",
        "coordinates": [
          8.0624598,
          52.2463847
        ]
      },
      "properties": {
        "id": "tk_os_osm_n943437820",
        "name": "Cigo (DHL Paketshop)",
        "address": {},
        "sources": [
          {
            "type": "osm",
            "id": "node/943437820",
            "version": 0
          }
        ],
        "created": "2026-05-20",
        "updated": "2026-05-25",
        "tags": [
          "barrierefrei"
        ]
      }
    },
    {
      "type": "Feature",
      "geometry": {
        "type": "Point",
        "coordinates": [
          8.0504914,
          52.2710495
        ]
      },
      "properties": {
        "id": "tk_os_osm_n965180391",
        "name": "J. Heidenreich",
        "address": {
          "street": "Johannisstraße",
          "number": "86",
          "postalcode": "49074",
          "city": "Osnabrück"
        },
        "sources": [
          {
            "type": "osm",
            "id": "node/965180391",
            "version": 0
          }
        ],
        "created": "2026-05-20",
        "updated": "2026-05-25",
        "hours": {
          "raw": "Mo-Fr 08:00-18:00; Sa 08:30-13:00"
        },
        "payment": {
          "cash": "yes",
          "cards": "unknown",
          "contactless": "unknown",
          "girocard": "unknown",
          "mobile": "unknown"
        }
      }
    },
    {
      "type": "Feature",
      "geometry": {
        "type": "Point",
        "coordinates": [
          8.009196,
          52.3146141
        ]
      },
      "properties": {
        "id": "tk_os_osm_w1212232039",
        "name": "Aussenkiosk Cafee MIK",
        "address": {},
        "sources": [
          {
            "type": "osm",
            "id": "way/1212232039",
            "version": 0
          }
        ],
        "created": "2026-05-20",
        "updated": "2026-05-25",
        "hours": {
          "raw": "SA SO; feiertags bis 17Uhr"
        }
      }
    },
    {
      "type": "Feature",
      "geometry": {
        "type": "Point",
        "coordinates": [
          8.00428,
          52.3426007
        ]
      },
      "properties": {
        "id": "tk_os_osm_w289540507",
        "name": "Martins Getränkemarkt",
        "address": {
          "street": "Pyer Kirchweg",
          "number": "84",
          "postalcode": "49134",
          "city": "Wallenhorst"
        },
        "sources": [
          {
            "type": "osm",
            "id": "way/289540507",
            "version": 0
          }
        ],
        "created": "2026-05-20",
        "updated": "2026-05-25"
      }
    }
  ]
}
