{
  "type": "FeatureCollection",
  "features": [
    {
      "type": "Feature",
      "geometry": {
        "type": "Point",
        "coordinates": [
          10.3277657,
          52.1607618
        ]
      },
      "properties": {
        "id": "tk_sz_osm_n12046094335",
        "name": "Kiosk",
        "address": {},
        "sources": [
          {
            "type": "osm",
            "id": "node/12046094335",
            "version": 0
          }
        ],
        "created": "2026-05-21",
        "updated": "2026-05-21"
      }
    },
    {
      "type": "Feature",
      "geometry": {
        "type": "Point",
        "coordinates": [
          10.3296125,
          52.1551778
        ]
      },
      "properties": {
        "id": "tk_sz_osm_n12050852557",
        "name": "Der Nette Laden 2",
        "address": {},
        "sources": [
          {
            "type": "osm",
            "id": "node/12050852557",
            "version": 0
          }
        ],
        "created": "2026-05-21",
        "updated": "2026-05-21"
      }
    },
    {
      "type": "Feature",
      "geometry": {
        "type": "Point",
        "coordinates": [
          10.3070619,
          52.2042519
        ]
      },
      "properties": {
        "id": "tk_sz_osm_n12059631116",
        "name": "Kiosk",
        "address": {},
        "sources": [
          {
            "type": "osm",
            "id": "node/12059631116",
            "version": 0
          }
        ],
        "created": "2026-05-21",
        "updated": "2026-05-21"
      }
    },
    {
      "type": "Feature",
      "geometry": {
        "type": "Point",
        "coordinates": [
          10.4871636,
          52.2467611
        ]
      },
      "properties": {
        "id": "tk_sz_osm_n13720214946",
        "name": "Koko's Kiosk",
        "address": {
          "street": "Donaustraße",
          "number": "46",
          "postalcode": "38120",
          "city": "Braunschweig"
        },
        "sources": [
          {
            "type": "osm",
            "id": "node/13720214946",
            "version": 0
          }
        ],
        "created": "2026-05-21",
        "updated": "2026-05-21"
      }
    },
    {
      "type": "Feature",
      "geometry": {
        "type": "Point",
        "coordinates": [
          10.4824806,
          52.1617674
        ]
      },
      "properties": {
        "id": "tk_sz_osm_n1748350434",
        "name": "Marc's Markt",
        "address": {
          "street": "Fümmelser Straße",
          "number": "52",
          "postalcode": "38304",
          "city": "Wolfenbüttel",
          "district": "Fümmelse"
        },
        "sources": [
          {
            "type": "osm",
            "id": "node/1748350434",
            "version": 0
          }
        ],
        "created": "2026-05-21",
        "updated": "2026-05-21"
      }
    },
    {
      "type": "Feature",
      "geometry": {
        "type": "Point",
        "coordinates": [
          10.317828,
          52.1576777
        ]
      },
      "properties": {
        "id": "tk_sz_osm_n2131437819",
        "name": "Kiosk & Cafe Shop Bei Martin",
        "address": {
          "street": "Riesentrapp",
          "postalcode": "38226",
          "city": "Salzgitter"
        },
        "sources": [
          {
            "type": "osm",
            "id": "node/2131437819",
            "version": 0
          }
        ],
        "created": "2026-05-21",
        "updated": "2026-05-21"
      }
    },
    {
      "type": "Feature",
      "geometry": {
        "type": "Point",
        "coordinates": [
          10.3285527,
          52.1555431
        ]
      },
      "properties": {
        "id": "tk_sz_osm_n2298739300",
        "name": "CityShop",
        "address": {},
        "sources": [
          {
            "type": "osm",
            "id": "node/2298739300",
            "version": 0
          }
        ],
        "created": "2026-05-21",
        "updated": "2026-05-21"
      }
    },
    {
      "type": "Feature",
      "geometry": {
        "type": "Point",
        "coordinates": [
          10.4812632,
          52.2421786
        ]
      },
      "properties": {
        "id": "tk_sz_osm_n3332990418",
        "name": "Stefan Lehne Lotto-Tabak-Zeitschriften",
        "address": {
          "street": "Illerstraße",
          "number": "61",
          "postalcode": "38120",
          "city": "Braunschweig"
        },
        "sources": [
          {
            "type": "osm",
            "id": "node/3332990418",
            "version": 0
          }
        ],
        "created": "2026-05-21",
        "updated": "2026-05-21",
        "tags": [
          "barrierefrei"
        ]
      }
    },
    {
      "type": "Feature",
      "geometry": {
        "type": "Point",
        "coordinates": [
          10.3720218,
          52.0553384
        ]
      },
      "properties": {
        "id": "tk_sz_osm_n3386584842",
        "name": "Kiosk",
        "address": {},
        "sources": [
          {
            "type": "osm",
            "id": "node/3386584842",
            "version": 0
          }
        ],
        "created": "2026-05-21",
        "updated": "2026-05-21"
      }
    },
    {
      "type": "Feature",
      "geometry": {
        "type": "Point",
        "coordinates": [
          10.3717816,
          52.0558983
        ]
      },
      "properties": {
        "id": "tk_sz_osm_n3386584843",
        "name": "Loto Kiosk",
        "address": {
          "street": "Burgundenstraße",
          "number": "40",
          "postalcode": "38259",
          "city": "Salzgitter"
        },
        "sources": [
          {
            "type": "osm",
            "id": "node/3386584843",
            "version": 0
          }
        ],
        "created": "2026-05-21",
        "updated": "2026-05-21"
      }
    },
    {
      "type": "Feature",
      "geometry": {
        "type": "Point",
        "coordinates": [
          10.303899,
          52.2058543
        ]
      },
      "properties": {
        "id": "tk_sz_osm_n415266271",
        "name": "Hol'ab",
        "address": {
          "street": "Lafferder Straße",
          "number": "5",
          "postalcode": "38268",
          "city": "Lengede"
        },
        "sources": [
          {
            "type": "osm",
            "id": "node/415266271",
            "version": 0
          }
        ],
        "created": "2026-05-21",
        "updated": "2026-05-21",
        "tags": [
          "barrierefrei"
        ]
      }
    },
    {
      "type": "Feature",
      "geometry": {
        "type": "Point",
        "coordinates": [
          10.2279516,
          52.1901185
        ]
      },
      "properties": {
        "id": "tk_sz_osm_n4260053136",
        "name": "Ruske",
        "address": {
          "street": "Bürgermeister-Burgdorf-Straße",
          "number": "5",
          "postalcode": "31185",
          "city": "Söhlde"
        },
        "sources": [
          {
            "type": "osm",
            "id": "node/4260053136",
            "version": 0
          }
        ],
        "created": "2026-05-21",
        "updated": "2026-05-21",
        "hours": {
          "raw": "Mo-Fr 09:00-13:00,15:00-18:00; Sa 09:00-13:00"
        }
      }
    },
    {
      "type": "Feature",
      "geometry": {
        "type": "Point",
        "coordinates": [
          10.4824534,
          52.2345068
        ]
      },
      "properties": {
        "id": "tk_sz_osm_n4336619841",
        "name": "Lotto-Tabakwaren-Zeitschriften Aleksandria",
        "address": {
          "street": "Kruckweg",
          "number": "4",
          "postalcode": "38122",
          "city": "Braunschweig"
        },
        "sources": [
          {
            "type": "osm",
            "id": "node/4336619841",
            "version": 0
          }
        ],
        "created": "2026-05-21",
        "updated": "2026-05-21",
        "hours": {
          "raw": "Mo-Fr 07:00-18:00; Sa 07:00-15:00; Su off"
        },
        "tags": [
          "barrierefrei"
        ]
      }
    },
    {
      "type": "Feature",
      "geometry": {
        "type": "Point",
        "coordinates": [
          10.3362914,
          52.1613978
        ]
      },
      "properties": {
        "id": "tk_sz_osm_n441937683",
        "name": "Trinkgut",
        "address": {},
        "sources": [
          {
            "type": "osm",
            "id": "node/441937683",
            "version": 0
          }
        ],
        "created": "2026-05-21",
        "updated": "2026-05-21"
      }
    },
    {
      "type": "Feature",
      "geometry": {
        "type": "Point",
        "coordinates": [
          10.4880366,
          52.2485952
        ]
      },
      "properties": {
        "id": "tk_sz_osm_n443197332",
        "name": "HOL’AB!",
        "address": {
          "street": "Donauknoten",
          "number": "7",
          "postalcode": "38120",
          "city": "Braunschweig"
        },
        "sources": [
          {
            "type": "osm",
            "id": "node/443197332",
            "version": 0
          }
        ],
        "created": "2026-05-21",
        "updated": "2026-05-21",
        "hours": {
          "raw": "Mo-Sa 08:00-20:00"
        },
        "tags": [
          "barrierefrei"
        ]
      }
    },
    {
      "type": "Feature",
      "geometry": {
        "type": "Point",
        "coordinates": [
          10.4869783,
          52.247627
        ]
      },
      "properties": {
        "id": "tk_sz_osm_n447931071",
        "name": "Kiosk Westblick",
        "address": {
          "street": "Donaustraße",
          "number": "1 A",
          "postalcode": "38120",
          "city": "Braunschweig"
        },
        "sources": [
          {
            "type": "osm",
            "id": "node/447931071",
            "version": 0
          }
        ],
        "created": "2026-05-21",
        "updated": "2026-05-21",
        "hours": {
          "raw": "Mo-Sa 08:00-18:00"
        },
        "tags": [
          "barrierefrei"
        ]
      }
    },
    {
      "type": "Feature",
      "geometry": {
        "type": "Point",
        "coordinates": [
          10.4874526,
          52.2417694
        ]
      },
      "properties": {
        "id": "tk_sz_osm_n5715780982",
        "name": "West-Kneipe",
        "address": {
          "street": "Donaustraße",
          "number": "31",
          "postalcode": "38120",
          "city": "Braunschweig"
        },
        "sources": [
          {
            "type": "osm",
            "id": "node/5715780982",
            "version": 0
          }
        ],
        "created": "2026-05-21",
        "updated": "2026-05-21"
      }
    },
    {
      "type": "Feature",
      "geometry": {
        "type": "Point",
        "coordinates": [
          10.3826025,
          52.0565028
        ]
      },
      "properties": {
        "id": "tk_sz_osm_w141900600",
        "name": "Getränkeland Sander",
        "address": {
          "street": "Daimlerstraße",
          "number": "6",
          "postalcode": "38259",
          "city": "Salzgitter"
        },
        "sources": [
          {
            "type": "osm",
            "id": "way/141900600",
            "version": 0
          }
        ],
        "created": "2026-05-21",
        "updated": "2026-05-21",
        "hours": {
          "raw": "Mo-Fr 08:00-18:30; Sa 08:00-16:00"
        }
      }
    },
    {
      "type": "Feature",
      "geometry": {
        "type": "Point",
        "coordinates": [
          10.3582203,
          52.1078006
        ]
      },
      "properties": {
        "id": "tk_sz_osm_w174398304",
        "name": "Kiosk zur Rumburger",
        "address": {
          "street": "Rumburger Straße",
          "number": "6",
          "postalcode": "38229",
          "city": "Salzgitter",
          "district": "Gebhardshagen"
        },
        "sources": [
          {
            "type": "osm",
            "id": "way/174398304",
            "version": 0
          }
        ],
        "created": "2026-05-21",
        "updated": "2026-05-21",
        "tags": [
          "barrierefrei"
        ]
      }
    },
    {
      "type": "Feature",
      "geometry": {
        "type": "Point",
        "coordinates": [
          10.3310589,
          52.1657725
        ]
      },
      "properties": {
        "id": "tk_sz_osm_w174745065",
        "name": "REWE Getränkemarkt",
        "address": {
          "street": "Ludwig-Erhard-Straße",
          "number": "2a",
          "postalcode": "38226",
          "city": "Salzgitter",
          "district": "Lebenstedt"
        },
        "sources": [
          {
            "type": "osm",
            "id": "way/174745065",
            "version": 0
          }
        ],
        "created": "2026-05-21",
        "updated": "2026-05-21"
      }
    },
    {
      "type": "Feature",
      "geometry": {
        "type": "Point",
        "coordinates": [
          10.4795546,
          52.2402046
        ]
      },
      "properties": {
        "id": "tk_sz_osm_w204086960",
        "name": "REWE Getränkemarkt",
        "address": {
          "street": "Lichtenberger Straße",
          "number": "51a",
          "postalcode": "38120",
          "city": "Braunschweig"
        },
        "sources": [
          {
            "type": "osm",
            "id": "way/204086960",
            "version": 0
          }
        ],
        "created": "2026-05-21",
        "updated": "2026-05-21",
        "hours": {
          "raw": "Mo-Sa 07:00-22:00"
        }
      }
    },
    {
      "type": "Feature",
      "geometry": {
        "type": "Point",
        "coordinates": [
          10.3370572,
          52.1727453
        ]
      },
      "properties": {
        "id": "tk_sz_osm_w608634767",
        "name": "Der nette Laden",
        "address": {
          "street": "Wildkamp",
          "number": "26",
          "postalcode": "38226",
          "city": "Salzgitter"
        },
        "sources": [
          {
            "type": "osm",
            "id": "way/608634767",
            "version": 0
          }
        ],
        "created": "2026-05-21",
        "updated": "2026-05-21",
        "hours": {
          "raw": "Mo 08:00 16:00; Tu, We, Th, Fr 08:00 - 18:00; Sa 08:00 14:00"
        }
      }
    }
  ]
}
