{
  "type": "FeatureCollection",
  "features": [
    {
      "type": "Feature",
      "geometry": {
        "type": "Point",
        "coordinates": [
          10.7886443,
          52.4246149
        ]
      },
      "properties": {
        "id": "tk_wob_osm_n11907055213",
        "name": "Späti kiosk",
        "address": {
          "street": "Porschestraße",
          "number": "34g",
          "postalcode": "38440",
          "city": "Wolfsburg"
        },
        "sources": [
          {
            "type": "osm",
            "id": "node/11907055213",
            "version": 0
          },
          {
            "type": "gmaps",
            "id": "ChIJATI08Y2Tr0cRtY1V6kb9MDg"
          }
        ],
        "created": "2026-05-21",
        "updated": "2026-07-20",
        "sources_by_field": {
          "name": "osm",
          "address.street": "osm",
          "address.number": "osm",
          "address.postalcode": "osm",
          "address.city": "osm",
          "hours": "google"
        },
        "apple_id_attempted": "2026-06-24",
        "google_attempted": "2026-06-24",
        "hours": {
          "raw": "Tu 09:00-00:00; Th 09:00-00:00; Fr 09:00-02:00; We 09:00-00:00; Mo 09:00-00:00; Sa 09:00-02:00; Su 09:00-00:00"
        },
        "payment": {}
      }
    },
    {
      "type": "Feature",
      "geometry": {
        "type": "Point",
        "coordinates": [
          10.7529331,
          52.4211678
        ]
      },
      "properties": {
        "id": "tk_wob_osm_n11980739309",
        "name": "Kiosk No.1",
        "address": {},
        "sources": [
          {
            "type": "osm",
            "id": "node/11980739309",
            "version": 0
          },
          {
            "type": "gmaps",
            "id": "ChIJp5PrOCaTr0cRWW5ZFBKhb0E"
          }
        ],
        "created": "2026-05-21",
        "updated": "2026-07-20",
        "sources_by_field": {
          "name": "osm",
          "hours": "google"
        },
        "apple_id_attempted": "2026-06-24",
        "google_attempted": "2026-06-24",
        "hours": {
          "raw": "Tu 10:00-22:00; Th 10:00-22:00; Fr 10:00-22:00; We 10:00-22:00; Mo 10:00-22:00; Su 11:00-19:00"
        },
        "payment": {}
      }
    },
    {
      "type": "Feature",
      "geometry": {
        "type": "Point",
        "coordinates": [
          10.9329691,
          52.4090073
        ]
      },
      "properties": {
        "id": "tk_wob_osm_n12754613231",
        "name": "VPK Kiosk",
        "address": {
          "street": "Vorsfelder Straße",
          "number": "7",
          "postalcode": "38458",
          "city": "Velpke",
          "district": "Velpke"
        },
        "sources": [
          {
            "type": "osm",
            "id": "node/12754613231",
            "version": 0
          },
          {
            "type": "gmaps",
            "id": "ChIJJfH79NCRr0cRP4MkezyCImg"
          }
        ],
        "created": "2026-05-21",
        "updated": "2026-07-20",
        "sources_by_field": {
          "name": "osm"
        },
        "apple_id_attempted": "2026-06-24",
        "google_attempted": "2026-06-24",
        "payment": {
          "cards": "yes",
          "contactless": "yes",
          "girocard": "yes"
        }
      }
    },
    {
      "type": "Feature",
      "geometry": {
        "type": "Point",
        "coordinates": [
          10.9171598,
          52.4257869
        ]
      },
      "properties": {
        "id": "tk_wob_osm_n12759708353",
        "name": "Piccolo Shop",
        "address": {
          "street": "Falkenstraße",
          "number": "2",
          "postalcode": "38461",
          "city": "Danndorf",
          "district": "Danndorf"
        },
        "sources": [
          {
            "type": "osm",
            "id": "node/12759708353",
            "version": 0
          },
          {
            "type": "gmaps",
            "id": "payment"
          }
        ],
        "created": "2026-05-21",
        "updated": "2026-07-20",
        "hours": {
          "raw": "Mo,Tu,We 09:00-11:00; Th,Fr 15:00-17:00; Sa 09:0012:00; Su off"
        },
        "sources_by_field": {
          "name": "osm",
          "hours": "osm"
        },
        "apple_id_attempted": "2026-06-24",
        "payment": {
          "cards": "no",
          "contactless": "yes",
          "girocard": "yes"
        }
      }
    },
    {
      "type": "Feature",
      "geometry": {
        "type": "Point",
        "coordinates": [
          10.7204492,
          52.4208894
        ]
      },
      "properties": {
        "id": "tk_wob_osm_n1306657669",
        "name": "Kleiner Laden",
        "address": {
          "street": "Hopfengarten",
          "number": "1b",
          "postalcode": "38442",
          "city": "Wolfsburg"
        },
        "sources": [
          {
            "type": "osm",
            "id": "node/1306657669",
            "version": 0
          },
          {
            "type": "gmaps",
            "id": "ChIJM-H8vtqSr0cR3jXF4TjJrfE"
          }
        ],
        "created": "2026-05-21",
        "updated": "2026-07-20",
        "tags": [
          "barrierefrei"
        ],
        "sources_by_field": {
          "name": "osm",
          "address.street": "osm",
          "address.number": "osm",
          "address.postalcode": "osm",
          "address.city": "osm"
        },
        "apple_id_attempted": "2026-06-24",
        "google_attempted": "2026-06-24",
        "payment": {}
      }
    },
    {
      "type": "Feature",
      "geometry": {
        "type": "Point",
        "coordinates": [
          10.7850297,
          52.419831
        ]
      },
      "properties": {
        "id": "tk_wob_osm_n13204317050",
        "name": "Squid Kiosk",
        "address": {
          "street": "Porschestraße",
          "number": "92",
          "postalcode": "38440",
          "city": "Wolfsburg",
          "district": "Köhlerberg"
        },
        "sources": [
          {
            "type": "osm",
            "id": "node/13204317050",
            "version": 0
          },
          {
            "type": "apple",
            "id": "5016017505717138068"
          }
        ],
        "created": "2026-05-21",
        "updated": "2026-07-20",
        "sources_by_field": {
          "name": "osm"
        },
        "hours": {
          "raw": "Mo-Su 08:00-24:00; Sa-Su 00:00-02:00"
        },
        "payment": {
          "cards": "yes",
          "contactless": "yes"
        }
      }
    },
    {
      "type": "Feature",
      "geometry": {
        "type": "Point",
        "coordinates": [
          10.7151489,
          52.4182614
        ]
      },
      "properties": {
        "id": "tk_wob_osm_n13633927201",
        "name": "Mamo Kiosk",
        "address": {
          "street": "Westerstraße",
          "number": "35",
          "postalcode": "38442",
          "city": "Wolfsburg",
          "district": "Fallersleben"
        },
        "sources": [
          {
            "type": "osm",
            "id": "node/13633927201",
            "version": 0
          },
          {
            "type": "gmaps",
            "id": "ChIJ9zVmOuWTr0cRqOcl4QABov4"
          }
        ],
        "created": "2026-05-21",
        "updated": "2026-07-20",
        "sources_by_field": {
          "name": "osm",
          "hours": "google",
          "payment.cards": "google"
        },
        "apple_id_attempted": "2026-06-24",
        "google_attempted": "2026-06-24",
        "hours": {
          "raw": "Tu 09:00-23:00; Th 09:00-23:00; Fr 09:00-01:00; We 09:00-23:00; Mo 09:00-23:00; Sa 09:00-01:00; Su 11:00-22:00"
        },
        "payment": {
          "cards": "yes",
          "girocard": "yes"
        }
      }
    },
    {
      "type": "Feature",
      "geometry": {
        "type": "Point",
        "coordinates": [
          10.8388473,
          52.4393713
        ]
      },
      "properties": {
        "id": "tk_wob_osm_n1678051020",
        "name": "KIYAN SPÄTi KAUF KIOSK",
        "address": {
          "street": "Lange Straße",
          "number": "30",
          "postalcode": "38448",
          "city": "Wolfsburg",
          "district": "Vorsfelde"
        },
        "sources": [
          {
            "type": "osm",
            "id": "node/1678051020",
            "version": 0
          },
          {
            "type": "gmaps",
            "id": "payment"
          },
          {
            "type": "apple",
            "id": "17636953589448242645"
          }
        ],
        "created": "2026-05-21",
        "updated": "2026-07-20",
        "hours": {
          "raw": "Mo-Th 08:00-02:00, Fr-Su 09:00-03:00"
        },
        "sources_by_field": {
          "name": "osm",
          "hours": "osm"
        },
        "payment": {
          "cards": "no",
          "contactless": "yes",
          "girocard": "yes"
        }
      }
    },
    {
      "type": "Feature",
      "geometry": {
        "type": "Point",
        "coordinates": [
          10.7519519,
          52.4103442
        ]
      },
      "properties": {
        "id": "tk_wob_osm_n1779232521",
        "name": "Jans Shop",
        "address": {
          "street": "Mecklenburger Straße",
          "number": "3",
          "postalcode": "38440",
          "city": "Wolfsburg",
          "district": "Laagberg"
        },
        "sources": [
          {
            "type": "osm",
            "id": "node/1779232521",
            "version": 0
          },
          {
            "type": "gmaps",
            "id": "payment"
          },
          {
            "type": "apple",
            "id": "15867778433084003199"
          }
        ],
        "created": "2026-05-21",
        "updated": "2026-07-20",
        "sources_by_field": {
          "name": "osm"
        },
        "hours": {
          "raw": "Mo-Su 08:00-22:00"
        },
        "payment": {
          "cards": "no",
          "contactless": "yes",
          "girocard": "yes"
        }
      }
    },
    {
      "type": "Feature",
      "geometry": {
        "type": "Point",
        "coordinates": [
          10.6865453,
          52.4141903
        ]
      },
      "properties": {
        "id": "tk_wob_osm_n271047977",
        "name": "Sülfelder Laden",
        "address": {
          "street": "Dorfstraße",
          "number": "18",
          "postalcode": "38442",
          "city": "Wolfsburg"
        },
        "sources": [
          {
            "type": "osm",
            "id": "node/271047977",
            "version": 0
          },
          {
            "type": "gmaps",
            "id": "payment"
          },
          {
            "type": "apple",
            "id": "1397893409386814516"
          }
        ],
        "created": "2026-05-21",
        "updated": "2026-07-20",
        "sources_by_field": {
          "name": "osm",
          "address.street": "osm",
          "address.number": "osm",
          "address.postalcode": "osm",
          "address.city": "osm"
        },
        "hours": {
          "raw": "Mo-Fr,Su 07:30-18:30; Sa 07:30-13:00"
        },
        "payment": {
          "cards": "no",
          "contactless": "yes",
          "girocard": "yes"
        }
      }
    },
    {
      "type": "Feature",
      "geometry": {
        "type": "Point",
        "coordinates": [
          10.765583,
          52.4241577
        ]
      },
      "properties": {
        "id": "tk_wob_osm_n3257469650",
        "name": "Kiosk Lotto Toto",
        "address": {
          "street": "Martin-Luther-Straße",
          "number": "1",
          "postalcode": "38440",
          "city": "Wolfsburg",
          "district": "Hohenstein"
        },
        "sources": [
          {
            "type": "osm",
            "id": "node/3257469650",
            "version": 0
          },
          {
            "type": "gmaps",
            "id": "ChIJyQmNc1WSr0cRfSmPlj4eiFI"
          }
        ],
        "created": "2026-05-21",
        "updated": "2026-07-20",
        "hours": {
          "raw": "Tu 06:00-19:00; Th 06:00-19:00; Fr 06:00-19:00; We 06:00-19:00; Mo 06:00-19:00; Sa 09:00-15:00; Su 09:00-14:30"
        },
        "sources_by_field": {
          "name": "osm",
          "hours": "google"
        },
        "apple_id_attempted": "2026-06-24",
        "google_attempted": "2026-06-24",
        "payment": {}
      }
    },
    {
      "type": "Feature",
      "geometry": {
        "type": "Point",
        "coordinates": [
          10.7339233,
          52.3935228
        ]
      },
      "properties": {
        "id": "tk_wob_osm_n3600787898",
        "name": "Kiosk Mörse",
        "address": {
          "street": "Feldscheunenweg",
          "number": "1-3",
          "postalcode": "38442",
          "city": "Wolfsburg",
          "district": "Mörse"
        },
        "sources": [
          {
            "type": "osm",
            "id": "node/3600787898",
            "version": 0
          },
          {
            "type": "gmaps",
            "id": "ChIJIyfhnmeTr0cRHj6hueFzskw"
          }
        ],
        "created": "2026-05-21",
        "updated": "2026-07-20",
        "hours": {
          "raw": "Mo-Fr 07:30-12:30,15:00-18:00; Sa 07:30-13:00"
        },
        "sources_by_field": {
          "name": "osm",
          "hours": "osm"
        },
        "apple_id_attempted": "2026-06-24",
        "google_attempted": "2026-05-23",
        "payment": {
          "cards": "no",
          "contactless": "yes",
          "girocard": "yes"
        }
      }
    },
    {
      "type": "Feature",
      "geometry": {
        "type": "Point",
        "coordinates": [
          10.8482856,
          52.4337759
        ]
      },
      "properties": {
        "id": "tk_wob_osm_n3788022598",
        "name": "Kusch",
        "address": {
          "street": "Klingemannstraße",
          "number": "4",
          "postalcode": "38448",
          "city": "Wolfsburg"
        },
        "sources": [
          {
            "type": "osm",
            "id": "node/3788022598",
            "version": 0
          },
          {
            "type": "gmaps",
            "id": "ChIJcWPYom6Rr0cRQiK3B8wZq_4"
          }
        ],
        "created": "2026-05-21",
        "updated": "2026-07-20",
        "sources_by_field": {
          "name": "osm",
          "address.street": "osm",
          "address.number": "osm",
          "address.postalcode": "osm",
          "address.city": "osm",
          "hours": "google"
        },
        "apple_id_attempted": "2026-06-24",
        "google_attempted": "2026-06-24",
        "hours": {
          "raw": "Tu 08:30-11:00; Th 08:30-11:00,15:00-17:00; Fr 08:30-11:00; We 08:30-11:00"
        },
        "payment": {
          "cards": "yes",
          "girocard": "yes"
        }
      }
    },
    {
      "type": "Feature",
      "geometry": {
        "type": "Point",
        "coordinates": [
          10.7665855,
          52.4099712
        ]
      },
      "properties": {
        "id": "tk_wob_osm_n4194223530",
        "name": "Tabakwaren Trenkner",
        "address": {
          "street": "Dunantplatz",
          "number": "4",
          "postalcode": "38440",
          "city": "Wolfsburg"
        },
        "sources": [
          {
            "type": "osm",
            "id": "node/4194223530",
            "version": 0
          },
          {
            "type": "gmaps",
            "id": "payment"
          },
          {
            "type": "apple",
            "id": "6091470991281792518"
          }
        ],
        "created": "2026-05-21",
        "updated": "2026-07-20",
        "hours": {
          "raw": "Mo-Fr 08:30-12:00, Tu-Fr 15:00-18:00, Sa 08:30-12:00"
        },
        "sources_by_field": {
          "name": "osm",
          "address.street": "osm",
          "address.number": "osm",
          "address.postalcode": "osm",
          "address.city": "osm",
          "hours": "osm"
        },
        "payment": {
          "cards": "yes"
        }
      }
    },
    {
      "type": "Feature",
      "geometry": {
        "type": "Point",
        "coordinates": [
          10.8833451,
          52.4903187
        ]
      },
      "properties": {
        "id": "tk_wob_osm_n4351094072",
        "name": "Getränke Universum",
        "address": {
          "street": "Hauptstraße",
          "number": "39",
          "postalcode": "38471",
          "city": "Rühen"
        },
        "sources": [
          {
            "type": "osm",
            "id": "node/4351094072",
            "version": 0
          },
          {
            "type": "gmaps",
            "id": "payment"
          }
        ],
        "created": "2026-05-21",
        "updated": "2026-07-20",
        "hours": {
          "raw": "Mo-Fr 09:00-18:00; Sa 09:00-16:00"
        },
        "tags": [
          "barrierefrei"
        ],
        "sources_by_field": {
          "name": "osm",
          "address.street": "osm",
          "address.number": "osm",
          "address.postalcode": "osm",
          "address.city": "osm",
          "hours": "osm"
        },
        "apple_id_attempted": "2026-06-24",
        "payment": {
          "cards": "no",
          "contactless": "yes",
          "girocard": "yes"
        }
      }
    },
    {
      "type": "Feature",
      "geometry": {
        "type": "Point",
        "coordinates": [
          10.8849661,
          52.4877319
        ]
      },
      "properties": {
        "id": "tk_wob_osm_n4352395175",
        "name": "Kiosk Rühen",
        "address": {
          "street": "Hauptstraße",
          "number": "30",
          "postalcode": "38471",
          "city": "Rühen"
        },
        "sources": [
          {
            "type": "osm",
            "id": "node/4352395175",
            "version": 0
          },
          {
            "type": "gmaps",
            "id": "ChIJ50HtNwCXr0cRiqyLNMYxmao"
          }
        ],
        "created": "2026-05-21",
        "updated": "2026-07-20",
        "sources_by_field": {
          "name": "osm",
          "address.street": "osm",
          "address.number": "osm",
          "address.postalcode": "osm",
          "address.city": "osm",
          "hours": "google"
        },
        "apple_id_attempted": "2026-06-24",
        "google_attempted": "2026-06-24",
        "hours": {
          "raw": "Tu 09:30-23:30; Th 09:30-23:30; Fr 09:30-23:30; We 09:30-23:30; Mo 09:30-23:30; Sa 09:30-23:30; Su 18:00-21:00"
        },
        "payment": {}
      }
    },
    {
      "type": "Feature",
      "geometry": {
        "type": "Point",
        "coordinates": [
          10.9303236,
          52.4075362
        ]
      },
      "properties": {
        "id": "tk_wob_osm_n536425656",
        "name": "EDEKA Bahrs Getränke",
        "address": {
          "street": "An der Bascheriede",
          "number": "2",
          "postalcode": "38458",
          "city": "Velpke"
        },
        "sources": [
          {
            "type": "osm",
            "id": "node/536425656",
            "version": 0
          },
          {
            "type": "gmaps",
            "id": "payment"
          },
          {
            "type": "apple",
            "id": "17506664908332826892"
          }
        ],
        "created": "2026-05-21",
        "updated": "2026-06-15",
        "hours": {
          "raw": "Mo-Sa 07:00-20:00"
        },
        "tags": [
          "barrierefrei"
        ],
        "sources_by_field": {
          "name": "osm",
          "address.street": "osm",
          "address.number": "osm",
          "address.postalcode": "osm",
          "address.city": "osm",
          "hours": "osm"
        },
        "payment": {
          "cards": "yes",
          "contactless": "yes",
          "girocard": "yes"
        }
      }
    },
    {
      "type": "Feature",
      "geometry": {
        "type": "Point",
        "coordinates": [
          10.8384016,
          52.448146
        ]
      },
      "properties": {
        "id": "tk_wob_osm_n5653518484",
        "name": "Kiosk Krause",
        "address": {
          "street": "Mühlenweg",
          "number": "33",
          "postalcode": "38448",
          "city": "Wolfsburg"
        },
        "sources": [
          {
            "type": "osm",
            "id": "node/5653518484",
            "version": 0
          },
          {
            "type": "gmaps",
            "id": "payment"
          }
        ],
        "created": "2026-05-21",
        "updated": "2026-07-20",
        "hours": {
          "raw": "Fr-We 07:30-20:00"
        },
        "sources_by_field": {
          "name": "osm",
          "address.street": "osm",
          "address.number": "osm",
          "address.postalcode": "osm",
          "address.city": "osm",
          "hours": "osm"
        },
        "apple_id_attempted": "2026-06-24",
        "payment": {
          "cards": "no",
          "girocard": "yes"
        }
      }
    },
    {
      "type": "Feature",
      "geometry": {
        "type": "Point",
        "coordinates": [
          10.7893673,
          52.4268772
        ]
      },
      "properties": {
        "id": "tk_wob_osm_n696781904",
        "name": "Markthalle",
        "address": {
          "street": "Porschestraße",
          "number": "2c",
          "postalcode": "38440",
          "city": "Wolfsburg",
          "district": "Stadtmitte"
        },
        "sources": [
          {
            "type": "osm",
            "id": "node/696781904",
            "version": 0
          },
          {
            "type": "gmaps",
            "id": "ChIJGW6p9rSTr0cRXJ83XnqiPus"
          }
        ],
        "created": "2026-05-21",
        "updated": "2026-07-20",
        "sources_by_field": {
          "name": "osm"
        },
        "apple_id_attempted": "2026-06-24",
        "google_attempted": "2026-06-24",
        "payment": {}
      }
    },
    {
      "type": "Feature",
      "geometry": {
        "type": "Point",
        "coordinates": [
          10.7820938,
          52.4259747
        ]
      },
      "properties": {
        "id": "tk_wob_osm_n704817307",
        "name": "Kiosk 17",
        "address": {
          "street": "Schachtweg",
          "number": "27",
          "postalcode": "38440",
          "city": "Wolfsburg",
          "district": "Stadtmitte"
        },
        "sources": [
          {
            "type": "osm",
            "id": "node/704817307",
            "version": 0
          },
          {
            "type": "gmaps",
            "id": "ChIJ3WEpKeeTr0cR2VCRX2ThoTY"
          }
        ],
        "created": "2026-05-21",
        "updated": "2026-07-20",
        "tags": [
          "barrierefrei"
        ],
        "sources_by_field": {
          "name": "osm",
          "hours": "google",
          "payment.cards": "google"
        },
        "apple_id_attempted": "2026-06-24",
        "google_attempted": "2026-06-24",
        "hours": {
          "raw": "Tu 08:30-01:00; Th 08:30-01:00; Fr 08:30-01:00; We 08:30-01:00; Mo 08:30-01:00; Sa 10:00-01:00; Su 10:00-01:00"
        },
        "payment": {
          "cards": "yes",
          "contactless": "yes",
          "girocard": "yes"
        }
      }
    },
    {
      "type": "Feature",
      "geometry": {
        "type": "Point",
        "coordinates": [
          10.8032298,
          52.421993
        ]
      },
      "properties": {
        "id": "tk_wob_osm_n7835170555",
        "name": "Berndt`s Ladchen Kiosk",
        "address": {
          "street": "Reislinger Straße",
          "number": "22",
          "postalcode": "38446",
          "city": "Wolfsburg",
          "district": "Hellwinkel"
        },
        "sources": [
          {
            "type": "osm",
            "id": "node/7835170555",
            "version": 0
          },
          {
            "type": "gmaps",
            "id": "payment"
          },
          {
            "type": "apple",
            "id": "11626905605431461447"
          }
        ],
        "created": "2026-05-21",
        "updated": "2026-07-20",
        "hours": {
          "raw": "Mo-Fr 07:00-18:00; Sa 07:00-14:00"
        },
        "sources_by_field": {
          "name": "osm",
          "hours": "osm"
        },
        "payment": {
          "cards": "no",
          "contactless": "yes",
          "girocard": "yes"
        }
      }
    },
    {
      "type": "Feature",
      "geometry": {
        "type": "Point",
        "coordinates": [
          10.7716286,
          52.4242879
        ]
      },
      "properties": {
        "id": "tk_wob_osm_n9177038670",
        "name": "Späti Kiosk",
        "address": {
          "street": "Saarstraße",
          "number": "31",
          "postalcode": "38440",
          "city": "Wolfsburg",
          "district": "Hohenstein"
        },
        "sources": [
          {
            "type": "osm",
            "id": "node/9177038670",
            "version": 0
          },
          {
            "type": "gmaps",
            "id": "payment"
          }
        ],
        "created": "2026-05-21",
        "updated": "2026-07-20",
        "hours": {
          "raw": "Mo-Fr 09:00-20:00, Sa 09:00-14:00; PH off"
        },
        "sources_by_field": {
          "name": "osm",
          "hours": "osm"
        },
        "apple_id_attempted": "2026-06-24",
        "payment": {
          "cards": "yes",
          "contactless": "yes",
          "girocard": "yes"
        }
      }
    },
    {
      "type": "Feature",
      "geometry": {
        "type": "Point",
        "coordinates": [
          10.7547792,
          52.3940144
        ]
      },
      "properties": {
        "id": "tk_wob_osm_n9202003779",
        "name": "Cityshop West",
        "address": {
          "street": "Detmeroder Markt",
          "number": "5",
          "postalcode": "38444",
          "city": "Wolfsburg",
          "district": "Detmerode"
        },
        "sources": [
          {
            "type": "osm",
            "id": "node/9202003779",
            "version": 0
          },
          {
            "type": "gmaps",
            "id": "ChIJSeNiFH2Sr0cRE4K930pvwac"
          }
        ],
        "created": "2026-05-21",
        "updated": "2026-07-20",
        "hours": {
          "raw": "Mo-Fr 08:00-18:00, Sa 08:00-13:00; PH closed"
        },
        "tags": [
          "barrierefrei"
        ],
        "sources_by_field": {
          "name": "osm",
          "hours": "osm"
        },
        "apple_id_attempted": "2026-06-24",
        "google_attempted": "2026-05-23",
        "payment": {
          "cards": "no",
          "contactless": "yes",
          "girocard": "yes"
        }
      }
    },
    {
      "type": "Feature",
      "geometry": {
        "type": "Point",
        "coordinates": [
          10.7854347,
          52.4231183
        ]
      },
      "properties": {
        "id": "tk_wob_osm_n9248175953",
        "name": "Kaufhof Kiosk",
        "address": {
          "street": "Schillerstraße",
          "number": "39",
          "postalcode": "38440",
          "city": "Wolfsburg",
          "district": "Stadtmitte"
        },
        "sources": [
          {
            "type": "osm",
            "id": "node/9248175953",
            "version": 0
          },
          {
            "type": "gmaps",
            "id": "payment"
          },
          {
            "type": "apple",
            "id": "9529537625902903955"
          }
        ],
        "created": "2026-05-21",
        "updated": "2026-07-20",
        "sources_by_field": {
          "name": "osm"
        },
        "hours": {
          "raw": "Sa-Su 00:00-05:00,09:00-24:00; Mo-Fr 00:00-01:00,09:00-24:00"
        },
        "payment": {
          "cards": "no",
          "contactless": "yes",
          "girocard": "yes"
        }
      }
    },
    {
      "type": "Feature",
      "geometry": {
        "type": "Point",
        "coordinates": [
          10.8394946,
          52.4381665
        ]
      },
      "properties": {
        "id": "tk_wob_osm_n9359149987",
        "name": "Mythos Kiosk",
        "address": {
          "street": "Lange Straße",
          "number": "6",
          "postalcode": "38448",
          "city": "Wolfsburg"
        },
        "sources": [
          {
            "type": "osm",
            "id": "node/9359149987",
            "version": 0
          },
          {
            "type": "apple",
            "id": "9514143740082649487"
          }
        ],
        "created": "2026-05-21",
        "updated": "2026-07-20",
        "hours": {
          "raw": "Mo-Fr 09:00-13:00,14:30-18:00, Sa 09:00-13:00; PH off"
        },
        "sources_by_field": {
          "name": "osm",
          "address.street": "osm",
          "address.number": "osm",
          "address.postalcode": "osm",
          "address.city": "osm",
          "hours": "osm"
        },
        "payment": {
          "cards": "yes",
          "contactless": "yes"
        }
      }
    },
    {
      "type": "Feature",
      "geometry": {
        "type": "Point",
        "coordinates": [
          10.7419842,
          52.3984929
        ]
      },
      "properties": {
        "id": "tk_wob_osm_n9642899554",
        "name": "West Shop",
        "address": {
          "street": "Stralsunder Ring",
          "number": "8",
          "postalcode": "38444",
          "city": "Wolfsburg",
          "district": "Westhagen"
        },
        "sources": [
          {
            "type": "osm",
            "id": "node/9642899554",
            "version": 0
          },
          {
            "type": "gmaps",
            "id": "ChIJRZHz6DmTr0cRV3oLiEHmqbM"
          }
        ],
        "created": "2026-05-21",
        "updated": "2026-07-20",
        "sources_by_field": {
          "name": "osm",
          "hours": "google"
        },
        "apple_id_attempted": "2026-06-24",
        "google_attempted": "2026-06-24",
        "hours": {
          "raw": "Tu 11:00-00:00; Th 11:00-00:00; Fr 11:00-02:00; We 11:00-00:00; Mo 11:00-00:00; Sa 11:00-02:00; Su 12:00-00:00"
        },
        "payment": {}
      }
    },
    {
      "type": "Feature",
      "geometry": {
        "type": "Point",
        "coordinates": [
          10.7385642,
          52.4080328
        ]
      },
      "properties": {
        "id": "tk_wob_osm_w223730841",
        "name": "Thomas Huhnholz Kiosk",
        "address": {
          "street": "Dresdener Ring",
          "number": "115",
          "postalcode": "38444",
          "city": "Wolfsburg",
          "district": "Westhagen"
        },
        "sources": [
          {
            "type": "osm",
            "id": "way/223730841",
            "version": 0
          },
          {
            "type": "gmaps",
            "id": "payment"
          }
        ],
        "created": "2026-05-21",
        "updated": "2026-07-20",
        "hours": {
          "raw": "Mo-Su 06:00-20:00"
        },
        "sources_by_field": {
          "name": "osm",
          "address.street": "osm",
          "address.number": "osm",
          "address.postalcode": "osm",
          "address.city": "osm",
          "address.district": "osm",
          "hours": "osm"
        },
        "apple_id_attempted": "2026-06-24",
        "payment": {
          "cards": "yes",
          "contactless": "yes",
          "girocard": "yes"
        }
      }
    },
    {
      "type": "Feature",
      "geometry": {
        "type": "Point",
        "coordinates": [
          10.8471031,
          52.4477188
        ]
      },
      "properties": {
        "id": "tk_wob_osm_w33889521",
        "name": "REWE Getränke",
        "address": {
          "street": "Holzweg",
          "number": "1",
          "postalcode": "38448",
          "city": "Wolfsburg",
          "district": "Vorsfelde"
        },
        "sources": [
          {
            "type": "osm",
            "id": "way/33889521",
            "version": 0
          },
          {
            "type": "gmaps",
            "id": "payment"
          }
        ],
        "created": "2026-05-21",
        "updated": "2026-07-20",
        "hours": {
          "raw": "Mo-Sa 07:00-22:00"
        },
        "tags": [
          "barrierefrei"
        ],
        "sources_by_field": {
          "name": "osm",
          "hours": "osm"
        },
        "apple_id_attempted": "2026-06-24",
        "payment": {
          "cards": "yes",
          "contactless": "yes",
          "girocard": "yes"
        }
      }
    },
    {
      "type": "Feature",
      "geometry": {
        "type": "Point",
        "coordinates": [
          10.8060553,
          52.443717
        ]
      },
      "properties": {
        "id": "tk_wob_osm_w44774545",
        "name": "Wagner",
        "address": {
          "street": "Schulenburgallee",
          "number": "9",
          "postalcode": "38448",
          "city": "Wolfsburg"
        },
        "sources": [
          {
            "type": "osm",
            "id": "way/44774545",
            "version": 0
          },
          {
            "type": "gmaps",
            "id": "ChIJbarP0MGTr0cRTDrdjUhq7vk"
          }
        ],
        "created": "2026-05-21",
        "updated": "2026-07-20",
        "hours": {
          "raw": "Th 09:00-13:00,16:00-22:00; Fr 09:00-13:00,16:00-22:00; We 09:00-13:00,16:00-22:00; Mo 09:00-13:00,16:00-22:00; Sa 09:00-22:00; Su 09:00-13:00,16:00-22:00"
        },
        "tags": [
          "barrierefrei"
        ],
        "sources_by_field": {
          "name": "osm",
          "address.street": "osm",
          "address.number": "osm",
          "address.postalcode": "osm",
          "address.city": "osm",
          "hours": "google"
        },
        "apple_id_attempted": "2026-06-24",
        "google_attempted": "2026-06-24",
        "payment": {}
      }
    },
    {
      "type": "Feature",
      "geometry": {
        "type": "Point",
        "coordinates": [
          10.80609,
          52.4526305
        ]
      },
      "properties": {
        "id": "tk_wob_osm_n10013301476",
        "name": "Lotto Hermes Kiosk",
        "address": {
          "street": "Schulenburgallee",
          "number": "50",
          "postalcode": "38448",
          "city": "Wolfsburg"
        },
        "sources": [
          {
            "type": "osm",
            "id": "node/10013301476",
            "version": 0
          }
        ],
        "created": "2026-05-21",
        "updated": "2026-07-20",
        "hours": {
          "raw": "Mo-Fr 07:30-20:00; Sa 08:00-20:00; Su 09:00-20:00; PH 10:00-20:00"
        },
        "payment": {
          "cash": "yes",
          "cards": "yes",
          "contactless": "unknown",
          "girocard": "yes"
        },
        "tags": [
          "barrierefrei"
        ],
        "sources_by_field": {
          "name": "osm",
          "address.street": "osm",
          "address.number": "osm",
          "address.postalcode": "osm",
          "address.city": "osm",
          "hours": "osm",
          "payment.cash": "osm",
          "payment.cards": "osm",
          "payment.contactless": "osm",
          "payment.girocard": "osm"
        },
        "apple_id_attempted": "2026-06-24"
      }
    },
    {
      "type": "Feature",
      "geometry": {
        "type": "Point",
        "coordinates": [
          10.8408364,
          52.4220493
        ]
      },
      "properties": {
        "id": "tk_wob_osm_n14018011712",
        "name": "Dorfgeflüster",
        "address": {},
        "sources": [
          {
            "type": "osm",
            "id": "node/14018011712",
            "version": 0
          }
        ],
        "created": "2026-07-20",
        "updated": "2026-07-20",
        "sources_by_field": {
          "name": "osm"
        }
      }
    },
    {
      "type": "Feature",
      "geometry": {
        "type": "Point",
        "coordinates": [
          10.7495744,
          52.415173
        ]
      },
      "properties": {
        "id": "tk_wob_osm_n1447852728",
        "name": "S&C Sweet Candy Shop",
        "address": {
          "street": "Schlesierweg",
          "number": "22c",
          "postalcode": "38440",
          "city": "Wolfsburg",
          "district": "Laagberg"
        },
        "sources": [
          {
            "type": "osm",
            "id": "node/1447852728",
            "version": 0
          }
        ],
        "created": "2026-05-21",
        "updated": "2026-07-20",
        "hours": {
          "raw": "24/7; PH unknown"
        },
        "sources_by_field": {
          "name": "osm",
          "address.street": "osm",
          "address.number": "osm",
          "address.postalcode": "osm",
          "address.city": "osm",
          "address.district": "osm",
          "hours": "osm"
        },
        "apple_id_attempted": "2026-06-24",
        "google_attempted": "2026-06-24",
        "payment": {}
      }
    },
    {
      "type": "Feature",
      "geometry": {
        "type": "Point",
        "coordinates": [
          10.699168,
          52.5482578
        ]
      },
      "properties": {
        "id": "tk_wob_osm_n1629234662",
        "name": "Big Durst",
        "address": {
          "street": "Alte Landstraße",
          "number": "2",
          "postalcode": "38524",
          "city": "Sassenburg",
          "district": "Grußendorf"
        },
        "sources": [
          {
            "type": "osm",
            "id": "node/1629234662",
            "version": 0
          }
        ],
        "created": "2026-05-21",
        "updated": "2026-07-20",
        "hours": {
          "raw": "Mo-Fr 09:00-19:00; Sa 09:00-14:00"
        },
        "sources_by_field": {
          "name": "osm",
          "address.street": "osm",
          "address.number": "osm",
          "address.postalcode": "osm",
          "address.city": "osm",
          "address.district": "osm",
          "hours": "osm"
        },
        "apple_id_attempted": "2026-06-24",
        "google_attempted": "2026-06-24",
        "payment": {}
      }
    },
    {
      "type": "Feature",
      "geometry": {
        "type": "Point",
        "coordinates": [
          10.7192614,
          52.4631553
        ]
      },
      "properties": {
        "id": "tk_wob_osm_n1646013708",
        "name": "Iris Keller - Tabak- und Schreibwaren",
        "address": {},
        "sources": [
          {
            "type": "osm",
            "id": "node/1646013708",
            "version": 0
          }
        ],
        "created": "2026-05-21",
        "updated": "2026-07-20",
        "hours": {
          "raw": "Mo-Fr 08:30-18:00; Sa 08:30-14:00"
        },
        "sources_by_field": {
          "name": "osm",
          "hours": "osm"
        },
        "apple_id_attempted": "2026-06-24",
        "google_attempted": "2026-06-24",
        "payment": {}
      }
    },
    {
      "type": "Feature",
      "geometry": {
        "type": "Point",
        "coordinates": [
          10.8911668,
          52.5346725
        ]
      },
      "properties": {
        "id": "tk_wob_osm_n454369328",
        "name": "Dreyer Lotto Toto",
        "address": {
          "street": "Hauptstraße",
          "number": "13",
          "postalcode": "38470",
          "city": "Parsau"
        },
        "sources": [
          {
            "type": "osm",
            "id": "node/454369328",
            "version": 0
          }
        ],
        "created": "2026-05-21",
        "updated": "2026-07-20",
        "sources_by_field": {
          "name": "osm",
          "address.street": "osm",
          "address.number": "osm",
          "address.postalcode": "osm",
          "address.city": "osm"
        },
        "apple_id_attempted": "2026-06-24",
        "google_attempted": "2026-06-24",
        "payment": {}
      }
    },
    {
      "type": "Feature",
      "geometry": {
        "type": "Point",
        "coordinates": [
          10.7393517,
          52.4039418
        ]
      },
      "properties": {
        "id": "tk_wob_osm_n5588135592",
        "name": "Cityshop West",
        "address": {
          "street": "Hallesche Straße",
          "number": "30C",
          "postalcode": "38444",
          "city": "Wolfsburg"
        },
        "sources": [
          {
            "type": "osm",
            "id": "node/5588135592",
            "version": 0
          }
        ],
        "created": "2026-05-21",
        "updated": "2026-07-20",
        "sources_by_field": {
          "name": "osm",
          "address.street": "osm",
          "address.number": "osm",
          "address.postalcode": "osm",
          "address.city": "osm"
        },
        "apple_id_attempted": "2026-06-24",
        "google_attempted": "2026-06-24",
        "payment": {}
      }
    },
    {
      "type": "Feature",
      "geometry": {
        "type": "Point",
        "coordinates": [
          10.7628785,
          52.4128417
        ]
      },
      "properties": {
        "id": "tk_wob_osm_w148932376",
        "name": "Kiosk (geschlossen)",
        "address": {},
        "sources": [
          {
            "type": "osm",
            "id": "way/148932376",
            "version": 0
          }
        ],
        "created": "2026-05-21",
        "updated": "2026-07-20",
        "sources_by_field": {
          "name": "osm"
        },
        "apple_id_attempted": "2026-06-24",
        "google_attempted": "2026-06-24",
        "payment": {}
      }
    },
    {
      "type": "Feature",
      "geometry": {
        "type": "Point",
        "coordinates": [
          10.7452566,
          52.4369559
        ]
      },
      "properties": {
        "id": "tk_wob_osm_w164950882",
        "name": "Imbiss",
        "address": {},
        "sources": [
          {
            "type": "osm",
            "id": "way/164950882",
            "version": 0
          }
        ],
        "created": "2026-05-21",
        "updated": "2026-07-20",
        "sources_by_field": {
          "name": "osm"
        },
        "apple_id_attempted": "2026-06-24",
        "google_attempted": "2026-06-24",
        "payment": {}
      }
    }
  ]
}
