{
  "type": "FeatureCollection",
  "features": [
    {
      "type": "Feature",
      "geometry": {
        "type": "Point",
        "coordinates": [
          13.1450163,
          47.320125
        ]
      },
      "properties": {
        "id": "tk_at5r_osm_n1699943342",
        "name": "Trafik Lucic",
        "address": {
          "street": "Salzburgerstraße",
          "number": "75",
          "city": "Schwarzach im Pongau"
        },
        "sources": [
          {
            "type": "osm",
            "id": "node/1699943342",
            "version": 0
          },
          {
            "type": "gmaps",
            "id": "ChIJn7mFoQ8nd0cRvgortE71RHI"
          }
        ],
        "created": "2026-05-29",
        "updated": "2026-07-13",
        "hours": {
          "raw": "Tu 07:00-12:00,15:00-18:00; Th 07:00-12:00,15:00-18:00; Fr 07:00-12:00,15:00-18:00; We 07:00-12:00,15:00-18:00; Mo 07:00-12:00,15:00-18:00; Sa 07:30-12:15"
        },
        "tags": [
          "barrierefrei"
        ],
        "sources_by_field": {
          "name": "osm",
          "address.street": "osm",
          "address.number": "osm",
          "address.city": "osm",
          "hours": "google",
          "payment.cards": "google",
          "payment.contactless": "google",
          "payment.girocard": "google"
        },
        "apple_id_attempted": "2026-07-01",
        "google_attempted": "2026-05-29",
        "payment": {
          "cards": "no",
          "contactless": "yes",
          "girocard": "yes"
        }
      }
    },
    {
      "type": "Feature",
      "geometry": {
        "type": "Point",
        "coordinates": [
          13.0610675,
          47.7224498
        ]
      },
      "properties": {
        "id": "tk_at5r_osm_n1732699320",
        "name": "P&A Gaumenfreude",
        "address": {},
        "sources": [
          {
            "type": "osm",
            "id": "node/1732699320",
            "version": 0
          },
          {
            "type": "apple",
            "id": "2070268686158276233"
          }
        ],
        "created": "2026-05-29",
        "updated": "2026-07-13",
        "sources_by_field": {
          "name": "osm",
          "hours": "apple",
          "payment.cards": "apple",
          "payment.contactless": "apple"
        },
        "apple_attempted": "2026-05-29",
        "hours": {
          "raw": "Mo 06:00-21:00; Tu-We 06:00-22:00; Th-Fr 06:00-20:00; Sa 08:00-15:00"
        },
        "payment": {
          "cards": "yes",
          "contactless": "yes"
        }
      }
    },
    {
      "type": "Feature",
      "geometry": {
        "type": "Point",
        "coordinates": [
          12.9071746,
          47.7246349
        ]
      },
      "properties": {
        "id": "tk_at5r_osm_n2128101629",
        "name": "Trafik Harl",
        "address": {},
        "sources": [
          {
            "type": "osm",
            "id": "node/2128101629",
            "version": 0
          },
          {
            "type": "gmaps",
            "id": "ChIJDdph322OdkcRBnjnAam-g9E"
          }
        ],
        "created": "2026-05-29",
        "updated": "2026-07-13",
        "hours": {
          "raw": "Tu 07:30-18:00; Th 07:30-18:00; Fr 07:30-18:00; We 07:30-18:00; Mo 07:30-18:00; Sa 07:30-12:00"
        },
        "sources_by_field": {
          "name": "osm",
          "hours": "google",
          "payment.cards": "google",
          "payment.contactless": "google",
          "payment.girocard": "google"
        },
        "apple_id_attempted": "2026-07-01",
        "google_attempted": "2026-05-29",
        "payment": {
          "cards": "no",
          "contactless": "yes",
          "girocard": "yes"
        }
      }
    },
    {
      "type": "Feature",
      "geometry": {
        "type": "Point",
        "coordinates": [
          13.2972688,
          47.3324296
        ]
      },
      "properties": {
        "id": "tk_at5r_osm_n3695660030",
        "name": "Martin Pointner",
        "address": {},
        "sources": [
          {
            "type": "osm",
            "id": "node/3695660030",
            "version": 0
          },
          {
            "type": "apple",
            "id": "6037360811387137459"
          }
        ],
        "created": "2026-05-29",
        "updated": "2026-07-13",
        "hours": {
          "raw": "Mo,We,Fr 09:00-12:00,15:00-18:00; Tu,Th,Sa 09:00-12:00"
        },
        "sources_by_field": {
          "name": "osm",
          "hours": "apple",
          "payment.cards": "apple",
          "payment.contactless": "apple"
        },
        "apple_attempted": "2026-05-29",
        "payment": {
          "cards": "yes",
          "contactless": "yes"
        }
      }
    },
    {
      "type": "Feature",
      "geometry": {
        "type": "Point",
        "coordinates": [
          12.815581,
          47.1440993
        ]
      },
      "properties": {
        "id": "tk_at5r_osm_n412948301",
        "name": "Shop Piffkar",
        "address": {},
        "sources": [
          {
            "type": "osm",
            "id": "node/412948301",
            "version": 0
          },
          {
            "type": "gmaps",
            "id": "ChIJgTSno8cWd0cR_W_lsH269yg"
          }
        ],
        "created": "2026-05-29",
        "updated": "2026-07-13",
        "sources_by_field": {
          "name": "osm"
        },
        "apple_id_attempted": "2026-07-01",
        "google_attempted": "2026-07-01",
        "payment": {}
      }
    },
    {
      "type": "Feature",
      "geometry": {
        "type": "Point",
        "coordinates": [
          13.3858132,
          47.7766274
        ]
      },
      "properties": {
        "id": "tk_at5r_osm_n4463856557",
        "name": "Klosterhofladen",
        "address": {
          "street": "Winklstraße",
          "number": "2",
          "city": "Sankt Gilgen"
        },
        "sources": [
          {
            "type": "osm",
            "id": "node/4463856557",
            "version": 0
          },
          {
            "type": "gmaps",
            "id": "ChIJWRwsDDWldkcR5Nm1YgEVBUs"
          }
        ],
        "created": "2026-05-29",
        "updated": "2026-07-13",
        "hours": {
          "raw": "Tu 10:00-12:00,12:30-17:00; Th 10:00-12:00,12:30-17:00; Fr 10:00-12:00,12:30-17:00; We 10:00-12:00,12:30-17:00; Mo 10:00-12:00,12:30-17:00; Sa 10:00-12:00,12:30-17:00; Su 10:00-12:00"
        },
        "sources_by_field": {
          "name": "osm",
          "address.street": "osm",
          "address.number": "osm",
          "address.city": "osm",
          "hours": "google",
          "payment.cards": "google",
          "payment.contactless": "google",
          "payment.girocard": "google"
        },
        "apple_id_attempted": "2026-07-01",
        "google_attempted": "2026-05-29",
        "payment": {
          "cards": "yes",
          "contactless": "yes",
          "girocard": "yes"
        }
      }
    },
    {
      "type": "Feature",
      "geometry": {
        "type": "Point",
        "coordinates": [
          13.0303173,
          47.8423056
        ]
      },
      "properties": {
        "id": "tk_at5r_osm_n4676055925",
        "name": "Alois Dallmayr Automaten-Service",
        "address": {},
        "sources": [
          {
            "type": "osm",
            "id": "node/4676055925",
            "version": 0
          },
          {
            "type": "gmaps",
            "id": "ChIJ9fht6sWadkcRHTtpU9Gt5Hc"
          }
        ],
        "created": "2026-05-29",
        "updated": "2026-07-13",
        "sources_by_field": {
          "name": "osm",
          "hours": "google"
        },
        "apple_id_attempted": "2026-07-01",
        "google_attempted": "2026-07-01",
        "hours": {
          "raw": "Tu 07:30-16:00; Th 07:30-16:00; Fr 07:30-11:00; We 07:30-16:00; Mo 07:30-16:00"
        },
        "payment": {}
      }
    },
    {
      "type": "Feature",
      "geometry": {
        "type": "Point",
        "coordinates": [
          13.1288566,
          47.8628386
        ]
      },
      "properties": {
        "id": "tk_at5r_osm_n5095556177",
        "name": "Norbert's Vitaminbar",
        "address": {},
        "sources": [
          {
            "type": "osm",
            "id": "node/5095556177",
            "version": 0
          },
          {
            "type": "apple",
            "id": "1334741082940766552"
          },
          {
            "type": "gmaps",
            "id": "ChIJL23NrN-bdkcRWvo6PaTAS34"
          }
        ],
        "created": "2026-05-29",
        "updated": "2026-07-13",
        "sources_by_field": {
          "name": "osm",
          "hours": "google",
          "payment.cards": "apple",
          "payment.contactless": "apple"
        },
        "apple_attempted": "2026-05-29",
        "google_attempted": "2026-05-29",
        "hours": {
          "raw": "Tu 09:00-18:00; Th 09:00-18:00; Fr 09:00-18:00; We 09:00-18:00"
        },
        "payment": {
          "cards": "yes",
          "contactless": "yes"
        }
      }
    },
    {
      "type": "Feature",
      "geometry": {
        "type": "Point",
        "coordinates": [
          13.0077816,
          47.8153311
        ]
      },
      "properties": {
        "id": "tk_at5r_osm_n5331946491",
        "name": "Crush",
        "address": {},
        "sources": [
          {
            "type": "osm",
            "id": "node/5331946491",
            "version": 0
          },
          {
            "type": "gmaps",
            "id": "ChIJtZ2s2gCQdkcRqH3RR0QpWZ4"
          }
        ],
        "created": "2026-05-29",
        "updated": "2026-07-13",
        "sources_by_field": {
          "name": "osm",
          "hours": "google",
          "payment.cards": "google",
          "payment.contactless": "google",
          "payment.girocard": "google"
        },
        "apple_id_attempted": "2026-07-01",
        "google_attempted": "2026-05-29",
        "hours": {
          "raw": "Tu 09:00-19:30; Th 09:00-19:30; Fr 09:00-21:00; We 09:00-19:30; Mo 09:00-19:30; Sa 09:00-18:00"
        },
        "payment": {
          "cards": "yes",
          "contactless": "yes",
          "girocard": "yes"
        }
      }
    },
    {
      "type": "Feature",
      "geometry": {
        "type": "Point",
        "coordinates": [
          13.0533223,
          47.8199558
        ]
      },
      "properties": {
        "id": "tk_at5r_osm_n652665707",
        "name": "Shell",
        "address": {
          "street": "Vogelweiderstraße",
          "number": "108",
          "city": "Salzburg"
        },
        "sources": [
          {
            "type": "osm",
            "id": "node/652665707",
            "version": 0
          },
          {
            "type": "gmaps",
            "id": "ChIJQdopk4aadkcRWRZUA2pSJ2c"
          }
        ],
        "created": "2026-05-29",
        "updated": "2026-07-13",
        "hours": {
          "raw": "Mo-Su,PH 00:00-24:00"
        },
        "sources_by_field": {
          "name": "osm",
          "address.street": "osm",
          "address.number": "osm",
          "address.city": "osm",
          "hours": "osm",
          "payment.cards": "google",
          "payment.contactless": "google",
          "payment.girocard": "google"
        },
        "apple_id_attempted": "2026-07-01",
        "google_attempted": "2026-05-29",
        "payment": {
          "cards": "no",
          "contactless": "yes",
          "girocard": "yes"
        }
      }
    },
    {
      "type": "Feature",
      "geometry": {
        "type": "Point",
        "coordinates": [
          13.2524919,
          47.7488929
        ]
      },
      "properties": {
        "id": "tk_at5r_osm_n798572845",
        "name": "Badeplatz Hirschoint",
        "address": {
          "street": "Hinterseestraße",
          "number": "130",
          "city": "Faistenau"
        },
        "sources": [
          {
            "type": "osm",
            "id": "node/798572845",
            "version": 0
          },
          {
            "type": "apple",
            "id": "14873221625315701751"
          }
        ],
        "created": "2026-05-29",
        "updated": "2026-07-13",
        "hours": {
          "raw": "In den Sommermonaten bei Schönwetter"
        },
        "payment": {
          "cash": "yes",
          "cards": "unknown",
          "contactless": "unknown",
          "girocard": "unknown"
        },
        "sources_by_field": {
          "name": "osm",
          "address.street": "osm",
          "address.number": "osm",
          "address.city": "osm",
          "hours": "osm",
          "payment.cash": "osm",
          "payment.cards": "osm",
          "payment.contactless": "osm",
          "payment.girocard": "osm"
        }
      }
    },
    {
      "type": "Feature",
      "geometry": {
        "type": "Point",
        "coordinates": [
          13.2529695,
          47.8416244
        ]
      },
      "properties": {
        "id": "tk_at5r_osm_n916174478",
        "name": "Tabak Reiter",
        "address": {},
        "sources": [
          {
            "type": "osm",
            "id": "node/916174478",
            "version": 0
          },
          {
            "type": "apple",
            "id": "750042338119633380"
          }
        ],
        "created": "2026-05-29",
        "updated": "2026-07-13",
        "hours": {
          "raw": "Mo-Fr 06:30-12:00,15:00-18:00; Sa 06:30-12:30"
        },
        "sources_by_field": {
          "name": "osm",
          "hours": "apple",
          "payment.cards": "apple",
          "payment.contactless": "apple"
        },
        "apple_attempted": "2026-05-29",
        "payment": {
          "cards": "yes",
          "contactless": "yes"
        }
      }
    },
    {
      "type": "Feature",
      "geometry": {
        "type": "Point",
        "coordinates": [
          13.0801443,
          47.3289144
        ]
      },
      "properties": {
        "id": "tk_at5r_osm_w111212823",
        "name": "Kramerstub'n",
        "address": {
          "street": "Weng",
          "number": "2",
          "city": "Goldegg"
        },
        "sources": [
          {
            "type": "osm",
            "id": "way/111212823",
            "version": 0
          },
          {
            "type": "gmaps",
            "id": "ChIJFRhCzHEhd0cRppKODEN50aE"
          }
        ],
        "created": "2026-05-29",
        "updated": "2026-07-13",
        "sources_by_field": {
          "name": "osm",
          "address.street": "osm",
          "address.number": "osm",
          "address.city": "osm",
          "hours": "google",
          "payment.cards": "google",
          "payment.contactless": "google",
          "payment.girocard": "google"
        },
        "apple_id_attempted": "2026-07-01",
        "google_attempted": "2026-05-29",
        "hours": {
          "raw": "Tu 07:00-20:00; Th 07:00-20:00; Fr 07:00-20:00; We 07:00-20:00; Mo 07:00-20:00; Sa 07:00-20:00; Su 08:00-20:00"
        },
        "payment": {
          "cards": "yes",
          "contactless": "yes",
          "girocard": "yes"
        }
      }
    },
    {
      "type": "Feature",
      "geometry": {
        "type": "Point",
        "coordinates": [
          13.4378642,
          47.7268605
        ]
      },
      "properties": {
        "id": "tk_at5r_osm_w1131621415",
        "name": "Kiosk am See",
        "address": {},
        "sources": [
          {
            "type": "osm",
            "id": "way/1131621415",
            "version": 0
          },
          {
            "type": "gmaps",
            "id": "ChIJY7U6s9qxdkcRZy1JIJ3KhpI"
          },
          {
            "type": "apple",
            "id": "3723155917551558882"
          }
        ],
        "created": "2026-05-29",
        "updated": "2026-07-13",
        "sources_by_field": {
          "name": "osm",
          "payment.cards": "apple",
          "payment.contactless": "apple"
        },
        "apple_attempted": "2026-07-01",
        "google_attempted": "2026-07-01",
        "payment": {
          "cards": "yes",
          "contactless": "yes"
        }
      }
    },
    {
      "type": "Feature",
      "geometry": {
        "type": "Point",
        "coordinates": [
          13.2214658,
          47.8478991
        ]
      },
      "properties": {
        "id": "tk_at5r_osm_w1167551261",
        "name": "BILLA Shop",
        "address": {},
        "sources": [
          {
            "type": "osm",
            "id": "way/1167551261",
            "version": 0
          },
          {
            "type": "gmaps",
            "id": "ChIJvXybOJqYdkcRXSH9AkRKJco"
          }
        ],
        "created": "2026-05-29",
        "updated": "2026-07-13",
        "sources_by_field": {
          "name": "osm",
          "payment.cards": "google",
          "payment.contactless": "google",
          "payment.girocard": "google"
        },
        "apple_id_attempted": "2026-07-01",
        "google_attempted": "2026-07-01",
        "payment": {
          "cards": "yes",
          "contactless": "yes",
          "girocard": "yes"
        }
      }
    },
    {
      "type": "Feature",
      "geometry": {
        "type": "Point",
        "coordinates": [
          13.1305968,
          47.8990986
        ]
      },
      "properties": {
        "id": "tk_at5r_osm_w119128600",
        "name": "Jausenstueberl",
        "address": {},
        "sources": [
          {
            "type": "osm",
            "id": "way/119128600",
            "version": 0
          },
          {
            "type": "gmaps",
            "id": "ChIJ3XysRhGcdkcR-3EzSTZMGr0"
          }
        ],
        "created": "2026-05-29",
        "updated": "2026-07-13",
        "hours": {
          "raw": "Mo-Fr 09:00-18:00; Sa 10:00-18:00"
        },
        "tags": [
          "sitzgelegenheiten"
        ],
        "sources_by_field": {
          "name": "osm",
          "hours": "osm"
        },
        "apple_id_attempted": "2026-07-01",
        "google_attempted": "2026-07-01",
        "payment": {}
      }
    },
    {
      "type": "Feature",
      "geometry": {
        "type": "Point",
        "coordinates": [
          13.0176779,
          47.794944
        ]
      },
      "properties": {
        "id": "tk_at5r_osm_w119869970",
        "name": "Stiegl Getränke Shop",
        "address": {},
        "sources": [
          {
            "type": "osm",
            "id": "way/119869970",
            "version": 0
          },
          {
            "type": "gmaps",
            "id": "ChIJpZ4lXT6QdkcRl2_7GG8HMnU"
          }
        ],
        "created": "2026-05-29",
        "updated": "2026-07-13",
        "sources_by_field": {
          "name": "osm",
          "hours": "google",
          "payment.cards": "google",
          "payment.contactless": "google",
          "payment.girocard": "google"
        },
        "apple_id_attempted": "2026-07-01",
        "google_attempted": "2026-05-29",
        "hours": {
          "raw": "Tu 08:30-18:00; Th 08:30-18:00; Fr 08:30-18:00; We 08:30-18:00; Sa 08:00-13:00"
        },
        "payment": {
          "cards": "no",
          "contactless": "yes",
          "girocard": "yes"
        }
      }
    },
    {
      "type": "Feature",
      "geometry": {
        "type": "Point",
        "coordinates": [
          13.0992583,
          47.17016
        ]
      },
      "properties": {
        "id": "tk_at5r_osm_w148095057",
        "name": "Pfandlbauer",
        "address": {
          "street": "Kurgartenstraße",
          "number": "37",
          "city": "Bad Hofgastein"
        },
        "sources": [
          {
            "type": "osm",
            "id": "way/148095057",
            "version": 0
          },
          {
            "type": "apple",
            "id": "9265862978101721094"
          },
          {
            "type": "gmaps",
            "id": "ChIJsSyVJDUld0cRGMsaYmI6-3o"
          }
        ],
        "created": "2026-05-29",
        "updated": "2026-07-13",
        "hours": {
          "raw": "Tu 07:00-13:00,14:30-18:30; Th 07:00-13:00,14:30-18:30; Fr 07:00-13:00,14:30-18:30; We 07:00-13:00,14:30-18:30; Mo 07:00-13:00,14:30-18:30; Sa 07:00-12:30; Su 08:00-12:00"
        },
        "sources_by_field": {
          "name": "osm",
          "address.street": "osm",
          "address.number": "osm",
          "address.city": "osm",
          "hours": "google",
          "payment.cards": "google",
          "payment.contactless": "google",
          "payment.girocard": "google"
        },
        "apple_attempted": "2026-05-29",
        "google_attempted": "2026-05-29",
        "payment": {
          "cards": "no",
          "contactless": "yes",
          "girocard": "yes"
        }
      }
    },
    {
      "type": "Feature",
      "geometry": {
        "type": "Point",
        "coordinates": [
          13.1399172,
          47.6246317
        ]
      },
      "properties": {
        "id": "tk_at5r_osm_w171508476",
        "name": "Kiosk am Bürgerausee",
        "address": {
          "street": "Markt",
          "number": "294",
          "city": "Kuchl"
        },
        "sources": [
          {
            "type": "osm",
            "id": "way/171508476",
            "version": 0
          },
          {
            "type": "gmaps",
            "id": "ChIJwzv7VwDBdkcRaqVKfrZqTfs"
          }
        ],
        "created": "2026-05-29",
        "updated": "2026-07-13",
        "sources_by_field": {
          "name": "osm",
          "address.street": "osm",
          "address.number": "osm",
          "address.city": "osm"
        },
        "apple_id_attempted": "2026-07-01",
        "google_attempted": "2026-07-01",
        "payment": {}
      }
    },
    {
      "type": "Feature",
      "geometry": {
        "type": "Point",
        "coordinates": [
          12.7935448,
          47.3023927
        ]
      },
      "properties": {
        "id": "tk_at5r_osm_w205700267",
        "name": "Trafik Köck",
        "address": {
          "street": "Kitzsteinhornstraße",
          "number": "7",
          "city": "Zell am See"
        },
        "sources": [
          {
            "type": "osm",
            "id": "way/205700267",
            "version": 0
          },
          {
            "type": "gmaps",
            "id": "ChIJK0gDYZUcd0cRIIIwlhqo28k"
          }
        ],
        "created": "2026-05-29",
        "updated": "2026-07-13",
        "hours": {
          "raw": "Tu 07:00-12:00,14:00-18:00; Th 07:00-12:00,14:00-18:00; Fr 07:00-12:00,14:00-18:00; We 07:00-12:00,14:00-18:00; Mo 07:00-12:00,14:00-18:00; Sa 07:00-12:00"
        },
        "sources_by_field": {
          "name": "osm",
          "address.street": "osm",
          "address.number": "osm",
          "address.city": "osm",
          "hours": "google",
          "payment.cards": "google",
          "payment.contactless": "google",
          "payment.girocard": "google"
        },
        "apple_id_attempted": "2026-07-01",
        "google_attempted": "2026-05-29",
        "payment": {
          "cards": "yes",
          "contactless": "yes",
          "girocard": "yes"
        }
      }
    },
    {
      "type": "Feature",
      "geometry": {
        "type": "Point",
        "coordinates": [
          13.3680297,
          47.7662299
        ]
      },
      "properties": {
        "id": "tk_at5r_osm_w238954062",
        "name": "E-Kiosk",
        "address": {},
        "sources": [
          {
            "type": "osm",
            "id": "way/238954062",
            "version": 0
          },
          {
            "type": "gmaps",
            "id": "ChIJd_TxUKi7dkcRe-n3oY4-c6M"
          }
        ],
        "created": "2026-05-29",
        "updated": "2026-07-13",
        "hours": {
          "raw": "24/7"
        },
        "sources_by_field": {
          "name": "osm",
          "hours": "osm",
          "payment.cards": "google",
          "payment.girocard": "google"
        },
        "apple_id_attempted": "2026-07-01",
        "google_attempted": "2026-07-01",
        "payment": {
          "cards": "yes",
          "girocard": "yes"
        }
      }
    },
    {
      "type": "Feature",
      "geometry": {
        "type": "Point",
        "coordinates": [
          13.100246,
          47.6909409
        ]
      },
      "properties": {
        "id": "tk_at5r_osm_w243128742",
        "name": "Trafik Golser",
        "address": {},
        "sources": [
          {
            "type": "osm",
            "id": "way/243128742",
            "version": 0
          },
          {
            "type": "apple",
            "id": "16145815396009101521"
          },
          {
            "type": "gmaps",
            "id": "ChIJ4SrbT1SUdkcRo_4aQ47zyFg"
          }
        ],
        "created": "2026-05-29",
        "updated": "2026-07-13",
        "tags": [
          "barrierefrei"
        ],
        "sources_by_field": {
          "name": "osm",
          "hours": "google",
          "payment.cards": "google",
          "payment.contactless": "google",
          "payment.girocard": "google"
        },
        "apple_attempted": "2026-05-29",
        "google_attempted": "2026-05-29",
        "hours": {
          "raw": "Tu 07:30-13:00,15:00-18:00; Th 07:30-13:00,15:00-18:00; Fr 07:30-13:00,15:00-18:00; We 07:30-13:00,15:00-18:00; Mo 07:30-13:00,15:00-18:00; Sa 08:00-13:00"
        },
        "payment": {
          "cards": "no",
          "contactless": "yes",
          "girocard": "yes"
        }
      }
    },
    {
      "type": "Feature",
      "geometry": {
        "type": "Point",
        "coordinates": [
          12.8236264,
          47.2813824
        ]
      },
      "properties": {
        "id": "tk_at5r_osm_w384679422",
        "name": "Pinzgau Bräu",
        "address": {
          "street": "Glocknerstraße",
          "number": "60A",
          "city": "Bruck"
        },
        "sources": [
          {
            "type": "osm",
            "id": "way/384679422",
            "version": 0
          },
          {
            "type": "apple",
            "id": "614461661465008709"
          },
          {
            "type": "gmaps",
            "id": "ChIJ6-3T9nccd0cRQOUOoPv5rd0"
          }
        ],
        "created": "2026-05-29",
        "updated": "2026-07-13",
        "hours": {
          "raw": "Tu 08:00-12:00; Th 08:00-12:00; Fr 08:00-12:00; We 08:00-12:00; Mo 08:00-12:00"
        },
        "sources_by_field": {
          "name": "osm",
          "address.street": "osm",
          "address.number": "osm",
          "address.city": "osm",
          "hours": "google"
        },
        "apple_attempted": "2026-07-01",
        "google_attempted": "2026-07-01",
        "payment": {}
      }
    },
    {
      "type": "Feature",
      "geometry": {
        "type": "Point",
        "coordinates": [
          13.481905,
          47.7170273
        ]
      },
      "properties": {
        "id": "tk_at5r_osm_n10565426695",
        "name": "blob Saftladen",
        "address": {},
        "sources": [
          {
            "type": "osm",
            "id": "node/10565426695",
            "version": 0
          }
        ],
        "created": "2026-05-29",
        "updated": "2026-07-13",
        "hours": {
          "raw": "Mo-Su 08:00-18:00"
        },
        "sources_by_field": {
          "name": "osm",
          "hours": "osm"
        },
        "apple_id_attempted": "2026-07-01",
        "google_attempted": "2026-07-01",
        "payment": {}
      }
    },
    {
      "type": "Feature",
      "geometry": {
        "type": "Point",
        "coordinates": [
          13.0407591,
          47.8007376
        ]
      },
      "properties": {
        "id": "tk_at5r_osm_n11822339007",
        "name": "SB-Kiosk",
        "address": {
          "street": "Griesgasse",
          "number": "27",
          "city": "Salzburg"
        },
        "sources": [
          {
            "type": "osm",
            "id": "node/11822339007",
            "version": 0
          }
        ],
        "created": "2026-05-29",
        "updated": "2026-07-13",
        "hours": {
          "raw": "24/7"
        },
        "payment": {
          "cash": "unknown",
          "cards": "yes",
          "contactless": "unknown",
          "girocard": "unknown"
        },
        "tags": [
          "barrierefrei"
        ],
        "kind": "vending_machine",
        "sources_by_field": {
          "name": "osm",
          "address.street": "osm",
          "address.number": "osm",
          "address.city": "osm",
          "hours": "osm",
          "payment.cash": "osm",
          "payment.cards": "osm",
          "payment.contactless": "osm",
          "payment.girocard": "osm"
        }
      }
    },
    {
      "type": "Feature",
      "geometry": {
        "type": "Point",
        "coordinates": [
          13.466665,
          47.5928774
        ]
      },
      "properties": {
        "id": "tk_at5r_osm_n1259552269",
        "name": "Johannas Dorfladen",
        "address": {},
        "sources": [
          {
            "type": "osm",
            "id": "node/1259552269",
            "version": 0
          }
        ],
        "created": "2026-05-29",
        "updated": "2026-07-13",
        "sources_by_field": {
          "name": "osm"
        },
        "apple_id_attempted": "2026-07-01",
        "google_attempted": "2026-07-01",
        "payment": {}
      }
    },
    {
      "type": "Feature",
      "geometry": {
        "type": "Point",
        "coordinates": [
          13.0804147,
          47.9703368
        ]
      },
      "properties": {
        "id": "tk_at5r_osm_n13104047259",
        "name": "Imbiss Dürnberger",
        "address": {},
        "sources": [
          {
            "type": "osm",
            "id": "node/13104047259",
            "version": 0
          }
        ],
        "created": "2026-05-29",
        "updated": "2026-07-13",
        "sources_by_field": {
          "name": "osm"
        },
        "apple_id_attempted": "2026-07-01",
        "google_attempted": "2026-07-01",
        "payment": {}
      }
    },
    {
      "type": "Feature",
      "geometry": {
        "type": "Point",
        "coordinates": [
          13.0674119,
          47.8028636
        ]
      },
      "properties": {
        "id": "tk_at5r_osm_n13401585601",
        "name": "24 Stunden Kiosk",
        "address": {},
        "sources": [
          {
            "type": "osm",
            "id": "node/13401585601",
            "version": 0
          }
        ],
        "created": "2026-05-29",
        "updated": "2026-07-13",
        "payment": {
          "cash": "unknown",
          "cards": "yes",
          "contactless": "unknown",
          "girocard": "unknown"
        },
        "tags": [
          "barrierefrei"
        ],
        "sources_by_field": {
          "name": "osm",
          "payment.cash": "osm",
          "payment.cards": "osm",
          "payment.contactless": "osm",
          "payment.girocard": "osm"
        },
        "apple_id_attempted": "2026-07-01",
        "google_attempted": "2026-07-01"
      }
    },
    {
      "type": "Feature",
      "geometry": {
        "type": "Point",
        "coordinates": [
          13.0656488,
          47.8010219
        ]
      },
      "properties": {
        "id": "tk_at5r_osm_n13572775201",
        "name": "E-Kiosk 24",
        "address": {
          "street": "Gaisbergstraße",
          "number": "9B"
        },
        "sources": [
          {
            "type": "osm",
            "id": "node/13572775201",
            "version": 0
          }
        ],
        "created": "2026-05-29",
        "updated": "2026-07-13",
        "hours": {
          "raw": "24/7"
        },
        "payment": {
          "cash": "unknown",
          "cards": "yes",
          "contactless": "unknown",
          "girocard": "unknown"
        },
        "tags": [
          "barrierefrei"
        ],
        "sources_by_field": {
          "name": "osm",
          "address.street": "osm",
          "address.number": "osm",
          "hours": "osm",
          "payment.cash": "osm",
          "payment.cards": "osm",
          "payment.contactless": "osm",
          "payment.girocard": "osm"
        },
        "apple_id_attempted": "2026-07-01"
      }
    },
    {
      "type": "Feature",
      "geometry": {
        "type": "Point",
        "coordinates": [
          13.0959388,
          47.6825831
        ]
      },
      "properties": {
        "id": "tk_at5r_osm_n1800394630",
        "name": "E-Kiosk",
        "address": {
          "street": "Thunstrasse",
          "number": "16"
        },
        "sources": [
          {
            "type": "osm",
            "id": "node/1800394630",
            "version": 0
          }
        ],
        "created": "2026-05-29",
        "updated": "2026-07-13",
        "hours": {
          "raw": "Mo-Su,PH 00:00-24:00"
        },
        "tags": [
          "barrierefrei"
        ],
        "sources_by_field": {
          "name": "osm",
          "address.street": "osm",
          "address.number": "osm",
          "hours": "osm"
        },
        "apple_id_attempted": "2026-07-01",
        "google_attempted": "2026-07-01",
        "payment": {}
      }
    },
    {
      "type": "Feature",
      "geometry": {
        "type": "Point",
        "coordinates": [
          13.0121373,
          47.8803341
        ]
      },
      "properties": {
        "id": "tk_at5r_osm_n1906641446",
        "name": "Tabak Trafik",
        "address": {},
        "sources": [
          {
            "type": "osm",
            "id": "node/1906641446",
            "version": 0
          }
        ],
        "created": "2026-05-29",
        "updated": "2026-07-13",
        "tags": [
          "barrierefrei"
        ],
        "sources_by_field": {
          "name": "osm"
        },
        "apple_id_attempted": "2026-07-01",
        "google_attempted": "2026-07-01",
        "payment": {}
      }
    },
    {
      "type": "Feature",
      "geometry": {
        "type": "Point",
        "coordinates": [
          13.1236946,
          47.8957696
        ]
      },
      "properties": {
        "id": "tk_at5r_osm_n2030872736",
        "name": "Tabak Trafik",
        "address": {
          "street": "Hauptstraße",
          "number": "45",
          "city": "Seekirchen am Wallersee"
        },
        "sources": [
          {
            "type": "osm",
            "id": "node/2030872736",
            "version": 0
          }
        ],
        "created": "2026-05-29",
        "updated": "2026-07-13",
        "sources_by_field": {
          "name": "osm",
          "address.street": "osm",
          "address.number": "osm",
          "address.city": "osm"
        },
        "apple_id_attempted": "2026-07-01",
        "google_attempted": "2026-07-01",
        "payment": {}
      }
    },
    {
      "type": "Feature",
      "geometry": {
        "type": "Point",
        "coordinates": [
          13.0024537,
          47.3820209
        ]
      },
      "properties": {
        "id": "tk_at5r_osm_n2159679566",
        "name": "Tabak-Trafik",
        "address": {},
        "sources": [
          {
            "type": "osm",
            "id": "node/2159679566",
            "version": 0
          }
        ],
        "created": "2026-05-29",
        "updated": "2026-07-13",
        "hours": {
          "raw": "Mo-Fr 08:00-12:00; Sa,Su off"
        },
        "sources_by_field": {
          "name": "osm",
          "hours": "osm"
        },
        "apple_id_attempted": "2026-07-01",
        "google_attempted": "2026-07-01",
        "payment": {}
      }
    },
    {
      "type": "Feature",
      "geometry": {
        "type": "Point",
        "coordinates": [
          13.2191226,
          47.4208897
        ]
      },
      "properties": {
        "id": "tk_at5r_osm_n2358448892",
        "name": "Trafik",
        "address": {
          "street": "Salzburger Straße",
          "number": "32",
          "city": "Bischofshofen"
        },
        "sources": [
          {
            "type": "osm",
            "id": "node/2358448892",
            "version": 0
          }
        ],
        "created": "2026-05-29",
        "updated": "2026-07-13",
        "sources_by_field": {
          "name": "osm",
          "address.street": "osm",
          "address.number": "osm",
          "address.city": "osm"
        },
        "apple_id_attempted": "2026-07-01",
        "google_attempted": "2026-07-01",
        "payment": {}
      }
    },
    {
      "type": "Feature",
      "geometry": {
        "type": "Point",
        "coordinates": [
          13.219936,
          47.3951486
        ]
      },
      "properties": {
        "id": "tk_at5r_osm_n2358463428",
        "name": "Trafik",
        "address": {
          "street": "Bundesstraße",
          "number": "13a",
          "city": "Bischofshofen"
        },
        "sources": [
          {
            "type": "osm",
            "id": "node/2358463428",
            "version": 0
          }
        ],
        "created": "2026-05-29",
        "updated": "2026-07-13",
        "sources_by_field": {
          "name": "osm",
          "address.street": "osm",
          "address.number": "osm",
          "address.city": "osm"
        },
        "apple_id_attempted": "2026-07-01",
        "google_attempted": "2026-07-01",
        "payment": {}
      }
    },
    {
      "type": "Feature",
      "geometry": {
        "type": "Point",
        "coordinates": [
          13.0491961,
          47.2976945
        ]
      },
      "properties": {
        "id": "tk_at5r_osm_n2358686718",
        "name": "Tarfik",
        "address": {},
        "sources": [
          {
            "type": "osm",
            "id": "node/2358686718",
            "version": 0
          }
        ],
        "created": "2026-05-29",
        "updated": "2026-07-13",
        "tags": [
          "barrierefrei"
        ],
        "sources_by_field": {
          "name": "osm"
        },
        "apple_id_attempted": "2026-07-01",
        "google_attempted": "2026-07-01",
        "payment": {}
      }
    },
    {
      "type": "Feature",
      "geometry": {
        "type": "Point",
        "coordinates": [
          13.0423517,
          47.8010315
        ]
      },
      "properties": {
        "id": "tk_at5r_osm_n2377505779",
        "name": "Nachttrafik",
        "address": {},
        "sources": [
          {
            "type": "osm",
            "id": "node/2377505779",
            "version": 0
          }
        ],
        "created": "2026-05-29",
        "updated": "2026-07-13",
        "tags": [
          "barrierefrei"
        ],
        "sources_by_field": {
          "name": "osm"
        },
        "apple_id_attempted": "2026-07-01",
        "google_attempted": "2026-07-01",
        "payment": {}
      }
    },
    {
      "type": "Feature",
      "geometry": {
        "type": "Point",
        "coordinates": [
          12.8252824,
          47.2318018
        ]
      },
      "properties": {
        "id": "tk_at5r_osm_n288378147",
        "name": "LM Energy",
        "address": {},
        "sources": [
          {
            "type": "osm",
            "id": "node/288378147",
            "version": 0
          }
        ],
        "created": "2026-05-29",
        "updated": "2026-07-13",
        "sources_by_field": {
          "name": "osm"
        },
        "apple_id_attempted": "2026-07-01",
        "google_attempted": "2026-07-01",
        "payment": {}
      }
    },
    {
      "type": "Feature",
      "geometry": {
        "type": "Point",
        "coordinates": [
          12.3482057,
          47.273512
        ]
      },
      "properties": {
        "id": "tk_at5r_osm_n3099093733",
        "name": "Trafik",
        "address": {
          "street": "Dorfstraße",
          "number": "18",
          "city": "Bramberg am Wildkogel"
        },
        "sources": [
          {
            "type": "osm",
            "id": "node/3099093733",
            "version": 0
          }
        ],
        "created": "2026-05-29",
        "updated": "2026-07-13",
        "sources_by_field": {
          "name": "osm",
          "address.street": "osm",
          "address.number": "osm",
          "address.city": "osm"
        },
        "apple_id_attempted": "2026-07-01",
        "google_attempted": "2026-07-01",
        "payment": {}
      }
    },
    {
      "type": "Feature",
      "geometry": {
        "type": "Point",
        "coordinates": [
          12.942858,
          47.9419239
        ]
      },
      "properties": {
        "id": "tk_at5r_osm_n4160608787",
        "name": "Trafik",
        "address": {},
        "sources": [
          {
            "type": "osm",
            "id": "node/4160608787",
            "version": 0
          }
        ],
        "created": "2026-05-29",
        "updated": "2026-07-13",
        "hours": {
          "raw": "Mo-Fr 06:00-18:30; Sa 07:00-12:00; Su,PH off"
        },
        "sources_by_field": {
          "name": "osm",
          "hours": "osm"
        },
        "apple_id_attempted": "2026-07-01",
        "google_attempted": "2026-07-01",
        "payment": {}
      }
    },
    {
      "type": "Feature",
      "geometry": {
        "type": "Point",
        "coordinates": [
          12.7925119,
          47.3039416
        ]
      },
      "properties": {
        "id": "tk_at5r_osm_n4429460252",
        "name": "Trafik",
        "address": {},
        "sources": [
          {
            "type": "osm",
            "id": "node/4429460252",
            "version": 0
          }
        ],
        "created": "2026-06-29",
        "updated": "2026-07-13",
        "sources_by_field": {
          "name": "osm"
        },
        "apple_id_attempted": "2026-07-01",
        "google_attempted": "2026-07-01",
        "payment": {}
      }
    },
    {
      "type": "Feature",
      "geometry": {
        "type": "Point",
        "coordinates": [
          12.7066525,
          47.5741855
        ]
      },
      "properties": {
        "id": "tk_at5r_osm_n5194169141",
        "name": "Cafe & Shop Campo",
        "address": {},
        "sources": [
          {
            "type": "osm",
            "id": "node/5194169141",
            "version": 0
          }
        ],
        "created": "2026-05-29",
        "updated": "2026-07-13",
        "hours": {
          "raw": "PH,Mo-Su 07:30-11:00, PH,We-Mo 15:00-17:00"
        },
        "sources_by_field": {
          "name": "osm",
          "hours": "osm"
        },
        "apple_id_attempted": "2026-07-01",
        "google_attempted": "2026-07-01",
        "payment": {}
      }
    },
    {
      "type": "Feature",
      "geometry": {
        "type": "Point",
        "coordinates": [
          13.0223134,
          47.805366
        ]
      },
      "properties": {
        "id": "tk_at5r_osm_n5338043470",
        "name": "Tabak Trafik",
        "address": {},
        "sources": [
          {
            "type": "osm",
            "id": "node/5338043470",
            "version": 0
          }
        ],
        "created": "2026-05-29",
        "updated": "2026-07-13",
        "hours": {
          "raw": "Mo-Fr 07:00-12:15,13:15-18:00; Sa 08:00-12:00; PH,Su off"
        },
        "sources_by_field": {
          "name": "osm",
          "hours": "osm"
        },
        "apple_id_attempted": "2026-07-01",
        "google_attempted": "2026-07-01",
        "payment": {}
      }
    },
    {
      "type": "Feature",
      "geometry": {
        "type": "Point",
        "coordinates": [
          13.0420222,
          47.8105958
        ]
      },
      "properties": {
        "id": "tk_at5r_osm_n5345095704",
        "name": "Tabak Trafik",
        "address": {},
        "sources": [
          {
            "type": "osm",
            "id": "node/5345095704",
            "version": 0
          }
        ],
        "created": "2026-05-29",
        "updated": "2026-07-13",
        "sources_by_field": {
          "name": "osm"
        },
        "apple_id_attempted": "2026-07-01",
        "google_attempted": "2026-07-01",
        "payment": {}
      }
    },
    {
      "type": "Feature",
      "geometry": {
        "type": "Point",
        "coordinates": [
          13.0388072,
          47.8110792
        ]
      },
      "properties": {
        "id": "tk_at5r_osm_n5589310750",
        "name": "Tabak Trafik",
        "address": {},
        "sources": [
          {
            "type": "osm",
            "id": "node/5589310750",
            "version": 0
          }
        ],
        "created": "2026-05-29",
        "updated": "2026-07-13",
        "sources_by_field": {
          "name": "osm"
        },
        "apple_id_attempted": "2026-07-01",
        "google_attempted": "2026-07-01",
        "payment": {}
      }
    },
    {
      "type": "Feature",
      "geometry": {
        "type": "Point",
        "coordinates": [
          13.0468763,
          47.8100085
        ]
      },
      "properties": {
        "id": "tk_at5r_osm_n619716529",
        "name": "Tabakladen",
        "address": {
          "street": "Gabelsbergerstraße",
          "number": "3",
          "city": "Salzburg"
        },
        "sources": [
          {
            "type": "osm",
            "id": "node/619716529",
            "version": 0
          }
        ],
        "created": "2026-05-29",
        "updated": "2026-07-13",
        "hours": {
          "raw": "Mo-Fr 06:00-18:00; Sa 07:00-13:00"
        },
        "sources_by_field": {
          "name": "osm",
          "address.street": "osm",
          "address.number": "osm",
          "address.city": "osm",
          "hours": "osm"
        },
        "apple_id_attempted": "2026-07-01",
        "google_attempted": "2026-07-01",
        "payment": {}
      }
    },
    {
      "type": "Feature",
      "geometry": {
        "type": "Point",
        "coordinates": [
          13.0409267,
          47.8190331
        ]
      },
      "properties": {
        "id": "tk_at5r_osm_n619716646",
        "name": "Kiosk",
        "address": {},
        "sources": [
          {
            "type": "osm",
            "id": "node/619716646",
            "version": 0
          }
        ],
        "created": "2026-05-29",
        "updated": "2026-07-13",
        "sources_by_field": {
          "name": "osm"
        },
        "apple_id_attempted": "2026-07-01",
        "google_attempted": "2026-07-01",
        "payment": {}
      }
    },
    {
      "type": "Feature",
      "geometry": {
        "type": "Point",
        "coordinates": [
          13.0038998,
          47.8532862
        ]
      },
      "properties": {
        "id": "tk_at5r_osm_w117238480",
        "name": "Ueberfuhrs Radlertreff",
        "address": {},
        "sources": [
          {
            "type": "osm",
            "id": "way/117238480",
            "version": 0
          }
        ],
        "created": "2026-05-29",
        "updated": "2026-07-13",
        "hours": {
          "raw": "Sa 13:00-20:00; Su 10:00-20:00; PH 10:00-20:00"
        },
        "tags": [
          "draussen"
        ],
        "sources_by_field": {
          "name": "osm",
          "hours": "osm"
        },
        "apple_id_attempted": "2026-07-01",
        "google_attempted": "2026-07-01",
        "payment": {}
      }
    },
    {
      "type": "Feature",
      "geometry": {
        "type": "Point",
        "coordinates": [
          13.0930671,
          47.6825723
        ]
      },
      "properties": {
        "id": "tk_at5r_osm_w258505130",
        "name": "Tabak Trafik",
        "address": {},
        "sources": [
          {
            "type": "osm",
            "id": "way/258505130",
            "version": 0
          }
        ],
        "created": "2026-05-29",
        "updated": "2026-07-13",
        "hours": {
          "raw": "Mo-Fr 07:00-18:30; Sa 06:00-14:00"
        },
        "sources_by_field": {
          "name": "osm",
          "hours": "osm"
        },
        "apple_id_attempted": "2026-07-01",
        "google_attempted": "2026-07-01",
        "payment": {}
      }
    },
    {
      "type": "Feature",
      "geometry": {
        "type": "Point",
        "coordinates": [
          13.0598093,
          47.7983654
        ]
      },
      "properties": {
        "id": "tk_at5r_osm_w383583804",
        "name": "Gastro-Kiosk",
        "address": {},
        "sources": [
          {
            "type": "osm",
            "id": "way/383583804",
            "version": 0
          }
        ],
        "created": "2026-05-29",
        "updated": "2026-07-13",
        "tags": [
          "barrierefrei"
        ],
        "sources_by_field": {
          "name": "osm"
        },
        "apple_id_attempted": "2026-07-01",
        "google_attempted": "2026-07-01",
        "payment": {}
      }
    },
    {
      "type": "Feature",
      "geometry": {
        "type": "Point",
        "coordinates": [
          13.2952794,
          47.3337421
        ]
      },
      "properties": {
        "id": "tk_at5r_osm_w400594828",
        "name": "Trafik",
        "address": {
          "street": "Markt",
          "number": "143",
          "city": "Wagrain"
        },
        "sources": [
          {
            "type": "osm",
            "id": "way/400594828",
            "version": 0
          }
        ],
        "created": "2026-05-29",
        "updated": "2026-07-13",
        "hours": {
          "raw": "Mo-Fr 07:00-12:00,15:00-18:00; Sa 07:00-12:00; Su,PH off"
        },
        "tags": [
          "raucherbereich"
        ],
        "sources_by_field": {
          "name": "osm",
          "address.street": "osm",
          "address.number": "osm",
          "address.city": "osm",
          "hours": "osm"
        },
        "apple_id_attempted": "2026-07-01",
        "google_attempted": "2026-07-01",
        "payment": {}
      }
    },
    {
      "type": "Feature",
      "geometry": {
        "type": "Point",
        "coordinates": [
          13.0700857,
          47.7984053
        ]
      },
      "properties": {
        "id": "tk_at5r_osm_w814553868",
        "name": "Tabak Trafik",
        "address": {
          "street": "Fadingerstraße",
          "number": "19",
          "city": "Salzburg"
        },
        "sources": [
          {
            "type": "osm",
            "id": "way/814553868",
            "version": 0
          }
        ],
        "created": "2026-05-29",
        "updated": "2026-07-13",
        "hours": {
          "raw": "Sa 08:00-12:00; Mo-Fr 07:45-18:00"
        },
        "tags": [
          "barrierefrei"
        ],
        "sources_by_field": {
          "name": "osm",
          "address.street": "osm",
          "address.number": "osm",
          "address.city": "osm",
          "hours": "osm"
        },
        "apple_id_attempted": "2026-07-01",
        "google_attempted": "2026-07-01",
        "payment": {}
      }
    },
    {
      "type": "Feature",
      "geometry": {
        "type": "Point",
        "coordinates": [
          13.0579205,
          47.7971771
        ]
      },
      "properties": {
        "id": "tk_at5r_osm_w986753228",
        "name": "Frohen Yoghurt & Schoko Softeis",
        "address": {},
        "sources": [
          {
            "type": "osm",
            "id": "way/986753228",
            "version": 0
          }
        ],
        "created": "2026-05-29",
        "updated": "2026-07-13",
        "tags": [
          "barrierefrei"
        ],
        "sources_by_field": {
          "name": "osm"
        },
        "apple_id_attempted": "2026-07-01",
        "google_attempted": "2026-07-01",
        "payment": {}
      }
    }
  ]
}
