{
  "type": "FeatureCollection",
  "features": [
    {
      "type": "Feature",
      "geometry": {
        "type": "Point",
        "coordinates": [
          9.4352174,
          51.3045798
        ]
      },
      "properties": {
        "id": "tk_ks_osm_n10009319886",
        "name": "Kiosk Schellberg",
        "address": {},
        "sources": [
          {
            "type": "osm",
            "id": "node/10009319886",
            "version": 0
          }
        ],
        "created": "2026-05-21",
        "updated": "2026-05-21",
        "hours": {
          "raw": "Mo 07:30-15:00; Tu 07:30-15:00; We 07:30-15:00; Th 07:30-15:00; Fr 07:30-15:00; Sa 12:00-13:30; PH off"
        },
        "payment_attempted": "2026-05-22"
      }
    },
    {
      "type": "Feature",
      "geometry": {
        "type": "Point",
        "coordinates": [
          9.4671714,
          51.3066489
        ]
      },
      "properties": {
        "id": "tk_ks_osm_n10139248817",
        "name": "Rewe Getränkemarkt",
        "address": {},
        "sources": [
          {
            "type": "osm",
            "id": "node/10139248817",
            "version": 0
          },
          {
            "type": "gmaps",
            "id": "payment"
          }
        ],
        "created": "2026-05-21",
        "updated": "2026-05-21",
        "payment": {
          "cards": "no",
          "girocard": "yes",
          "contactless": "yes"
        }
      }
    },
    {
      "type": "Feature",
      "geometry": {
        "type": "Point",
        "coordinates": [
          9.5006829,
          51.318142
        ]
      },
      "properties": {
        "id": "tk_ks_osm_n10226150506",
        "name": "tramway",
        "address": {},
        "sources": [
          {
            "type": "osm",
            "id": "node/10226150506",
            "version": 0
          }
        ],
        "created": "2026-05-21",
        "updated": "2026-05-21",
        "payment_attempted": "2026-05-22"
      }
    },
    {
      "type": "Feature",
      "geometry": {
        "type": "Point",
        "coordinates": [
          9.4914775,
          51.3168411
        ]
      },
      "properties": {
        "id": "tk_ks_osm_n10265651050",
        "name": "Tewelde Shop",
        "address": {},
        "sources": [
          {
            "type": "osm",
            "id": "node/10265651050",
            "version": 0
          },
          {
            "type": "gmaps",
            "id": "payment"
          }
        ],
        "created": "2026-05-21",
        "updated": "2026-05-21",
        "payment": {
          "cards": "yes"
        }
      }
    },
    {
      "type": "Feature",
      "geometry": {
        "type": "Point",
        "coordinates": [
          9.497902,
          51.3309456
        ]
      },
      "properties": {
        "id": "tk_ks_osm_n10595867911",
        "name": "Sinats Kiosk",
        "address": {
          "postalcode": "34127"
        },
        "sources": [
          {
            "type": "osm",
            "id": "node/10595867911",
            "version": 0
          }
        ],
        "created": "2026-05-21",
        "updated": "2026-05-21",
        "hours": {
          "raw": "Mo-Fr 08:00-00:00; Sa-Su 10:00-01:00"
        },
        "payment_attempted": "2026-05-22"
      }
    },
    {
      "type": "Feature",
      "geometry": {
        "type": "Point",
        "coordinates": [
          9.4864047,
          51.306691
        ]
      },
      "properties": {
        "id": "tk_ks_osm_n10694633219",
        "name": "Diamond Späti",
        "address": {
          "street": "Heckerstraße",
          "number": "71",
          "postalcode": "34121"
        },
        "sources": [
          {
            "type": "osm",
            "id": "node/10694633219",
            "version": 0
          },
          {
            "type": "gmaps",
            "id": "payment"
          }
        ],
        "created": "2026-05-21",
        "updated": "2026-05-21",
        "hours": {
          "raw": "Mo-Th, Sa 12:00-00:00; Fr 12:00-02:00"
        },
        "payment": {
          "cards": "yes",
          "girocard": "yes",
          "contactless": "yes"
        }
      }
    },
    {
      "type": "Feature",
      "geometry": {
        "type": "Point",
        "coordinates": [
          9.4991524,
          51.3206444
        ]
      },
      "properties": {
        "id": "tk_ks_osm_n10784090429",
        "name": "HWNET",
        "address": {},
        "sources": [
          {
            "type": "osm",
            "id": "node/10784090429",
            "version": 0
          }
        ],
        "created": "2026-05-21",
        "updated": "2026-05-21",
        "hours": {
          "raw": "Su-Th 09:00-23:00, Fr,Sa 09:00-02:00"
        },
        "payment_attempted": "2026-05-22"
      }
    },
    {
      "type": "Feature",
      "geometry": {
        "type": "Point",
        "coordinates": [
          9.5090324,
          51.3195087
        ]
      },
      "properties": {
        "id": "tk_ks_osm_n10819332872",
        "name": "Kiosk am Katzensprung",
        "address": {},
        "sources": [
          {
            "type": "osm",
            "id": "node/10819332872",
            "version": 0
          }
        ],
        "created": "2026-05-21",
        "updated": "2026-05-21",
        "payment_attempted": "2026-05-22"
      }
    },
    {
      "type": "Feature",
      "geometry": {
        "type": "Point",
        "coordinates": [
          9.4805569,
          51.2995937
        ]
      },
      "properties": {
        "id": "tk_ks_osm_n1137359291",
        "name": "Getränke Aschoff",
        "address": {
          "street": "Frankfurter Straße",
          "number": "128",
          "postalcode": "34121",
          "city": "Kassel"
        },
        "sources": [
          {
            "type": "osm",
            "id": "node/1137359291",
            "version": 0
          },
          {
            "type": "gmaps",
            "id": "payment"
          }
        ],
        "created": "2026-05-21",
        "updated": "2026-05-21",
        "hours": {
          "raw": "Mo-Sa 08:00-24:00"
        },
        "tags": [
          "barrierefrei"
        ],
        "payment": {
          "cards": "no",
          "girocard": "yes",
          "contactless": "yes"
        }
      }
    },
    {
      "type": "Feature",
      "geometry": {
        "type": "Point",
        "coordinates": [
          9.4689995,
          51.2910078
        ]
      },
      "properties": {
        "id": "tk_ks_osm_n11799830424",
        "name": "Späti34",
        "address": {
          "street": "Leuschnerstraße",
          "number": "27",
          "postalcode": "34134",
          "city": "Kassel"
        },
        "sources": [
          {
            "type": "osm",
            "id": "node/11799830424",
            "version": 0
          }
        ],
        "created": "2026-05-21",
        "updated": "2026-05-21",
        "hours": {
          "raw": "Mo-Th 09:00-01:00; Fr 09:00-03:00; Sa 10:00-00:00; Su off"
        },
        "payment_attempted": "2026-05-22"
      }
    },
    {
      "type": "Feature",
      "geometry": {
        "type": "Point",
        "coordinates": [
          9.4948026,
          51.3146295
        ]
      },
      "properties": {
        "id": "tk_ks_osm_n12985105104",
        "name": "KÖ Kiosk",
        "address": {
          "street": "Obere Königsstraße",
          "number": "39",
          "postalcode": "34117",
          "city": "Kassel"
        },
        "sources": [
          {
            "type": "osm",
            "id": "node/12985105104",
            "version": 0
          },
          {
            "type": "gmaps",
            "id": "payment"
          }
        ],
        "created": "2026-05-21",
        "updated": "2026-05-22",
        "hours": {
          "raw": "Mo-Sa 10:00-19:00"
        },
        "payment": {
          "girocard": "yes",
          "cards": "no",
          "contactless": "yes"
        }
      }
    },
    {
      "type": "Feature",
      "geometry": {
        "type": "Point",
        "coordinates": [
          9.4950048,
          51.3146044
        ]
      },
      "properties": {
        "id": "tk_ks_osm_n12985125808",
        "name": "Up2late",
        "address": {
          "street": "Obere Königsstraße",
          "number": "39",
          "postalcode": "34117",
          "city": "Kassel"
        },
        "sources": [
          {
            "type": "osm",
            "id": "node/12985125808",
            "version": 0
          }
        ],
        "created": "2026-05-21",
        "updated": "2026-05-21",
        "hours": {
          "raw": "Mo-Sa 10:00-19:00"
        },
        "payment_attempted": "2026-05-22"
      }
    },
    {
      "type": "Feature",
      "geometry": {
        "type": "Point",
        "coordinates": [
          9.4997618,
          51.3151945
        ]
      },
      "properties": {
        "id": "tk_ks_osm_n13116562101",
        "name": "Späti am Entenanger",
        "address": {},
        "sources": [
          {
            "type": "osm",
            "id": "node/13116562101",
            "version": 0
          }
        ],
        "created": "2026-05-21",
        "updated": "2026-05-21",
        "payment_attempted": "2026-05-22"
      }
    },
    {
      "type": "Feature",
      "geometry": {
        "type": "Point",
        "coordinates": [
          9.5006969,
          51.3240724
        ]
      },
      "properties": {
        "id": "tk_ks_osm_n13127738932",
        "name": "Nord-Holland Kiosk",
        "address": {
          "street": "Holländische Straße",
          "number": "45",
          "postalcode": "34127",
          "city": "Kassel"
        },
        "sources": [
          {
            "type": "osm",
            "id": "node/13127738932",
            "version": 0
          },
          {
            "type": "gmaps",
            "id": "payment"
          }
        ],
        "created": "2026-05-21",
        "updated": "2026-05-21",
        "hours": {
          "raw": "Mo-Th 09:30-24:00, Fr,Sa 09:30-02:00"
        },
        "payment": {
          "cards": "yes",
          "girocard": "yes",
          "contactless": "yes"
        }
      }
    },
    {
      "type": "Feature",
      "geometry": {
        "type": "Point",
        "coordinates": [
          9.4327894,
          51.3333143
        ]
      },
      "properties": {
        "id": "tk_ks_osm_n13266138123",
        "name": "nahkauf Getränkemarkt",
        "address": {},
        "sources": [
          {
            "type": "osm",
            "id": "node/13266138123",
            "version": 0
          },
          {
            "type": "gmaps",
            "id": "payment"
          }
        ],
        "created": "2026-05-21",
        "updated": "2026-05-21",
        "hours": {
          "raw": "Mo-Sa 07:00-22:00"
        },
        "tags": [
          "barrierefrei"
        ],
        "payment": {
          "cards": "yes",
          "girocard": "yes",
          "contactless": "yes"
        }
      }
    },
    {
      "type": "Feature",
      "geometry": {
        "type": "Point",
        "coordinates": [
          9.4404696,
          51.3340005
        ]
      },
      "properties": {
        "id": "tk_ks_osm_n13355947490",
        "name": "das Kiosk Harleshusen",
        "address": {
          "street": "Harleshäuser Straße",
          "number": "121",
          "postalcode": "34128",
          "city": "Kassel"
        },
        "sources": [
          {
            "type": "osm",
            "id": "node/13355947490",
            "version": 0
          },
          {
            "type": "gmaps",
            "id": "payment"
          }
        ],
        "created": "2026-05-21",
        "updated": "2026-05-21",
        "hours": {
          "raw": "Mo-Fr 09:30-21:00; Sa 10:00-13:30"
        },
        "payment": {
          "girocard": "yes",
          "cards": "yes"
        }
      }
    },
    {
      "type": "Feature",
      "geometry": {
        "type": "Point",
        "coordinates": [
          9.474374,
          51.315919
        ]
      },
      "properties": {
        "id": "tk_ks_osm_n1378334567",
        "name": "Nr. 94",
        "address": {},
        "sources": [
          {
            "type": "osm",
            "id": "node/1378334567",
            "version": 0
          }
        ],
        "created": "2026-05-21",
        "updated": "2026-05-21",
        "hours": {
          "raw": "Mo-Fr 07:30-18:00; Sa 07:30-13:00"
        },
        "payment_attempted": "2026-05-22"
      }
    },
    {
      "type": "Feature",
      "geometry": {
        "type": "Point",
        "coordinates": [
          9.5047813,
          51.3156815
        ]
      },
      "properties": {
        "id": "tk_ks_osm_n13824817336",
        "name": "Späti Vibez",
        "address": {},
        "sources": [
          {
            "type": "osm",
            "id": "node/13824817336",
            "version": 0
          },
          {
            "type": "gmaps",
            "id": "payment"
          }
        ],
        "created": "2026-05-21",
        "updated": "2026-05-21",
        "payment": {
          "cards": "no",
          "girocard": "yes",
          "contactless": "yes"
        }
      }
    },
    {
      "type": "Feature",
      "geometry": {
        "type": "Point",
        "coordinates": [
          9.6480436,
          51.2190763
        ]
      },
      "properties": {
        "id": "tk_ks_osm_n13836489263",
        "name": "Kleine Rast St. Ottilien",
        "address": {},
        "sources": [
          {
            "type": "osm",
            "id": "node/13836489263",
            "version": 0
          }
        ],
        "created": "2026-05-21",
        "updated": "2026-05-21",
        "payment_attempted": "2026-05-22"
      }
    },
    {
      "type": "Feature",
      "geometry": {
        "type": "Point",
        "coordinates": [
          9.4819841,
          51.3119158
        ]
      },
      "properties": {
        "id": "tk_ks_osm_n1589163910",
        "name": "Dr. Durst",
        "address": {
          "street": "Wilhelmshöher Allee",
          "number": "32",
          "postalcode": "34117",
          "city": "Kassel"
        },
        "sources": [
          {
            "type": "osm",
            "id": "node/1589163910",
            "version": 0
          }
        ],
        "created": "2026-05-21",
        "updated": "2026-05-21",
        "hours": {
          "raw": "Mo-Fr 09:00-19:00; Sa-Su 12:00-20:00"
        },
        "payment": {
          "cash": "yes",
          "cards": "yes",
          "contactless": "unknown",
          "girocard": "yes",
          "mobile": "unknown"
        },
        "tags": [
          "barrierefrei"
        ]
      }
    },
    {
      "type": "Feature",
      "geometry": {
        "type": "Point",
        "coordinates": [
          9.5136563,
          51.3234959
        ]
      },
      "properties": {
        "id": "tk_ks_osm_n1685768341",
        "name": "Sessinna's Back&Shop",
        "address": {
          "street": "Fuldatalstraße",
          "number": "2",
          "postalcode": "34125",
          "city": "Kassel"
        },
        "sources": [
          {
            "type": "osm",
            "id": "node/1685768341",
            "version": 0
          }
        ],
        "created": "2026-05-21",
        "updated": "2026-05-21",
        "hours": {
          "raw": "Mo-Fr 10:00-14:00,15:00-20:00; Sa 11:00-18:00"
        },
        "payment_attempted": "2026-05-22"
      }
    },
    {
      "type": "Feature",
      "geometry": {
        "type": "Point",
        "coordinates": [
          9.4977871,
          51.3170929
        ]
      },
      "properties": {
        "id": "tk_ks_osm_n1927909992",
        "name": "Späti Zeitlos",
        "address": {},
        "sources": [
          {
            "type": "osm",
            "id": "node/1927909992",
            "version": 0
          }
        ],
        "created": "2026-05-21",
        "updated": "2026-05-21",
        "payment_attempted": "2026-05-22"
      }
    },
    {
      "type": "Feature",
      "geometry": {
        "type": "Point",
        "coordinates": [
          9.4646005,
          51.3157542
        ]
      },
      "properties": {
        "id": "tk_ks_osm_n1944520897",
        "name": "Tabak-Eck",
        "address": {
          "street": "Friedrich-Ebert-Straße",
          "number": "153",
          "city": "Kassel"
        },
        "sources": [
          {
            "type": "osm",
            "id": "node/1944520897",
            "version": 0
          },
          {
            "type": "gmaps",
            "id": "payment"
          }
        ],
        "created": "2026-05-21",
        "updated": "2026-05-21",
        "hours": {
          "raw": "Mo-Fr 08:00-18:30; Sa 08:30-15:00"
        },
        "payment": {
          "cards": "yes",
          "girocard": "yes",
          "contactless": "yes"
        }
      }
    },
    {
      "type": "Feature",
      "geometry": {
        "type": "Point",
        "coordinates": [
          9.4598351,
          51.3619045
        ]
      },
      "properties": {
        "id": "tk_ks_osm_n1977056684",
        "name": "EDEKA Getränkemarkt",
        "address": {},
        "sources": [
          {
            "type": "osm",
            "id": "node/1977056684",
            "version": 0
          }
        ],
        "created": "2026-05-21",
        "updated": "2026-05-21",
        "tags": [
          "barrierefrei"
        ],
        "payment_attempted": "2026-05-22"
      }
    },
    {
      "type": "Feature",
      "geometry": {
        "type": "Point",
        "coordinates": [
          9.4714965,
          51.3034444
        ]
      },
      "properties": {
        "id": "tk_ks_osm_n1997040941",
        "name": "Kiosk Auerstraße",
        "address": {},
        "sources": [
          {
            "type": "osm",
            "id": "node/1997040941",
            "version": 0
          },
          {
            "type": "gmaps",
            "id": "payment"
          }
        ],
        "created": "2026-05-21",
        "updated": "2026-05-21",
        "hours": {
          "raw": "Mo-Fr 09:00-11:00,13:00-18:00; Sa 09:00-13:00"
        },
        "payment": {
          "cards": "no",
          "girocard": "yes",
          "contactless": "yes"
        }
      }
    },
    {
      "type": "Feature",
      "geometry": {
        "type": "Point",
        "coordinates": [
          9.4491653,
          51.3548391
        ]
      },
      "properties": {
        "id": "tk_ks_osm_n2314962398",
        "name": "Getränke Quelle",
        "address": {},
        "sources": [
          {
            "type": "osm",
            "id": "node/2314962398",
            "version": 0
          },
          {
            "type": "gmaps",
            "id": "payment"
          }
        ],
        "created": "2026-05-21",
        "updated": "2026-05-21",
        "tags": [
          "barrierefrei"
        ],
        "payment": {
          "cards": "yes",
          "girocard": "yes",
          "contactless": "yes"
        }
      }
    },
    {
      "type": "Feature",
      "geometry": {
        "type": "Point",
        "coordinates": [
          9.4289433,
          51.2814041
        ]
      },
      "properties": {
        "id": "tk_ks_osm_n2398060477",
        "name": "Gabriels Boddel Shop",
        "address": {
          "street": "Bühlchenweg",
          "number": "14",
          "postalcode": "34132",
          "city": "Kassel"
        },
        "sources": [
          {
            "type": "osm",
            "id": "node/2398060477",
            "version": 0
          }
        ],
        "created": "2026-05-21",
        "updated": "2026-05-21",
        "hours": {
          "raw": "We-Fr 15:00-19:00; Sa 09:00-15:00"
        },
        "payment": {
          "cash": "yes",
          "cards": "unknown",
          "contactless": "unknown",
          "girocard": "unknown",
          "mobile": "unknown"
        }
      }
    },
    {
      "type": "Feature",
      "geometry": {
        "type": "Point",
        "coordinates": [
          9.3275155,
          51.43222
        ]
      },
      "properties": {
        "id": "tk_ks_osm_n2409515328",
        "name": "Tankshop Albert Beck",
        "address": {},
        "sources": [
          {
            "type": "osm",
            "id": "node/2409515328",
            "version": 0
          },
          {
            "type": "gmaps",
            "id": "payment"
          }
        ],
        "created": "2026-05-21",
        "updated": "2026-05-21",
        "payment": {
          "cards": "yes",
          "girocard": "yes",
          "contactless": "yes"
        }
      }
    },
    {
      "type": "Feature",
      "geometry": {
        "type": "Point",
        "coordinates": [
          9.5314741,
          51.327845
        ]
      },
      "properties": {
        "id": "tk_ks_osm_n2431129248",
        "name": "Heinemann",
        "address": {
          "street": "Fuldatalstraße",
          "number": "103",
          "postalcode": "34125",
          "city": "Kassel"
        },
        "sources": [
          {
            "type": "osm",
            "id": "node/2431129248",
            "version": 0
          }
        ],
        "created": "2026-05-21",
        "updated": "2026-05-21",
        "hours": {
          "raw": "Mo-Sa 09:00-13:00, Tu-Fr 15:00-18:00"
        },
        "payment_attempted": "2026-05-22"
      }
    },
    {
      "type": "Feature",
      "geometry": {
        "type": "Point",
        "coordinates": [
          9.5190878,
          51.2906991
        ]
      },
      "properties": {
        "id": "tk_ks_osm_n2433664359",
        "name": "ZweiDrei Kiosk",
        "address": {
          "street": "Görlitzer Straße",
          "number": "39",
          "postalcode": "34123",
          "city": "Kassel"
        },
        "sources": [
          {
            "type": "osm",
            "id": "node/2433664359",
            "version": 0
          },
          {
            "type": "gmaps",
            "id": "payment"
          }
        ],
        "created": "2026-05-21",
        "updated": "2026-05-21",
        "hours": {
          "raw": "Mo-Th 10:00-01:00, Fr 10:00-03:00, Sa 10:00-24:00"
        },
        "payment": {
          "cards": "no",
          "girocard": "yes"
        }
      }
    },
    {
      "type": "Feature",
      "geometry": {
        "type": "Point",
        "coordinates": [
          9.5067543,
          51.3179439
        ]
      },
      "properties": {
        "id": "tk_ks_osm_n2581369893",
        "name": "Oskar-von-Miller-Schule Kassel",
        "address": {},
        "sources": [
          {
            "type": "osm",
            "id": "node/2581369893",
            "version": 0
          }
        ],
        "created": "2026-05-21",
        "updated": "2026-05-21",
        "hours": {
          "raw": "Mo-Fr 9:30-9:45,11:15-11:30"
        },
        "payment_attempted": "2026-05-22"
      }
    },
    {
      "type": "Feature",
      "geometry": {
        "type": "Point",
        "coordinates": [
          9.4693147,
          51.3160145
        ]
      },
      "properties": {
        "id": "tk_ks_osm_n2601563832",
        "name": "Presse Heinz",
        "address": {
          "street": "Friedrich-Ebert-Straße",
          "number": "125",
          "postalcode": "34119"
        },
        "sources": [
          {
            "type": "osm",
            "id": "node/2601563832",
            "version": 0
          }
        ],
        "created": "2026-05-21",
        "updated": "2026-05-21",
        "hours": {
          "raw": "Mo-Th 07:30-13:00,14:30-18:00; Fr 07:30-18:00; Sa 07:30-13:00"
        },
        "payment_attempted": "2026-05-22"
      }
    },
    {
      "type": "Feature",
      "geometry": {
        "type": "Point",
        "coordinates": [
          9.5190588,
          51.2904923
        ]
      },
      "properties": {
        "id": "tk_ks_osm_n2603686069",
        "name": "REWE Getränkemarkt",
        "address": {
          "street": "Görlitzer Straße",
          "number": "39",
          "postalcode": "34123",
          "city": "Kassel"
        },
        "sources": [
          {
            "type": "osm",
            "id": "node/2603686069",
            "version": 0
          }
        ],
        "created": "2026-05-21",
        "updated": "2026-05-21",
        "hours": {
          "raw": "Mo-Sa 07:00-22:00"
        },
        "payment_attempted": "2026-05-22"
      }
    },
    {
      "type": "Feature",
      "geometry": {
        "type": "Point",
        "coordinates": [
          9.4857291,
          51.3053552
        ]
      },
      "properties": {
        "id": "tk_ks_osm_n2607097297",
        "name": "Kiosk Amiri",
        "address": {
          "street": "Frankfurter Straße",
          "number": "71",
          "postalcode": "34121",
          "city": "Kassel"
        },
        "sources": [
          {
            "type": "osm",
            "id": "node/2607097297",
            "version": 0
          },
          {
            "type": "gmaps",
            "id": "payment"
          }
        ],
        "created": "2026-05-21",
        "updated": "2026-05-21",
        "hours": {
          "raw": "Mo-Fr 09:00-19:00; Sa 09:00-19:00; Su off"
        },
        "payment": {
          "cards": "yes",
          "girocard": "yes",
          "contactless": "yes"
        }
      }
    },
    {
      "type": "Feature",
      "geometry": {
        "type": "Point",
        "coordinates": [
          9.531424,
          51.3037267
        ]
      },
      "properties": {
        "id": "tk_ks_osm_n2620045960",
        "name": "Buntes Lädchen",
        "address": {
          "street": "Dormannweg",
          "number": "1"
        },
        "sources": [
          {
            "type": "osm",
            "id": "node/2620045960",
            "version": 0
          }
        ],
        "created": "2026-05-21",
        "updated": "2026-05-21",
        "payment_attempted": "2026-05-22"
      }
    },
    {
      "type": "Feature",
      "geometry": {
        "type": "Point",
        "coordinates": [
          9.4452113,
          51.3131218
        ]
      },
      "properties": {
        "id": "tk_ks_osm_n2620212655",
        "name": "Birman",
        "address": {
          "street": "Wilhelmshöher Allee",
          "number": "253",
          "postalcode": "34131",
          "city": "Kassel"
        },
        "sources": [
          {
            "type": "osm",
            "id": "node/2620212655",
            "version": 0
          }
        ],
        "created": "2026-05-21",
        "updated": "2026-05-21",
        "hours": {
          "raw": "Mo-Fr 07:00-18:30; Sa 07:00-16:00"
        },
        "payment_attempted": "2026-05-22"
      }
    },
    {
      "type": "Feature",
      "geometry": {
        "type": "Point",
        "coordinates": [
          9.5037399,
          51.3194458
        ]
      },
      "properties": {
        "id": "tk_ks_osm_n2633518509",
        "name": "Kiosk Viji",
        "address": {
          "street": "Bremer Straße",
          "number": "18",
          "postalcode": "34117",
          "city": "Kassel"
        },
        "sources": [
          {
            "type": "osm",
            "id": "node/2633518509",
            "version": 0
          }
        ],
        "created": "2026-05-21",
        "updated": "2026-05-21",
        "hours": {
          "raw": "Tu-Fr 09:30-23:00; Sa,Su 14:00-23:00"
        },
        "payment_attempted": "2026-05-22"
      }
    },
    {
      "type": "Feature",
      "geometry": {
        "type": "Point",
        "coordinates": [
          9.4996816,
          51.3193314
        ]
      },
      "properties": {
        "id": "tk_ks_osm_n2638543604",
        "name": "Bei Bertal",
        "address": {},
        "sources": [
          {
            "type": "osm",
            "id": "node/2638543604",
            "version": 0
          }
        ],
        "created": "2026-05-21",
        "updated": "2026-05-21",
        "hours": {
          "raw": "Mo-Fr 08:00-22:00; Sa 09:00-22:00; Su,PH 10:00-21:00"
        },
        "payment_attempted": "2026-05-22"
      }
    },
    {
      "type": "Feature",
      "geometry": {
        "type": "Point",
        "coordinates": [
          9.5008796,
          51.3192933
        ]
      },
      "properties": {
        "id": "tk_ks_osm_n2638543616",
        "name": "Kiosk am Stern",
        "address": {},
        "sources": [
          {
            "type": "osm",
            "id": "node/2638543616",
            "version": 0
          },
          {
            "type": "gmaps",
            "id": "payment"
          }
        ],
        "created": "2026-05-21",
        "updated": "2026-05-21",
        "hours": {
          "raw": "Mo-Th 09:00-01:00, Fr,Sa 09:00-02:00, Su 14:00-20:00"
        },
        "payment": {
          "girocard": "yes",
          "cards": "no",
          "contactless": "yes"
        }
      }
    },
    {
      "type": "Feature",
      "geometry": {
        "type": "Point",
        "coordinates": [
          9.5300301,
          51.3060331
        ]
      },
      "properties": {
        "id": "tk_ks_osm_n2661116795",
        "name": "Frank Roßmann",
        "address": {},
        "sources": [
          {
            "type": "osm",
            "id": "node/2661116795",
            "version": 0
          },
          {
            "type": "gmaps",
            "id": "payment"
          }
        ],
        "created": "2026-05-21",
        "updated": "2026-05-21",
        "hours": {
          "raw": "Tu-Fr 15:00-18:00; Sa 09:00-12:30"
        },
        "payment": {
          "cards": "yes",
          "girocard": "yes"
        }
      }
    },
    {
      "type": "Feature",
      "geometry": {
        "type": "Point",
        "coordinates": [
          9.5440269,
          51.3177829
        ]
      },
      "properties": {
        "id": "tk_ks_osm_n2663313469",
        "name": "Presselädchen",
        "address": {},
        "sources": [
          {
            "type": "osm",
            "id": "node/2663313469",
            "version": 0
          }
        ],
        "created": "2026-05-21",
        "updated": "2026-05-21",
        "payment_attempted": "2026-05-22"
      }
    },
    {
      "type": "Feature",
      "geometry": {
        "type": "Point",
        "coordinates": [
          9.5034754,
          51.3244936
        ]
      },
      "properties": {
        "id": "tk_ks_osm_n2663611744",
        "name": "3E-Kiosk 24/7",
        "address": {
          "street": "Gottschalkstraße",
          "number": "41",
          "city": "Kassel"
        },
        "sources": [
          {
            "type": "osm",
            "id": "node/2663611744",
            "version": 0
          }
        ],
        "created": "2026-05-21",
        "updated": "2026-05-21",
        "hours": {
          "raw": "Mo-Su,PH 00:00-00:00"
        },
        "payment_attempted": "2026-05-22"
      }
    },
    {
      "type": "Feature",
      "geometry": {
        "type": "Point",
        "coordinates": [
          9.4910649,
          51.3367662
        ]
      },
      "properties": {
        "id": "tk_ks_osm_n2690794978",
        "name": "Kiosk Schulze",
        "address": {},
        "sources": [
          {
            "type": "osm",
            "id": "node/2690794978",
            "version": 0
          }
        ],
        "created": "2026-05-21",
        "updated": "2026-05-21",
        "hours": {
          "raw": "Mo-Fr 07:30-19:30;Sa-Su 10:00-19:30"
        },
        "payment_attempted": "2026-05-22"
      }
    },
    {
      "type": "Feature",
      "geometry": {
        "type": "Point",
        "coordinates": [
          9.4784562,
          51.3152325
        ]
      },
      "properties": {
        "id": "tk_ks_osm_n2709148878",
        "name": "Fritze Kiosk",
        "address": {
          "street": "Friedrich-Ebert-Straße",
          "number": "73"
        },
        "sources": [
          {
            "type": "osm",
            "id": "node/2709148878",
            "version": 0
          },
          {
            "type": "gmaps",
            "id": "payment"
          }
        ],
        "created": "2026-05-21",
        "updated": "2026-05-21",
        "hours": {
          "raw": "Mo-Th 07:00-23:00, Fr 07:00-03:00, Sa 09:00-12:00, Su 12:00-22:00"
        },
        "payment": {
          "girocard": "yes",
          "cards": "no",
          "contactless": "yes"
        }
      }
    },
    {
      "type": "Feature",
      "geometry": {
        "type": "Point",
        "coordinates": [
          9.4983361,
          51.3450995
        ]
      },
      "properties": {
        "id": "tk_ks_osm_n2771889564",
        "name": "Kiosk Niemeyer",
        "address": {},
        "sources": [
          {
            "type": "osm",
            "id": "node/2771889564",
            "version": 0
          }
        ],
        "created": "2026-05-21",
        "updated": "2026-05-21",
        "payment_attempted": "2026-05-22"
      }
    },
    {
      "type": "Feature",
      "geometry": {
        "type": "Point",
        "coordinates": [
          9.5131303,
          51.3332641
        ]
      },
      "properties": {
        "id": "tk_ks_osm_n2773252874",
        "name": "Bachmanns Lädchen",
        "address": {
          "street": "Ihringshäuser Straße",
          "number": "77"
        },
        "sources": [
          {
            "type": "osm",
            "id": "node/2773252874",
            "version": 0
          },
          {
            "type": "gmaps",
            "id": "payment"
          }
        ],
        "created": "2026-05-21",
        "updated": "2026-05-21",
        "hours": {
          "raw": "Tu-Fr 08:00-12:30,15:00-18:00; Sa 08:00-12:30; Mo off"
        },
        "payment": {
          "girocard": "yes",
          "cards": "no",
          "contactless": "yes"
        }
      }
    },
    {
      "type": "Feature",
      "geometry": {
        "type": "Point",
        "coordinates": [
          9.5256507,
          51.3071999
        ]
      },
      "properties": {
        "id": "tk_ks_osm_n2893285878",
        "name": "Getränke Jungk",
        "address": {
          "street": "Großalmeroder Straße",
          "number": "40"
        },
        "sources": [
          {
            "type": "osm",
            "id": "node/2893285878",
            "version": 0
          }
        ],
        "created": "2026-05-21",
        "updated": "2026-05-21",
        "tags": [
          "barrierefrei"
        ],
        "payment_attempted": "2026-05-22"
      }
    },
    {
      "type": "Feature",
      "geometry": {
        "type": "Point",
        "coordinates": [
          9.5603692,
          51.301862
        ]
      },
      "properties": {
        "id": "tk_ks_osm_n2982602871",
        "name": "Edeka Horchler Getränke",
        "address": {
          "street": "Helsaer Straße",
          "number": "54"
        },
        "sources": [
          {
            "type": "osm",
            "id": "node/2982602871",
            "version": 0
          }
        ],
        "created": "2026-05-21",
        "updated": "2026-05-21",
        "payment_attempted": "2026-05-22"
      }
    },
    {
      "type": "Feature",
      "geometry": {
        "type": "Point",
        "coordinates": [
          9.5444483,
          51.2930088
        ]
      },
      "properties": {
        "id": "tk_ks_osm_n3076014774",
        "name": "Zur Forststube",
        "address": {},
        "sources": [
          {
            "type": "osm",
            "id": "node/3076014774",
            "version": 0
          }
        ],
        "created": "2026-05-21",
        "updated": "2026-05-21",
        "payment_attempted": "2026-05-22"
      }
    },
    {
      "type": "Feature",
      "geometry": {
        "type": "Point",
        "coordinates": [
          9.6441748,
          51.411339
        ]
      },
      "properties": {
        "id": "tk_ks_osm_n3309126624",
        "name": "Logo",
        "address": {
          "street": "Wilhelmshäuser Straße",
          "postalcode": "34346",
          "city": "Hann. Münden"
        },
        "sources": [
          {
            "type": "osm",
            "id": "node/3309126624",
            "version": 0
          },
          {
            "type": "gmaps",
            "id": "payment"
          }
        ],
        "created": "2026-05-21",
        "updated": "2026-05-21",
        "tags": [
          "barrierefrei"
        ],
        "payment": {
          "cards": "no",
          "girocard": "yes",
          "contactless": "yes"
        }
      }
    },
    {
      "type": "Feature",
      "geometry": {
        "type": "Point",
        "coordinates": [
          9.4911745,
          51.3124505
        ]
      },
      "properties": {
        "id": "tk_ks_osm_n3430154163",
        "name": "10/10 Kiosk",
        "address": {
          "street": "Fünffensterstraße",
          "number": "9",
          "postalcode": "34117",
          "city": "Kassel"
        },
        "sources": [
          {
            "type": "osm",
            "id": "node/3430154163",
            "version": 0
          },
          {
            "type": "gmaps",
            "id": "payment"
          }
        ],
        "created": "2026-05-21",
        "updated": "2026-05-21",
        "payment": {
          "cards": "yes",
          "girocard": "yes"
        }
      }
    },
    {
      "type": "Feature",
      "geometry": {
        "type": "Point",
        "coordinates": [
          9.4997325,
          51.3176263
        ]
      },
      "properties": {
        "id": "tk_ks_osm_n3430280410",
        "name": "Späti am Stern",
        "address": {},
        "sources": [
          {
            "type": "osm",
            "id": "node/3430280410",
            "version": 0
          }
        ],
        "created": "2026-05-21",
        "updated": "2026-05-21",
        "hours": {
          "raw": "Mo-Th 08:00-24:00, Fr 08:00-02:00, Sa 09:00-24:00"
        },
        "payment_attempted": "2026-05-22"
      }
    },
    {
      "type": "Feature",
      "geometry": {
        "type": "Point",
        "coordinates": [
          9.4999096,
          51.3241061
        ]
      },
      "properties": {
        "id": "tk_ks_osm_n3528199474",
        "name": "REWE Getränkemarkt",
        "address": {
          "street": "Westring",
          "number": "40-42",
          "city": "Kassel"
        },
        "sources": [
          {
            "type": "osm",
            "id": "node/3528199474",
            "version": 0
          }
        ],
        "created": "2026-05-21",
        "updated": "2026-05-21",
        "hours": {
          "raw": "Mo-Fr 07:00-24:00; Sa 07:00-23:30; Su off"
        },
        "tags": [
          "barrierefrei"
        ],
        "payment_attempted": "2026-05-22"
      }
    },
    {
      "type": "Feature",
      "geometry": {
        "type": "Point",
        "coordinates": [
          9.5020266,
          51.3225307
        ]
      },
      "properties": {
        "id": "tk_ks_osm_n3723618104",
        "name": "Afrika Kiosk Kassel",
        "address": {
          "street": "Holländische Straße",
          "number": "26",
          "postalcode": "34127",
          "city": "Kassel"
        },
        "sources": [
          {
            "type": "osm",
            "id": "node/3723618104",
            "version": 0
          }
        ],
        "created": "2026-05-21",
        "updated": "2026-05-21",
        "hours": {
          "raw": "Mo-Sa 11:00-20:00"
        },
        "payment_attempted": "2026-05-22"
      }
    },
    {
      "type": "Feature",
      "geometry": {
        "type": "Point",
        "coordinates": [
          9.5034463,
          51.3241656
        ]
      },
      "properties": {
        "id": "tk_ks_osm_n3729503904",
        "name": "Laden 39,5",
        "address": {},
        "sources": [
          {
            "type": "osm",
            "id": "node/3729503904",
            "version": 0
          },
          {
            "type": "gmaps",
            "id": "payment"
          }
        ],
        "created": "2026-05-21",
        "updated": "2026-05-21",
        "hours": {
          "raw": "Mo-Su 10:00-24:00"
        },
        "payment": {
          "girocard": "yes",
          "cards": "no",
          "contactless": "yes"
        }
      }
    },
    {
      "type": "Feature",
      "geometry": {
        "type": "Point",
        "coordinates": [
          9.501337,
          51.3266619
        ]
      },
      "properties": {
        "id": "tk_ks_osm_n3736089913",
        "name": "Kiosk 22",
        "address": {},
        "sources": [
          {
            "type": "osm",
            "id": "node/3736089913",
            "version": 0
          }
        ],
        "created": "2026-05-21",
        "updated": "2026-05-21",
        "hours": {
          "raw": "Mo-Fr 06:30-20:00; Sa 08:00-24:00"
        },
        "payment_attempted": "2026-05-22"
      }
    },
    {
      "type": "Feature",
      "geometry": {
        "type": "Point",
        "coordinates": [
          9.409498,
          51.2528458
        ]
      },
      "properties": {
        "id": "tk_ks_osm_n3884816796",
        "name": "Kiosk am ZOB",
        "address": {},
        "sources": [
          {
            "type": "osm",
            "id": "node/3884816796",
            "version": 0
          }
        ],
        "created": "2026-05-21",
        "updated": "2026-05-21",
        "payment_attempted": "2026-05-22"
      }
    },
    {
      "type": "Feature",
      "geometry": {
        "type": "Point",
        "coordinates": [
          9.5017068,
          51.3215024
        ]
      },
      "properties": {
        "id": "tk_ks_osm_n4004032988",
        "name": "Habesha Kiosk",
        "address": {
          "street": "Holländische Straße",
          "number": "17",
          "postalcode": "34127",
          "city": "Kassel"
        },
        "sources": [
          {
            "type": "osm",
            "id": "node/4004032988",
            "version": 0
          }
        ],
        "created": "2026-05-21",
        "updated": "2026-05-21",
        "payment_attempted": "2026-05-22"
      }
    },
    {
      "type": "Feature",
      "geometry": {
        "type": "Point",
        "coordinates": [
          9.5505488,
          51.3214889
        ]
      },
      "properties": {
        "id": "tk_ks_osm_n404579030",
        "name": "Holländisches Eck",
        "address": {},
        "sources": [
          {
            "type": "osm",
            "id": "node/404579030",
            "version": 0
          }
        ],
        "created": "2026-05-21",
        "updated": "2026-05-21",
        "tags": [
          "barrierefrei"
        ],
        "payment_attempted": "2026-05-22"
      }
    },
    {
      "type": "Feature",
      "geometry": {
        "type": "Point",
        "coordinates": [
          9.4425917,
          51.2795302
        ]
      },
      "properties": {
        "id": "tk_ks_osm_n4139535400",
        "name": "Kiosk am Brückenhof",
        "address": {},
        "sources": [
          {
            "type": "osm",
            "id": "node/4139535400",
            "version": 0
          },
          {
            "type": "gmaps",
            "id": "payment"
          }
        ],
        "created": "2026-05-21",
        "updated": "2026-05-21",
        "payment": {
          "cards": "no",
          "girocard": "yes"
        }
      }
    },
    {
      "type": "Feature",
      "geometry": {
        "type": "Point",
        "coordinates": [
          9.5013317,
          51.3239268
        ]
      },
      "properties": {
        "id": "tk_ks_osm_n4161569568",
        "name": "21st Kiosk",
        "address": {},
        "sources": [
          {
            "type": "osm",
            "id": "node/4161569568",
            "version": 0
          }
        ],
        "created": "2026-05-21",
        "updated": "2026-05-21",
        "payment_attempted": "2026-05-22"
      }
    },
    {
      "type": "Feature",
      "geometry": {
        "type": "Point",
        "coordinates": [
          9.468772,
          51.2853109
        ]
      },
      "properties": {
        "id": "tk_ks_osm_n4352445095",
        "name": "Schreibstift",
        "address": {
          "street": "Frankfurter Straße",
          "number": "292",
          "postalcode": "34134",
          "city": "Kassel"
        },
        "sources": [
          {
            "type": "osm",
            "id": "node/4352445095",
            "version": 0
          }
        ],
        "created": "2026-05-21",
        "updated": "2026-05-21",
        "hours": {
          "raw": "Mo-Fr 07:00-18:00; Sa 07:00-13:00"
        },
        "payment_attempted": "2026-05-22"
      }
    },
    {
      "type": "Feature",
      "geometry": {
        "type": "Point",
        "coordinates": [
          9.5177393,
          51.3419079
        ]
      },
      "properties": {
        "id": "tk_ks_osm_n4398021572",
        "name": "REWE Getränkemarkt",
        "address": {
          "street": "Ihringshäuser Straße",
          "number": "161",
          "postalcode": "34233",
          "city": "Fuldatal"
        },
        "sources": [
          {
            "type": "osm",
            "id": "node/4398021572",
            "version": 0
          },
          {
            "type": "gmaps",
            "id": "payment"
          }
        ],
        "created": "2026-05-21",
        "updated": "2026-05-21",
        "hours": {
          "raw": "Mo-Sa 06:00-22:00"
        },
        "tags": [
          "barrierefrei"
        ],
        "payment": {
          "cards": "no",
          "girocard": "yes",
          "contactless": "yes"
        }
      }
    },
    {
      "type": "Feature",
      "geometry": {
        "type": "Point",
        "coordinates": [
          9.5259604,
          51.3291879
        ]
      },
      "properties": {
        "id": "tk_ks_osm_n469923548",
        "name": "Kiosk Reuter",
        "address": {
          "street": "Wolfsangerstraße",
          "number": "74"
        },
        "sources": [
          {
            "type": "osm",
            "id": "node/469923548",
            "version": 0
          },
          {
            "type": "gmaps",
            "id": "payment"
          }
        ],
        "created": "2026-05-21",
        "updated": "2026-05-21",
        "hours": {
          "raw": "Su 09:00-22:00, Tu 06:00-12:30,15:00-22:00, Sa 08:00-22:00, Mo,We-Fr 06:00-22:00"
        },
        "payment": {
          "girocard": "yes",
          "cards": "no"
        }
      }
    },
    {
      "type": "Feature",
      "geometry": {
        "type": "Point",
        "coordinates": [
          9.5123649,
          51.3230374
        ]
      },
      "properties": {
        "id": "tk_ks_osm_n469923559",
        "name": "Weser Späti",
        "address": {
          "street": "Weserstraße",
          "number": "37",
          "postalcode": "34125",
          "city": "Kassel"
        },
        "sources": [
          {
            "type": "osm",
            "id": "node/469923559",
            "version": 0
          },
          {
            "type": "gmaps",
            "id": "payment"
          }
        ],
        "created": "2026-05-21",
        "updated": "2026-05-21",
        "hours": {
          "raw": "Mo-Fr 10:00-24:00, Sa 12:00-24:00"
        },
        "payment": {
          "girocard": "yes",
          "cards": "no",
          "contactless": "yes"
        }
      }
    },
    {
      "type": "Feature",
      "geometry": {
        "type": "Point",
        "coordinates": [
          9.494674,
          51.3139608
        ]
      },
      "properties": {
        "id": "tk_ks_osm_n471104594",
        "name": "Kiosk Opernplatz",
        "address": {},
        "sources": [
          {
            "type": "osm",
            "id": "node/471104594",
            "version": 0
          },
          {
            "type": "gmaps",
            "id": "payment"
          }
        ],
        "created": "2026-05-21",
        "updated": "2026-05-21",
        "tags": [
          "barrierefrei"
        ],
        "payment": {
          "cards": "yes",
          "girocard": "yes"
        }
      }
    },
    {
      "type": "Feature",
      "geometry": {
        "type": "Point",
        "coordinates": [
          9.4273719,
          51.2291253
        ]
      },
      "properties": {
        "id": "tk_ks_osm_n4946902446",
        "name": "Ratio Getränkemarkt",
        "address": {},
        "sources": [
          {
            "type": "osm",
            "id": "node/4946902446",
            "version": 0
          },
          {
            "type": "gmaps",
            "id": "payment"
          }
        ],
        "created": "2026-05-21",
        "updated": "2026-05-21",
        "payment": {
          "cards": "yes",
          "girocard": "yes",
          "contactless": "yes"
        }
      }
    },
    {
      "type": "Feature",
      "geometry": {
        "type": "Point",
        "coordinates": [
          9.640708,
          51.43877
        ]
      },
      "properties": {
        "id": "tk_ks_osm_n499518849",
        "name": "Weser Kiosk",
        "address": {},
        "sources": [
          {
            "type": "osm",
            "id": "node/499518849",
            "version": 0
          }
        ],
        "created": "2026-05-21",
        "updated": "2026-05-21",
        "tags": [
          "barrierefrei"
        ],
        "payment_attempted": "2026-05-22"
      }
    },
    {
      "type": "Feature",
      "geometry": {
        "type": "Point",
        "coordinates": [
          9.6045081,
          51.2843521
        ]
      },
      "properties": {
        "id": "tk_ks_osm_n5195458874",
        "name": "Rewe Getränkemarkt",
        "address": {
          "street": "Leipziger Straße",
          "number": "278",
          "postalcode": "34260",
          "city": "Kaufungen"
        },
        "sources": [
          {
            "type": "osm",
            "id": "node/5195458874",
            "version": 0
          },
          {
            "type": "gmaps",
            "id": "payment"
          }
        ],
        "created": "2026-05-21",
        "updated": "2026-05-21",
        "payment": {
          "girocard": "yes",
          "cards": "no",
          "contactless": "yes"
        }
      }
    },
    {
      "type": "Feature",
      "geometry": {
        "type": "Point",
        "coordinates": [
          9.4576456,
          51.3620986
        ]
      },
      "properties": {
        "id": "tk_ks_osm_n5217046140",
        "name": "Kiosk Scheffer",
        "address": {
          "street": "Holländische Straße",
          "number": "80",
          "postalcode": "34246",
          "city": "Vellmar"
        },
        "sources": [
          {
            "type": "osm",
            "id": "node/5217046140",
            "version": 0
          }
        ],
        "created": "2026-05-21",
        "updated": "2026-05-21",
        "hours": {
          "raw": "Mo,Tu,Th,Fr 08:30-13:00, 15:00-18:00; We,Sa 08:30-13:00"
        },
        "payment_attempted": "2026-05-22"
      }
    },
    {
      "type": "Feature",
      "geometry": {
        "type": "Point",
        "coordinates": [
          9.4921335,
          51.3180991
        ]
      },
      "properties": {
        "id": "tk_ks_osm_n5288179170",
        "name": "Rush Hour Kiosk",
        "address": {},
        "sources": [
          {
            "type": "osm",
            "id": "node/5288179170",
            "version": 0
          }
        ],
        "created": "2026-05-21",
        "updated": "2026-05-21",
        "hours": {
          "raw": "Mo-Th 09:00-23:00, Fr 09:00-04:00, Sa 12:00-04:00"
        },
        "payment_attempted": "2026-05-22"
      }
    },
    {
      "type": "Feature",
      "geometry": {
        "type": "Point",
        "coordinates": [
          9.4402921,
          51.3362428
        ]
      },
      "properties": {
        "id": "tk_ks_osm_n5367971046",
        "name": "SpätiPoint",
        "address": {},
        "sources": [
          {
            "type": "osm",
            "id": "node/5367971046",
            "version": 0
          },
          {
            "type": "gmaps",
            "id": "payment"
          }
        ],
        "created": "2026-05-21",
        "updated": "2026-05-21",
        "hours": {
          "raw": "Mo-Fr 09:00-20:00; Sa 10:00-20:00"
        },
        "payment": {
          "cards": "yes",
          "girocard": "yes",
          "contactless": "yes"
        }
      }
    },
    {
      "type": "Feature",
      "geometry": {
        "type": "Point",
        "coordinates": [
          9.6455894,
          51.419081
        ]
      },
      "properties": {
        "id": "tk_ks_osm_n5588185290",
        "name": "Dönerhaus",
        "address": {
          "street": "Veckerhäger Straße",
          "number": "14",
          "postalcode": "34346",
          "city": "Hann. Münden"
        },
        "sources": [
          {
            "type": "osm",
            "id": "node/5588185290",
            "version": 0
          }
        ],
        "created": "2026-05-21",
        "updated": "2026-05-21",
        "payment": {
          "cash": "unknown",
          "cards": "unknown",
          "contactless": "no",
          "girocard": "no",
          "mobile": "unknown"
        }
      }
    },
    {
      "type": "Feature",
      "geometry": {
        "type": "Point",
        "coordinates": [
          9.4656256,
          51.3181428
        ]
      },
      "properties": {
        "id": "tk_ks_osm_n582465344",
        "name": "Getränke Weber",
        "address": {},
        "sources": [
          {
            "type": "osm",
            "id": "node/582465344",
            "version": 0
          },
          {
            "type": "gmaps",
            "id": "payment"
          }
        ],
        "created": "2026-05-21",
        "updated": "2026-05-21",
        "hours": {
          "raw": "Mo-Th 06:00-20:00; PH,Su 08:00-20:00; Fr,Sa 06:00-21:00"
        },
        "tags": [
          "barrierefrei"
        ],
        "payment": {
          "cards": "no",
          "girocard": "yes",
          "contactless": "yes"
        }
      }
    },
    {
      "type": "Feature",
      "geometry": {
        "type": "Point",
        "coordinates": [
          9.5035717,
          51.3256283
        ]
      },
      "properties": {
        "id": "tk_ks_osm_n649470949",
        "name": "Bei Ali",
        "address": {
          "street": "Westring",
          "number": "73"
        },
        "sources": [
          {
            "type": "osm",
            "id": "node/649470949",
            "version": 0
          },
          {
            "type": "gmaps",
            "id": "payment"
          }
        ],
        "created": "2026-05-21",
        "updated": "2026-05-21",
        "hours": {
          "raw": "15:00-24:00"
        },
        "tags": [
          "draussen",
          "sitzgelegenheiten"
        ],
        "payment": {
          "cash": "yes"
        }
      }
    },
    {
      "type": "Feature",
      "geometry": {
        "type": "Point",
        "coordinates": [
          9.4487245,
          51.277295
        ]
      },
      "properties": {
        "id": "tk_ks_osm_n6572344514",
        "name": "Zur Bitze",
        "address": {
          "street": "Brückenhofstraße",
          "number": "33",
          "postalcode": "34132",
          "city": "Kassel"
        },
        "sources": [
          {
            "type": "osm",
            "id": "node/6572344514",
            "version": 0
          },
          {
            "type": "gmaps",
            "id": "payment"
          }
        ],
        "created": "2026-05-21",
        "updated": "2026-05-21",
        "payment": {
          "cash": "yes"
        }
      }
    },
    {
      "type": "Feature",
      "geometry": {
        "type": "Point",
        "coordinates": [
          9.4598747,
          51.3453346
        ]
      },
      "properties": {
        "id": "tk_ks_osm_n6584086739",
        "name": "Vellmarkt",
        "address": {
          "street": "Rheinstahlring",
          "postalcode": "34246",
          "city": "Vellmar"
        },
        "sources": [
          {
            "type": "osm",
            "id": "node/6584086739",
            "version": 0
          },
          {
            "type": "gmaps",
            "id": "payment"
          }
        ],
        "created": "2026-05-21",
        "updated": "2026-05-21",
        "hours": {
          "raw": "Mo-Fr 10:30-18:00; Sa 12:00-16:00"
        },
        "payment": {
          "cards": "yes",
          "girocard": "yes",
          "contactless": "yes"
        }
      }
    },
    {
      "type": "Feature",
      "geometry": {
        "type": "Point",
        "coordinates": [
          9.5507099,
          51.3417805
        ]
      },
      "properties": {
        "id": "tk_ks_osm_n689231754",
        "name": "Getränke Broll",
        "address": {
          "street": "Triftweg",
          "number": "150"
        },
        "sources": [
          {
            "type": "osm",
            "id": "node/689231754",
            "version": 0
          }
        ],
        "created": "2026-05-21",
        "updated": "2026-05-21",
        "payment_attempted": "2026-05-22"
      }
    },
    {
      "type": "Feature",
      "geometry": {
        "type": "Point",
        "coordinates": [
          9.4485452,
          51.2607431
        ]
      },
      "properties": {
        "id": "tk_ks_osm_n6965070087",
        "name": "Hütt Brauerei",
        "address": {
          "street": "Knallhütte",
          "postalcode": "34225",
          "city": "Baunatal",
          "district": "Rengershausen"
        },
        "sources": [
          {
            "type": "osm",
            "id": "node/6965070087",
            "version": 0
          }
        ],
        "created": "2026-05-21",
        "updated": "2026-05-21",
        "hours": {
          "raw": "Mo-Fr 08:00-18:00"
        },
        "payment_attempted": "2026-05-22"
      }
    },
    {
      "type": "Feature",
      "geometry": {
        "type": "Point",
        "coordinates": [
          9.444535,
          51.343511
        ]
      },
      "properties": {
        "id": "tk_ks_osm_n741452489",
        "name": "tegut Getränkemarkt",
        "address": {},
        "sources": [
          {
            "type": "osm",
            "id": "node/741452489",
            "version": 0
          },
          {
            "type": "gmaps",
            "id": "payment"
          }
        ],
        "created": "2026-05-21",
        "updated": "2026-05-21",
        "hours": {
          "raw": "Mo-Sa 08:00-21:00"
        },
        "tags": [
          "barrierefrei"
        ],
        "payment": {
          "cards": "yes",
          "girocard": "yes",
          "contactless": "yes"
        }
      }
    },
    {
      "type": "Feature",
      "geometry": {
        "type": "Point",
        "coordinates": [
          9.4974745,
          51.2721352
        ]
      },
      "properties": {
        "id": "tk_ks_osm_n7607027114",
        "name": "BÖHM Getränkeabholmarkt",
        "address": {},
        "sources": [
          {
            "type": "osm",
            "id": "node/7607027114",
            "version": 0
          },
          {
            "type": "gmaps",
            "id": "payment"
          }
        ],
        "created": "2026-05-21",
        "updated": "2026-05-21",
        "payment": {
          "cards": "no",
          "girocard": "yes",
          "contactless": "yes"
        }
      }
    },
    {
      "type": "Feature",
      "geometry": {
        "type": "Point",
        "coordinates": [
          9.4875605,
          51.3556884
        ]
      },
      "properties": {
        "id": "tk_ks_osm_n7616975140",
        "name": "Kuhn Getränke",
        "address": {
          "street": "Am Hirleberg",
          "number": "2",
          "postalcode": "34246",
          "city": "Vellmar"
        },
        "sources": [
          {
            "type": "osm",
            "id": "node/7616975140",
            "version": 0
          },
          {
            "type": "gmaps",
            "id": "payment"
          }
        ],
        "created": "2026-05-21",
        "updated": "2026-05-21",
        "hours": {
          "raw": "Mo-Fr 08:00-17:00, Sa 08:30-13:00"
        },
        "payment": {
          "cards": "yes",
          "girocard": "yes",
          "contactless": "yes"
        }
      }
    },
    {
      "type": "Feature",
      "geometry": {
        "type": "Point",
        "coordinates": [
          9.5025103,
          51.3310517
        ]
      },
      "properties": {
        "id": "tk_ks_osm_n7620179060",
        "name": "EDEKA Getränkemarkt",
        "address": {},
        "sources": [
          {
            "type": "osm",
            "id": "node/7620179060",
            "version": 0
          },
          {
            "type": "gmaps",
            "id": "payment"
          }
        ],
        "created": "2026-05-21",
        "updated": "2026-05-21",
        "hours": {
          "raw": "Mo-Sa 07:00-21:00"
        },
        "payment": {
          "cards": "yes",
          "girocard": "yes",
          "contactless": "yes"
        }
      }
    },
    {
      "type": "Feature",
      "geometry": {
        "type": "Point",
        "coordinates": [
          9.5317593,
          51.2960649
        ]
      },
      "properties": {
        "id": "tk_ks_osm_n7899970480",
        "name": "logo Getränke-Fachmarkt",
        "address": {},
        "sources": [
          {
            "type": "osm",
            "id": "node/7899970480",
            "version": 0
          },
          {
            "type": "gmaps",
            "id": "payment"
          }
        ],
        "created": "2026-05-21",
        "updated": "2026-05-21",
        "hours": {
          "raw": "Mo-Fr 09:30-19:00, Sa 09:30-18:00"
        },
        "payment": {
          "cards": "yes",
          "girocard": "yes",
          "contactless": "yes"
        }
      }
    },
    {
      "type": "Feature",
      "geometry": {
        "type": "Point",
        "coordinates": [
          9.4573033,
          51.3127523
        ]
      },
      "properties": {
        "id": "tk_ks_osm_n8090132877",
        "name": "Getränke Willi",
        "address": {},
        "sources": [
          {
            "type": "osm",
            "id": "node/8090132877",
            "version": 0
          }
        ],
        "created": "2026-05-21",
        "updated": "2026-05-21",
        "payment_attempted": "2026-05-22"
      }
    },
    {
      "type": "Feature",
      "geometry": {
        "type": "Point",
        "coordinates": [
          9.465596,
          51.3539443
        ]
      },
      "properties": {
        "id": "tk_ks_osm_n848655610",
        "name": "Herkules Getränkemarkt",
        "address": {},
        "sources": [
          {
            "type": "osm",
            "id": "node/848655610",
            "version": 0
          },
          {
            "type": "gmaps",
            "id": "payment"
          }
        ],
        "created": "2026-05-21",
        "updated": "2026-05-21",
        "hours": {
          "raw": "Mo-Sa 08:00-21:00"
        },
        "tags": [
          "barrierefrei"
        ],
        "payment": {
          "cards": "yes",
          "girocard": "yes",
          "contactless": "yes"
        }
      }
    },
    {
      "type": "Feature",
      "geometry": {
        "type": "Point",
        "coordinates": [
          9.4405058,
          51.3135808
        ]
      },
      "properties": {
        "id": "tk_ks_osm_n9685423514",
        "name": "Glücksstück",
        "address": {
          "street": "Wilhelmshöher Allee",
          "number": "279",
          "postalcode": "34131",
          "city": "Kassel"
        },
        "sources": [
          {
            "type": "osm",
            "id": "node/9685423514",
            "version": 0
          },
          {
            "type": "gmaps",
            "id": "payment"
          }
        ],
        "created": "2026-05-21",
        "updated": "2026-05-21",
        "hours": {
          "raw": "Mo-Th 11:30-14:30, 17:30-22:00; Fr 11:30-14:30, 17:30-23:00; Sa 14:00-23:00; Su 16:00-22:00"
        },
        "tags": [
          "draussen"
        ],
        "payment": {
          "cards": "no",
          "girocard": "yes",
          "contactless": "yes"
        }
      }
    },
    {
      "type": "Feature",
      "geometry": {
        "type": "Point",
        "coordinates": [
          9.3917379,
          51.2555885
        ]
      },
      "properties": {
        "id": "tk_ks_osm_n9714339283",
        "name": "logo Getränke-Fachmarkt",
        "address": {
          "street": "Rostocker Straße",
          "number": "6",
          "postalcode": "34225",
          "city": "Baunatal",
          "district": "Großenritte"
        },
        "sources": [
          {
            "type": "osm",
            "id": "node/9714339283",
            "version": 0
          },
          {
            "type": "gmaps",
            "id": "payment"
          }
        ],
        "created": "2026-05-21",
        "updated": "2026-05-21",
        "payment": {
          "cards": "no",
          "girocard": "yes",
          "contactless": "yes"
        }
      }
    },
    {
      "type": "Feature",
      "geometry": {
        "type": "Point",
        "coordinates": [
          9.500522,
          51.3315068
        ]
      },
      "properties": {
        "id": "tk_ks_osm_n9770433850",
        "name": "Raya's Kiosk",
        "address": {},
        "sources": [
          {
            "type": "osm",
            "id": "node/9770433850",
            "version": 0
          },
          {
            "type": "gmaps",
            "id": "payment"
          }
        ],
        "created": "2026-05-21",
        "updated": "2026-05-21",
        "payment": {
          "girocard": "yes",
          "cards": "no",
          "contactless": "yes"
        }
      }
    },
    {
      "type": "Feature",
      "geometry": {
        "type": "Point",
        "coordinates": [
          9.547183,
          51.2807959
        ]
      },
      "properties": {
        "id": "tk_ks_osm_w126607349",
        "name": "REWE Getränkemarkt",
        "address": {
          "street": "Waldauer Weg",
          "number": "2",
          "postalcode": "34253",
          "city": "Lohfelden"
        },
        "sources": [
          {
            "type": "osm",
            "id": "way/126607349",
            "version": 0
          },
          {
            "type": "gmaps",
            "id": "payment"
          }
        ],
        "created": "2026-05-21",
        "updated": "2026-05-21",
        "tags": [
          "barrierefrei"
        ],
        "payment": {
          "cards": "yes",
          "girocard": "yes",
          "contactless": "yes"
        }
      }
    },
    {
      "type": "Feature",
      "geometry": {
        "type": "Point",
        "coordinates": [
          9.3959851,
          51.4111825
        ]
      },
      "properties": {
        "id": "tk_ks_osm_w127227240",
        "name": "Edeka Getränkemarkt",
        "address": {
          "street": "Holländische Straße",
          "number": "76a",
          "postalcode": "34379",
          "city": "Calden"
        },
        "sources": [
          {
            "type": "osm",
            "id": "way/127227240",
            "version": 0
          },
          {
            "type": "gmaps",
            "id": "payment"
          }
        ],
        "created": "2026-05-21",
        "updated": "2026-05-21",
        "payment": {
          "cards": "yes",
          "girocard": "yes",
          "contactless": "yes"
        }
      }
    },
    {
      "type": "Feature",
      "geometry": {
        "type": "Point",
        "coordinates": [
          9.5220721,
          51.3499972
        ]
      },
      "properties": {
        "id": "tk_ks_osm_w1458827180",
        "name": "REWE Getränkemarkt",
        "address": {
          "street": "Niedervellmarsche Straße",
          "number": "21",
          "postalcode": "34233",
          "city": "Fuldatal",
          "district": "Ihringshausen"
        },
        "sources": [
          {
            "type": "osm",
            "id": "way/1458827180",
            "version": 0
          },
          {
            "type": "gmaps",
            "id": "payment"
          }
        ],
        "created": "2026-05-21",
        "updated": "2026-05-21",
        "hours": {
          "raw": "Mo-Sa 07:00-22:00"
        },
        "payment": {
          "cards": "yes",
          "girocard": "yes",
          "contactless": "yes"
        }
      }
    },
    {
      "type": "Feature",
      "geometry": {
        "type": "Point",
        "coordinates": [
          9.5273718,
          51.2721997
        ]
      },
      "properties": {
        "id": "tk_ks_osm_w1496769045",
        "name": "Shell Lohfeldener Rüssel",
        "address": {
          "street": "Alexander-von-Humboldt-Straße",
          "number": "1",
          "postalcode": "34253",
          "city": "Lohfelden"
        },
        "sources": [
          {
            "type": "osm",
            "id": "way/1496769045",
            "version": 0
          },
          {
            "type": "gmaps",
            "id": "payment"
          }
        ],
        "created": "2026-05-21",
        "updated": "2026-05-21",
        "hours": {
          "raw": "24/7"
        },
        "tags": [
          "barrierefrei"
        ],
        "payment": {
          "cards": "no",
          "girocard": "yes",
          "contactless": "yes"
        }
      }
    },
    {
      "type": "Feature",
      "geometry": {
        "type": "Point",
        "coordinates": [
          9.4555812,
          51.2921616
        ]
      },
      "properties": {
        "id": "tk_ks_osm_w153180418",
        "name": "REWE Getränkemarkt",
        "address": {
          "street": "Leuschnerstraße",
          "number": "82",
          "postalcode": "34134",
          "city": "Kassel"
        },
        "sources": [
          {
            "type": "osm",
            "id": "way/153180418",
            "version": 0
          }
        ],
        "created": "2026-05-21",
        "updated": "2026-05-21",
        "hours": {
          "raw": "Mo-Sa 07:00-22:00; PH off"
        },
        "payment": {
          "cash": "yes",
          "cards": "yes",
          "contactless": "unknown",
          "girocard": "unknown",
          "mobile": "unknown"
        }
      }
    },
    {
      "type": "Feature",
      "geometry": {
        "type": "Point",
        "coordinates": [
          9.4651492,
          51.3123455
        ]
      },
      "properties": {
        "id": "tk_ks_osm_w179810085",
        "name": "Einkaufsecke am Wehlheider Platz",
        "address": {
          "street": "Wehlheider Platz",
          "number": "1",
          "postalcode": "34121",
          "city": "Kassel",
          "district": "Wehlheiden"
        },
        "sources": [
          {
            "type": "osm",
            "id": "way/179810085",
            "version": 0
          },
          {
            "type": "gmaps",
            "id": "payment"
          }
        ],
        "created": "2026-05-21",
        "updated": "2026-05-21",
        "hours": {
          "raw": "Mo-Th 08:00-18:30; Sa 08:00-16:00; Fr 06:30-16:00"
        },
        "tags": [
          "barrierefrei"
        ],
        "payment": {
          "cards": "no",
          "girocard": "yes",
          "contactless": "yes"
        }
      }
    },
    {
      "type": "Feature",
      "geometry": {
        "type": "Point",
        "coordinates": [
          9.5133413,
          51.3241654
        ]
      },
      "properties": {
        "id": "tk_ks_osm_w182742968",
        "name": "EDEKA Getränkemarkt",
        "address": {
          "postalcode": "34125",
          "city": "Kassel"
        },
        "sources": [
          {
            "type": "osm",
            "id": "way/182742968",
            "version": 0
          }
        ],
        "created": "2026-05-21",
        "updated": "2026-05-21",
        "hours": {
          "raw": "Mo-Sa 08:00-20:00"
        },
        "tags": [
          "barrierefrei"
        ],
        "payment_attempted": "2026-05-22"
      }
    },
    {
      "type": "Feature",
      "geometry": {
        "type": "Point",
        "coordinates": [
          9.5412708,
          51.3143347
        ]
      },
      "properties": {
        "id": "tk_ks_osm_w191754959",
        "name": "EDEKA Getränkemarkt",
        "address": {
          "city": "Niestetal"
        },
        "sources": [
          {
            "type": "osm",
            "id": "way/191754959",
            "version": 0
          }
        ],
        "created": "2026-05-21",
        "updated": "2026-05-21",
        "payment_attempted": "2026-05-22"
      }
    },
    {
      "type": "Feature",
      "geometry": {
        "type": "Point",
        "coordinates": [
          9.4252153,
          51.2650389
        ]
      },
      "properties": {
        "id": "tk_ks_osm_w192392593",
        "name": "logo Getränke-Fachmarkt",
        "address": {
          "street": "Hainbuchenstraße",
          "number": "1",
          "postalcode": "34225",
          "city": "Baunatal",
          "district": "Altenbauna"
        },
        "sources": [
          {
            "type": "osm",
            "id": "way/192392593",
            "version": 0
          },
          {
            "type": "gmaps",
            "id": "payment"
          }
        ],
        "created": "2026-05-21",
        "updated": "2026-05-21",
        "hours": {
          "raw": "Mo-Fr 08:30-19:00; Sa 08:30-18:00"
        },
        "payment": {
          "cards": "no",
          "girocard": "yes",
          "contactless": "yes"
        }
      }
    },
    {
      "type": "Feature",
      "geometry": {
        "type": "Point",
        "coordinates": [
          9.5028217,
          51.2680575
        ]
      },
      "properties": {
        "id": "tk_ks_osm_w198712348",
        "name": "Rewe Getränkemarkt",
        "address": {
          "street": "Ostring",
          "number": "1d",
          "postalcode": "34277",
          "city": "Fuldabrück"
        },
        "sources": [
          {
            "type": "osm",
            "id": "way/198712348",
            "version": 0
          },
          {
            "type": "gmaps",
            "id": "payment"
          }
        ],
        "created": "2026-05-21",
        "updated": "2026-05-21",
        "hours": {
          "raw": "Mo-Sa 08:00-21:00"
        },
        "payment": {
          "cards": "yes",
          "girocard": "yes",
          "contactless": "yes"
        }
      }
    },
    {
      "type": "Feature",
      "geometry": {
        "type": "Point",
        "coordinates": [
          9.4650162,
          51.3909268
        ]
      },
      "properties": {
        "id": "tk_ks_osm_w200001147",
        "name": "REWE Getränkemarkt",
        "address": {
          "street": "Goethestraße",
          "number": "19"
        },
        "sources": [
          {
            "type": "osm",
            "id": "way/200001147",
            "version": 0
          }
        ],
        "created": "2026-05-21",
        "updated": "2026-05-21",
        "payment_attempted": "2026-05-22"
      }
    },
    {
      "type": "Feature",
      "geometry": {
        "type": "Point",
        "coordinates": [
          9.5387291,
          51.2914008
        ]
      },
      "properties": {
        "id": "tk_ks_osm_w204844964",
        "name": "Edeka Getränkemarkt Faulstich",
        "address": {
          "street": "Forstbachweg",
          "number": "58",
          "postalcode": "34123",
          "city": "Kassel"
        },
        "sources": [
          {
            "type": "osm",
            "id": "way/204844964",
            "version": 0
          },
          {
            "type": "gmaps",
            "id": "payment"
          }
        ],
        "created": "2026-05-21",
        "updated": "2026-05-21",
        "hours": {
          "raw": "Mo-Sa 08:00-21:00"
        },
        "payment": {
          "cards": "yes",
          "girocard": "yes",
          "contactless": "yes"
        }
      }
    },
    {
      "type": "Feature",
      "geometry": {
        "type": "Point",
        "coordinates": [
          9.3858421,
          51.2466886
        ]
      },
      "properties": {
        "id": "tk_ks_osm_w207836308",
        "name": "Edeka Getränkemarkt",
        "address": {
          "street": "Besser Straße",
          "number": "6-8",
          "postalcode": "34225",
          "city": "Baunatal",
          "district": "Großenritte"
        },
        "sources": [
          {
            "type": "osm",
            "id": "way/207836308",
            "version": 0
          },
          {
            "type": "gmaps",
            "id": "payment"
          }
        ],
        "created": "2026-05-21",
        "updated": "2026-05-21",
        "tags": [
          "barrierefrei"
        ],
        "payment": {
          "cards": "yes",
          "girocard": "yes",
          "contactless": "yes"
        }
      }
    },
    {
      "type": "Feature",
      "geometry": {
        "type": "Point",
        "coordinates": [
          9.5192697,
          51.3084112
        ]
      },
      "properties": {
        "id": "tk_ks_osm_w242193224",
        "name": "Kiosk Alex",
        "address": {},
        "sources": [
          {
            "type": "osm",
            "id": "way/242193224",
            "version": 0
          },
          {
            "type": "gmaps",
            "id": "payment"
          }
        ],
        "created": "2026-05-21",
        "updated": "2026-05-21",
        "payment": {
          "cash": "yes"
        }
      }
    },
    {
      "type": "Feature",
      "geometry": {
        "type": "Point",
        "coordinates": [
          9.5124007,
          51.3142157
        ]
      },
      "properties": {
        "id": "tk_ks_osm_w252798416",
        "name": "Getränke Köhler",
        "address": {
          "street": "Hafenstraße",
          "number": "8",
          "city": "Kassel"
        },
        "sources": [
          {
            "type": "osm",
            "id": "way/252798416",
            "version": 0
          },
          {
            "type": "gmaps",
            "id": "payment"
          }
        ],
        "created": "2026-05-21",
        "updated": "2026-05-21",
        "hours": {
          "raw": "Mo-Fr 08:00-17:00; Sa 08:00-13:00"
        },
        "payment": {
          "girocard": "yes",
          "cards": "yes",
          "contactless": "yes"
        }
      }
    },
    {
      "type": "Feature",
      "geometry": {
        "type": "Point",
        "coordinates": [
          9.4703025,
          51.3238969
        ]
      },
      "properties": {
        "id": "tk_ks_osm_w252923982",
        "name": "EDEKA Getränkemarkt",
        "address": {
          "street": "Wolfhager Straße",
          "number": "197",
          "postalcode": "34127",
          "city": "Kassel"
        },
        "sources": [
          {
            "type": "osm",
            "id": "way/252923982",
            "version": 0
          }
        ],
        "created": "2026-05-21",
        "updated": "2026-05-21",
        "tags": [
          "barrierefrei"
        ],
        "payment_attempted": "2026-05-22"
      }
    },
    {
      "type": "Feature",
      "geometry": {
        "type": "Point",
        "coordinates": [
          9.3066335,
          51.3676314
        ]
      },
      "properties": {
        "id": "tk_ks_osm_w260164523",
        "name": "EDEKA Getränkemarkt",
        "address": {
          "street": "Kasseler Straße",
          "number": "34",
          "postalcode": "34289",
          "city": "Zierenberg"
        },
        "sources": [
          {
            "type": "osm",
            "id": "way/260164523",
            "version": 0
          },
          {
            "type": "gmaps",
            "id": "payment"
          }
        ],
        "created": "2026-05-21",
        "updated": "2026-05-21",
        "hours": {
          "raw": "Mo-Sa 08:00-20:00"
        },
        "payment": {
          "cards": "no",
          "girocard": "yes",
          "contactless": "yes"
        }
      }
    },
    {
      "type": "Feature",
      "geometry": {
        "type": "Point",
        "coordinates": [
          9.5149847,
          51.3379319
        ]
      },
      "properties": {
        "id": "tk_ks_osm_w273743209",
        "name": "Kiosk Arnimstraße",
        "address": {},
        "sources": [
          {
            "type": "osm",
            "id": "way/273743209",
            "version": 0
          },
          {
            "type": "gmaps",
            "id": "payment"
          }
        ],
        "created": "2026-05-21",
        "updated": "2026-05-22",
        "hours": {
          "raw": "Mo-Sa 08:00-20:00"
        },
        "payment": {
          "cards": "yes",
          "girocard": "yes",
          "contactless": "yes"
        }
      }
    },
    {
      "type": "Feature",
      "geometry": {
        "type": "Point",
        "coordinates": [
          9.5290145,
          51.328824
        ]
      },
      "properties": {
        "id": "tk_ks_osm_w360208784",
        "name": "Edeka Neukauf Getränkemarkt",
        "address": {
          "street": "Wolfsangerstraße",
          "number": "100",
          "postalcode": "34125",
          "city": "Kassel"
        },
        "sources": [
          {
            "type": "osm",
            "id": "way/360208784",
            "version": 0
          },
          {
            "type": "gmaps",
            "id": "payment"
          }
        ],
        "created": "2026-05-21",
        "updated": "2026-05-21",
        "hours": {
          "raw": "Mo-Sa 08:00-20:00"
        },
        "payment": {
          "cards": "yes",
          "girocard": "yes",
          "contactless": "yes"
        }
      }
    },
    {
      "type": "Feature",
      "geometry": {
        "type": "Point",
        "coordinates": [
          9.4515324,
          51.2912606
        ]
      },
      "properties": {
        "id": "tk_ks_osm_w375964195",
        "name": "Kiosk am Helleböhn",
        "address": {},
        "sources": [
          {
            "type": "osm",
            "id": "way/375964195",
            "version": 0
          },
          {
            "type": "gmaps",
            "id": "payment"
          }
        ],
        "created": "2026-05-21",
        "updated": "2026-05-21",
        "hours": {
          "raw": "Mo-Sa 07:00-18:00, Su,PH 08:00-18:00"
        },
        "payment": {
          "girocard": "yes",
          "cards": "no",
          "contactless": "yes"
        }
      }
    },
    {
      "type": "Feature",
      "geometry": {
        "type": "Point",
        "coordinates": [
          9.5756196,
          51.3087417
        ]
      },
      "properties": {
        "id": "tk_ks_osm_w383196802",
        "name": "Edeka Getränkemarkt",
        "address": {
          "street": "Kasseler Straße",
          "number": "2",
          "postalcode": "34266",
          "city": "Niestetal",
          "district": "Heiligenrode"
        },
        "sources": [
          {
            "type": "osm",
            "id": "way/383196802",
            "version": 0
          },
          {
            "type": "gmaps",
            "id": "payment"
          }
        ],
        "created": "2026-05-21",
        "updated": "2026-05-21",
        "hours": {
          "raw": "08:00-20:00"
        },
        "payment": {
          "cards": "yes",
          "girocard": "yes",
          "contactless": "yes"
        }
      }
    },
    {
      "type": "Feature",
      "geometry": {
        "type": "Point",
        "coordinates": [
          9.4799428,
          51.3369986
        ]
      },
      "properties": {
        "id": "tk_ks_osm_w40845729",
        "name": "M14",
        "address": {},
        "sources": [
          {
            "type": "osm",
            "id": "way/40845729",
            "version": 0
          }
        ],
        "created": "2026-05-21",
        "updated": "2026-05-21",
        "hours": {
          "raw": "Mo-Fr 07:30-10:30, 11:00-13:15"
        },
        "payment_attempted": "2026-05-22"
      }
    },
    {
      "type": "Feature",
      "geometry": {
        "type": "Point",
        "coordinates": [
          9.4894188,
          51.3181932
        ]
      },
      "properties": {
        "id": "tk_ks_osm_w525652701",
        "name": "Brzezina - Tabakwaren",
        "address": {},
        "sources": [
          {
            "type": "osm",
            "id": "way/525652701",
            "version": 0
          }
        ],
        "created": "2026-05-21",
        "updated": "2026-05-21",
        "hours": {
          "raw": "Mo-Fr 07:00-19:00; Sa 09:00-18:00; Su 10:30-19:00"
        },
        "tags": [
          "barrierefrei"
        ],
        "payment_attempted": "2026-05-22"
      }
    },
    {
      "type": "Feature",
      "geometry": {
        "type": "Point",
        "coordinates": [
          9.4837916,
          51.333415
        ]
      },
      "properties": {
        "id": "tk_ks_osm_w693913334",
        "name": "M34",
        "address": {},
        "sources": [
          {
            "type": "osm",
            "id": "way/693913334",
            "version": 0
          }
        ],
        "created": "2026-05-21",
        "updated": "2026-05-21",
        "payment_attempted": "2026-05-22"
      }
    },
    {
      "type": "Feature",
      "geometry": {
        "type": "Point",
        "coordinates": [
          9.4976291,
          51.3157042
        ]
      },
      "properties": {
        "id": "tk_ks_osm_w698236866",
        "name": "Kiosk am Königsplatz",
        "address": {
          "street": "Königsplatz",
          "postalcode": "34117",
          "city": "Kassel"
        },
        "sources": [
          {
            "type": "osm",
            "id": "way/698236866",
            "version": 0
          },
          {
            "type": "gmaps",
            "id": "payment"
          }
        ],
        "created": "2026-05-21",
        "updated": "2026-05-21",
        "hours": {
          "raw": "Mo-Fr 05:00-19:00; Sa 07:00-19:00"
        },
        "tags": [
          "barrierefrei"
        ],
        "payment": {
          "cash": "yes"
        }
      }
    },
    {
      "type": "Feature",
      "geometry": {
        "type": "Point",
        "coordinates": [
          9.3130998,
          51.2266846
        ]
      },
      "properties": {
        "id": "tk_ks_osm_w78453877",
        "name": "Edeka Getränkemarkt",
        "address": {
          "street": "Goethestraße",
          "number": "2",
          "postalcode": "34305",
          "city": "Niedenstein"
        },
        "sources": [
          {
            "type": "osm",
            "id": "way/78453877",
            "version": 0
          },
          {
            "type": "gmaps",
            "id": "payment"
          }
        ],
        "created": "2026-05-21",
        "updated": "2026-05-21",
        "hours": {
          "raw": "Mo-Sa 07:30-20:00"
        },
        "payment": {
          "cards": "yes",
          "girocard": "yes",
          "contactless": "yes"
        }
      }
    },
    {
      "type": "Feature",
      "geometry": {
        "type": "Point",
        "coordinates": [
          9.3878876,
          51.3632977
        ]
      },
      "properties": {
        "id": "tk_ks_osm_w787240114",
        "name": "Getränke Quelle",
        "address": {
          "street": "Dörnbergstraße",
          "number": "48",
          "postalcode": "34292",
          "city": "Ahnatal",
          "district": "Weimar"
        },
        "sources": [
          {
            "type": "osm",
            "id": "way/787240114",
            "version": 0
          }
        ],
        "created": "2026-05-21",
        "updated": "2026-05-21",
        "payment_attempted": "2026-05-22"
      }
    },
    {
      "type": "Feature",
      "geometry": {
        "type": "Point",
        "coordinates": [
          9.494853,
          51.2306055
        ]
      },
      "properties": {
        "id": "tk_ks_osm_w842677594",
        "name": "EDEKA Getränkemarkt",
        "address": {
          "street": "Glockenhofsweg",
          "number": "5",
          "postalcode": "34277",
          "city": "Fuldabrück",
          "district": "Dörnhagen"
        },
        "sources": [
          {
            "type": "osm",
            "id": "way/842677594",
            "version": 0
          },
          {
            "type": "gmaps",
            "id": "payment"
          }
        ],
        "created": "2026-05-21",
        "updated": "2026-05-21",
        "payment": {
          "cards": "no",
          "girocard": "yes",
          "contactless": "yes"
        }
      }
    },
    {
      "type": "Feature",
      "geometry": {
        "type": "Point",
        "coordinates": [
          9.445172,
          51.3265253
        ]
      },
      "properties": {
        "id": "tk_ks_osm_w88432959",
        "name": "EDEKA Getränkemarkt",
        "address": {},
        "sources": [
          {
            "type": "osm",
            "id": "way/88432959",
            "version": 0
          },
          {
            "type": "gmaps",
            "id": "payment"
          }
        ],
        "created": "2026-05-21",
        "updated": "2026-05-21",
        "hours": {
          "raw": "Mo-Sa 08:00-20:00"
        },
        "tags": [
          "barrierefrei"
        ],
        "payment": {
          "cards": "no",
          "girocard": "yes",
          "contactless": "yes"
        }
      }
    }
  ]
}
