{
  "type": "FeatureCollection",
  "features": [
    {
      "type": "Feature",
      "geometry": {
        "type": "Point",
        "coordinates": [
          10.18929,
          54.40388
        ]
      },
      "properties": {
        "id": "tk_fr_0456",
        "name": "Minigolf und Mee(h)r",
        "description": "Imbiss- Café- Kiosk ",
        "address": {
          "street": "Falckensteiner Strand",
          "number": "71",
          "postalcode": "24159",
          "city": "Kiel",
          "district": "Pries - Friedrichsort"
        },
        "tags": [
          "wc"
        ],
        "sources": [
          {
            "type": "hopfenstop",
            "id": "21d5d3f8-8042-490d-a372-0d6b9aa47dfc"
          }
        ],
        "created": "2026-05-19",
        "updated": "2026-05-19"
      }
    },
    {
      "type": "Feature",
      "geometry": {
        "type": "Point",
        "coordinates": [
          10.1381367,
          54.3146101
        ]
      },
      "properties": {
        "id": "tk_fr_0754",
        "name": "Kiosk am Germaniahafen",
        "description": "Tabak, Snacks, Getränke, Zeitschriften und Süsses. Lecker Flaschenbiere ",
        "address": {
          "street": "Am Germaniahafen",
          "number": "2",
          "postalcode": "24143",
          "city": "Kiel",
          "district": "Gaarden"
        },
        "tags": [
          "mate",
          "rubbellose",
          "zeitschriften",
          "snacks"
        ],
        "sources": [
          {
            "type": "hopfenstop",
            "id": "650b0e1d-56a8-4b47-b776-8da7d2c0410a"
          }
        ],
        "created": "2026-05-19",
        "updated": "2026-05-19"
      }
    },
    {
      "type": "Feature",
      "geometry": {
        "type": "Point",
        "coordinates": [
          10.185891,
          54.3257901
        ]
      },
      "properties": {
        "id": "tk_fr_0755",
        "name": "Bongartz Kiosk ",
        "description": "Lotto und Toto, Zeitungen, Getränke und Biere ",
        "address": {
          "street": "Schönberger Straße",
          "number": "5-11",
          "postalcode": "24148",
          "city": "Kiel",
          "district": "Ellerbek - Wellingdorf"
        },
        "tags": [
          "barrierefrei",
          "lotto"
        ],
        "sources": [
          {
            "type": "hopfenstop",
            "id": "7f924bee-036a-4e99-a22f-c80898e28702"
          },
          {
            "type": "osm",
            "id": "node/2866586079",
            "version": 0
          }
        ],
        "created": "2026-05-19",
        "updated": "2026-05-20",
        "hours": {
          "raw": "Mo-Fr 07:00-17:00,08:00-12:00"
        }
      }
    },
    {
      "type": "Feature",
      "geometry": {
        "type": "Point",
        "coordinates": [
          10.1858713,
          54.32865
        ]
      },
      "properties": {
        "id": "tk_fr_0756",
        "name": "Küstenkiosk east",
        "description": "Getränke, Kaffee, Zeitschriften, Zigaretten und vieles mehr ",
        "address": {
          "street": "An der Holsatiamühle",
          "number": "1",
          "postalcode": "24149",
          "city": "Kiel",
          "district": "Neumühlen-Dietrichsdorf"
        },
        "tags": [
          "eis",
          "kaffee",
          "zeitschriften"
        ],
        "sources": [
          {
            "type": "hopfenstop",
            "id": "3bda0c85-3953-4974-ac63-10f3a76fd7fc"
          }
        ],
        "created": "2026-05-19",
        "updated": "2026-05-19"
      }
    },
    {
      "type": "Feature",
      "geometry": {
        "type": "Point",
        "coordinates": [
          10.1802432,
          54.3258087
        ]
      },
      "properties": {
        "id": "tk_fr_0764",
        "name": "Ostufer Kiosk ",
        "description": "Coffee To Go, Tabakwaren, Süßigkeiten, Spirituosen, Eis",
        "address": {
          "street": "Wischhofstraße",
          "number": "59",
          "postalcode": "24148",
          "city": "Kiel",
          "district": "Ellerbek - Wellingdorf"
        },
        "hours": {
          "raw": "Mo-Su 10:00-00:00"
        },
        "tags": [
          "rubbellose",
          "schnaps",
          "eis",
          "sitzgelegenheiten",
          "kaffee"
        ],
        "sources": [
          {
            "type": "hopfenstop",
            "id": "51df83e1-a665-456c-bf3a-0157b030ee13"
          },
          {
            "type": "osm",
            "id": "node/6190537532"
          }
        ],
        "created": "2026-05-19",
        "updated": "2026-05-20"
      }
    },
    {
      "type": "Feature",
      "geometry": {
        "type": "Point",
        "coordinates": [
          10.1958719,
          54.3774332
        ]
      },
      "properties": {
        "id": "tk_fr_0770",
        "name": "Strand Kiosk ",
        "description": "Getränke, Kaffee, Zeitschriften, Süsses, Eis und Fährfahrkarten",
        "address": {
          "street": "Strandweg",
          "number": "2",
          "postalcode": "24226",
          "city": "Heikendorf"
        },
        "hours": {
          "raw": "Mo-Fr 06:00-18:00; Sa 07:00-18:00; Su 09:00-18:00"
        },
        "tags": [
          "eis",
          "kaffee",
          "zeitschriften"
        ],
        "sources": [
          {
            "type": "hopfenstop",
            "id": "38c655ee-68be-4fe2-9cf8-f5e7e46a43f3"
          }
        ],
        "created": "2026-05-19",
        "updated": "2026-05-19"
      }
    },
    {
      "type": "Feature",
      "geometry": {
        "type": "Point",
        "coordinates": [
          10.1177075,
          54.3149515
        ]
      },
      "properties": {
        "id": "tk_fr_1852",
        "name": "Spätkauf",
        "description": "Kiosk",
        "address": {
          "street": "Saarbrückenstraße",
          "number": "2",
          "postalcode": "24114",
          "city": "Kiel",
          "district": "Schreventeich - Hasseldieksdamm de Schreventeich"
        },
        "hours": {
          "raw": "Mo-Th 07:00-23:00; Fr 07:00-01:00; Sa 08:00-01:00; Su 10:00-22:00"
        },
        "sources": [
          {
            "type": "hopfenstop",
            "id": "9f055f23-86f5-4fbb-bbea-3489dcc1a203"
          }
        ],
        "created": "2026-05-19",
        "updated": "2026-05-19"
      }
    }
  ]
}
