{
  "type": "FeatureCollection",
  "features": [
    {
      "type": "Feature",
      "geometry": {
        "type": "Point",
        "coordinates": [
          10.7013178,
          53.8695662
        ]
      },
      "properties": {
        "id": "tk_lu_osm_n10047839183",
        "name": "Kiosk an der Falke",
        "address": {
          "street": "An der Falkenwiese",
          "number": "9",
          "postalcode": "23564",
          "city": "Lübeck"
        },
        "sources": [
          {
            "type": "osm",
            "id": "node/10047839183",
            "version": 0
          }
        ],
        "created": "2026-05-21",
        "updated": "2026-05-21",
        "payment": {
          "cash": "yes",
          "cards": "unknown",
          "contactless": "unknown",
          "girocard": "unknown",
          "mobile": "unknown"
        },
        "apple_id_attempted": "2026-05-23",
        "google_attempted": "2026-05-23"
      }
    },
    {
      "type": "Feature",
      "geometry": {
        "type": "Point",
        "coordinates": [
          10.7283754,
          53.8219834
        ]
      },
      "properties": {
        "id": "tk_lu_osm_n10589894622",
        "name": "Presse Küsel",
        "address": {
          "street": "Berliner Straße",
          "number": "6",
          "postalcode": "23627",
          "city": "Groß Grönau",
          "district": "Sankt Hubertus"
        },
        "sources": [
          {
            "type": "osm",
            "id": "node/10589894622",
            "version": 0
          },
          {
            "type": "gmaps",
            "id": "payment"
          }
        ],
        "created": "2026-05-21",
        "updated": "2026-05-23",
        "hours": {
          "raw": "Mo-Fr 07:00-13:00; Sa 07:00-13:00; Su 07:00-10:00"
        },
        "payment": {
          "cards": "yes"
        },
        "apple_id_attempted": "2026-05-23"
      }
    },
    {
      "type": "Feature",
      "geometry": {
        "type": "Point",
        "coordinates": [
          10.6865521,
          53.8870557
        ]
      },
      "properties": {
        "id": "tk_lu_osm_n1086105560",
        "name": "famila Getränke",
        "address": {
          "street": "Schwartauer Landstraße",
          "number": "4",
          "postalcode": "23554",
          "city": "Lübeck",
          "district": "Falkenfeld / Vorwerk"
        },
        "sources": [
          {
            "type": "osm",
            "id": "node/1086105560",
            "version": 0
          }
        ],
        "created": "2026-05-21",
        "updated": "2026-05-23",
        "hours": {
          "raw": "Mo-Sa 07:00-21:00"
        },
        "tags": [
          "barrierefrei"
        ],
        "payment_attempted": "2026-05-22",
        "apple_id_attempted": "2026-05-23",
        "google_attempted": "2026-05-23"
      }
    },
    {
      "type": "Feature",
      "geometry": {
        "type": "Point",
        "coordinates": [
          10.6887413,
          53.8677861
        ]
      },
      "properties": {
        "id": "tk_lu_osm_n12156002470",
        "name": "MMKiosk",
        "address": {
          "street": "Doktor-Julius-Leber-Straße",
          "number": "24",
          "postalcode": "23552",
          "city": "Lübeck",
          "district": "Innenstadt"
        },
        "sources": [
          {
            "type": "osm",
            "id": "node/12156002470",
            "version": 0
          },
          {
            "type": "apple",
            "id": "4737335583232919809"
          },
          {
            "type": "gmaps",
            "id": "ChIJgwf2cQAJskcRQpnylRT5OT8"
          }
        ],
        "created": "2026-05-21",
        "updated": "2026-05-23",
        "payment_attempted": "2026-05-22",
        "hours": {
          "raw": "Mo-We,Fr-Sa 09:30-15:00,16:00-21:00; Th 10:00-15:00,16:00-18:30"
        },
        "google_attempted": "2026-05-23"
      }
    },
    {
      "type": "Feature",
      "geometry": {
        "type": "Point",
        "coordinates": [
          10.666385,
          53.869998
        ]
      },
      "properties": {
        "id": "tk_lu_osm_n1316827591",
        "name": "REWE Getränkemarkt",
        "address": {
          "street": "Ziegelstraße",
          "number": "15",
          "postalcode": "23556",
          "city": "Lübeck",
          "district": "Holstentor-Nord"
        },
        "sources": [
          {
            "type": "osm",
            "id": "node/1316827591",
            "version": 0
          }
        ],
        "created": "2026-05-21",
        "updated": "2026-05-23",
        "hours": {
          "raw": "Mo-Sa 07:00-23:00"
        },
        "tags": [
          "barrierefrei"
        ],
        "payment_attempted": "2026-05-22",
        "apple_id_attempted": "2026-05-23",
        "google_attempted": "2026-05-23"
      }
    },
    {
      "type": "Feature",
      "geometry": {
        "type": "Point",
        "coordinates": [
          10.6830353,
          53.8686432
        ]
      },
      "properties": {
        "id": "tk_lu_osm_n1439727356",
        "name": "Dramburg + Hertwig - Wein + Bier Grosshandlung",
        "address": {
          "street": "Mengstraße",
          "number": "34-36",
          "postalcode": "23552",
          "city": "Lübeck",
          "district": "Innenstadt"
        },
        "sources": [
          {
            "type": "osm",
            "id": "node/1439727356",
            "version": 0
          }
        ],
        "created": "2026-05-21",
        "updated": "2026-05-23",
        "payment_attempted": "2026-05-22",
        "apple_id_attempted": "2026-05-23",
        "google_attempted": "2026-05-23"
      }
    },
    {
      "type": "Feature",
      "geometry": {
        "type": "Point",
        "coordinates": [
          10.7458716,
          53.8710506
        ]
      },
      "properties": {
        "id": "tk_lu_osm_n1490053017",
        "name": "Familia Getränkemarkt",
        "address": {
          "street": "Wesloer Landstraße",
          "number": "50-70",
          "postalcode": "23566",
          "city": "Lübeck",
          "district": "Marli / Brandenbaum"
        },
        "sources": [
          {
            "type": "osm",
            "id": "node/1490053017",
            "version": 0
          },
          {
            "type": "gmaps",
            "id": "payment"
          }
        ],
        "created": "2026-05-21",
        "updated": "2026-05-23",
        "tags": [
          "barrierefrei"
        ],
        "payment": {
          "girocard": "yes",
          "cards": "no",
          "contactless": "yes"
        },
        "apple_id_attempted": "2026-05-23",
        "google_attempted": "2026-05-23"
      }
    },
    {
      "type": "Feature",
      "geometry": {
        "type": "Point",
        "coordinates": [
          10.6358841,
          53.8427868
        ]
      },
      "properties": {
        "id": "tk_lu_osm_n1514253310",
        "name": "Tabakbörse",
        "address": {
          "street": "Andersenring",
          "number": "19",
          "postalcode": "23560",
          "city": "Lübeck",
          "district": "Moisling"
        },
        "sources": [
          {
            "type": "osm",
            "id": "node/1514253310",
            "version": 0
          }
        ],
        "created": "2026-05-21",
        "updated": "2026-05-23",
        "hours": {
          "raw": "Mo-Sa 07:00-12:30, Mo-Fr 15:00-18:00"
        },
        "payment_attempted": "2026-05-22",
        "apple_id_attempted": "2026-05-23",
        "google_attempted": "2026-05-23"
      }
    },
    {
      "type": "Feature",
      "geometry": {
        "type": "Point",
        "coordinates": [
          10.6873933,
          53.8627171
        ]
      },
      "properties": {
        "id": "tk_lu_osm_n1531029682",
        "name": "Kiosk&Fun",
        "address": {
          "street": "Mühlenstraße",
          "number": "57",
          "postalcode": "23552",
          "city": "Lübeck",
          "district": "Innenstadt"
        },
        "sources": [
          {
            "type": "osm",
            "id": "node/1531029682",
            "version": 0
          },
          {
            "type": "gmaps",
            "id": "payment"
          }
        ],
        "created": "2026-05-21",
        "updated": "2026-05-23",
        "hours": {
          "raw": "Mo-Su 00:00-00:00"
        },
        "payment": {
          "girocard": "yes",
          "cards": "no",
          "contactless": "yes"
        },
        "apple_id_attempted": "2026-05-23"
      }
    },
    {
      "type": "Feature",
      "geometry": {
        "type": "Point",
        "coordinates": [
          10.6620832,
          53.8592718
        ]
      },
      "properties": {
        "id": "tk_lu_osm_n1670198899",
        "name": "Kiosk am Lunapark",
        "address": {
          "street": "Pommersche Straße",
          "number": "1-5",
          "postalcode": "23558",
          "city": "Lübeck",
          "district": "Sankt Lorenz Süd"
        },
        "sources": [
          {
            "type": "osm",
            "id": "node/1670198899",
            "version": 0
          },
          {
            "type": "apple",
            "id": "6931834636738665882"
          }
        ],
        "created": "2026-05-21",
        "updated": "2026-05-23",
        "hours": {
          "raw": "Mo-Th 07:00-12:00,14:00-19:00; Fr 07:00-20:00;Sa 06:00-20:00;Su 07:00-20:00"
        },
        "payment": {
          "cash": "unknown",
          "cards": "no",
          "contactless": "unknown",
          "girocard": "unknown",
          "mobile": "unknown"
        }
      }
    },
    {
      "type": "Feature",
      "geometry": {
        "type": "Point",
        "coordinates": [
          10.6921074,
          53.8668524
        ]
      },
      "properties": {
        "id": "tk_lu_osm_n1683106953",
        "name": "Pausenbrot",
        "address": {
          "street": "Bei Sankt Johannis",
          "number": "16",
          "postalcode": "23552",
          "city": "Lübeck",
          "district": "Innenstadt"
        },
        "sources": [
          {
            "type": "osm",
            "id": "node/1683106953",
            "version": 0
          },
          {
            "type": "gmaps",
            "id": "ChIJIeljLlkJskcROLK2J0RTaFw"
          }
        ],
        "created": "2026-05-21",
        "updated": "2026-05-23",
        "payment_attempted": "2026-05-22",
        "apple_id_attempted": "2026-05-23",
        "google_attempted": "2026-05-23"
      }
    },
    {
      "type": "Feature",
      "geometry": {
        "type": "Point",
        "coordinates": [
          10.7212499,
          53.8646519
        ]
      },
      "properties": {
        "id": "tk_lu_osm_n1689194963",
        "name": "Presse & Tabakshop am Kaufhof",
        "address": {
          "street": "Schlutuper Straße",
          "number": "21",
          "postalcode": "23566",
          "city": "Lübeck",
          "district": "Marli / Brandenbaum"
        },
        "sources": [
          {
            "type": "osm",
            "id": "node/1689194963",
            "version": 0
          },
          {
            "type": "gmaps",
            "id": "payment"
          },
          {
            "type": "apple",
            "id": "14008815865420546377"
          }
        ],
        "created": "2026-05-21",
        "updated": "2026-05-23",
        "hours": {
          "raw": "Mo-Fr 05:00-18:00; Sa 06:00-14:00"
        },
        "tags": [
          "barrierefrei"
        ],
        "payment": {
          "cards": "yes",
          "girocard": "yes",
          "contactless": "yes"
        }
      }
    },
    {
      "type": "Feature",
      "geometry": {
        "type": "Point",
        "coordinates": [
          10.6403403,
          53.8433715
        ]
      },
      "properties": {
        "id": "tk_lu_osm_n1696389389",
        "name": "REWE Getränkemarkt",
        "address": {
          "street": "August-Bebel-Straße",
          "number": "30",
          "postalcode": "23560",
          "city": "Lübeck",
          "district": "Moisling"
        },
        "sources": [
          {
            "type": "osm",
            "id": "node/1696389389",
            "version": 0
          },
          {
            "type": "gmaps",
            "id": "payment"
          }
        ],
        "created": "2026-05-21",
        "updated": "2026-05-23",
        "payment": {
          "cards": "yes",
          "girocard": "yes",
          "contactless": "yes"
        },
        "apple_id_attempted": "2026-05-23",
        "google_attempted": "2026-05-23"
      }
    },
    {
      "type": "Feature",
      "geometry": {
        "type": "Point",
        "coordinates": [
          10.670918,
          53.9031276
        ]
      },
      "properties": {
        "id": "tk_lu_osm_n1811693297",
        "name": "Getränke Hoffmann",
        "address": {
          "street": "Zum Vorwerk",
          "number": "2a",
          "postalcode": "23611",
          "city": "Bad Schwartau"
        },
        "sources": [
          {
            "type": "osm",
            "id": "node/1811693297",
            "version": 0
          },
          {
            "type": "gmaps",
            "id": "ChIJBwNU3kk2YkERNZtkeMT3a3k"
          }
        ],
        "created": "2026-05-21",
        "updated": "2026-05-21",
        "payment": {
          "cards": "no",
          "girocard": "yes",
          "contactless": "yes"
        },
        "apple_id_attempted": "2026-05-23",
        "google_attempted": "2026-05-23"
      }
    },
    {
      "type": "Feature",
      "geometry": {
        "type": "Point",
        "coordinates": [
          10.6990645,
          53.8666654
        ]
      },
      "properties": {
        "id": "tk_lu_osm_n1878128389",
        "name": "Kiosk Reiherstieg",
        "address": {
          "street": "Falkenstraße",
          "number": "6",
          "postalcode": "23564",
          "city": "Lübeck",
          "district": "Hüxtertor / Mühlentor / Gärtnergasse"
        },
        "sources": [
          {
            "type": "osm",
            "id": "node/1878128389",
            "version": 0
          }
        ],
        "created": "2026-05-21",
        "updated": "2026-05-23",
        "hours": {
          "raw": "Mo-Sa 06:00-12:00, Mo,We-Fr 15:00-18:00"
        },
        "payment_attempted": "2026-05-22",
        "apple_id_attempted": "2026-05-23",
        "google_attempted": "2026-05-23"
      }
    },
    {
      "type": "Feature",
      "geometry": {
        "type": "Point",
        "coordinates": [
          10.6614718,
          53.8786418
        ]
      },
      "properties": {
        "id": "tk_lu_osm_n2246553779",
        "name": "Getränke Hoffmann",
        "address": {
          "street": "Krempelsdorfer Allee",
          "number": "4",
          "postalcode": "23556",
          "city": "Lübeck"
        },
        "sources": [
          {
            "type": "osm",
            "id": "node/2246553779",
            "version": 0
          },
          {
            "type": "gmaps",
            "id": "payment"
          }
        ],
        "created": "2026-05-21",
        "updated": "2026-05-21",
        "hours": {
          "raw": "Mo-Sa 09:00-20:00"
        },
        "tags": [
          "barrierefrei"
        ],
        "payment": {
          "cards": "no",
          "girocard": "yes",
          "contactless": "yes"
        },
        "apple_id_attempted": "2026-05-23"
      }
    },
    {
      "type": "Feature",
      "geometry": {
        "type": "Point",
        "coordinates": [
          10.6866464,
          53.8659075
        ]
      },
      "properties": {
        "id": "tk_lu_osm_n2374974790",
        "name": "Highappy Store",
        "address": {
          "street": "Königstraße",
          "number": "78",
          "postalcode": "23552",
          "city": "Lübeck",
          "district": "Innenstadt"
        },
        "sources": [
          {
            "type": "osm",
            "id": "node/2374974790",
            "version": 0
          },
          {
            "type": "gmaps",
            "id": "payment"
          }
        ],
        "created": "2026-05-21",
        "updated": "2026-05-23",
        "payment": {
          "cards": "no",
          "girocard": "yes",
          "contactless": "yes"
        },
        "apple_id_attempted": "2026-05-23",
        "google_attempted": "2026-05-23"
      }
    },
    {
      "type": "Feature",
      "geometry": {
        "type": "Point",
        "coordinates": [
          10.6910144,
          53.87325
        ]
      },
      "properties": {
        "id": "tk_lu_osm_n2405258232",
        "name": "Kiosk",
        "address": {
          "street": "Große Burgstraße",
          "number": "17",
          "postalcode": "23552",
          "city": "Lübeck"
        },
        "sources": [
          {
            "type": "osm",
            "id": "node/2405258232",
            "version": 0
          },
          {
            "type": "gmaps",
            "id": "payment"
          }
        ],
        "created": "2026-05-21",
        "updated": "2026-05-21",
        "hours": {
          "raw": "Mo-Fr 07:00-17:00; Sa 09:00-14:00; PH off"
        },
        "payment": {
          "girocard": "yes",
          "cards": "yes"
        },
        "apple_id_attempted": "2026-05-23"
      }
    },
    {
      "type": "Feature",
      "geometry": {
        "type": "Point",
        "coordinates": [
          10.6921112,
          53.8671826
        ]
      },
      "properties": {
        "id": "tk_lu_osm_n2419528187",
        "name": "Selena's Kiosk",
        "address": {
          "street": "Doktor-Julius-Leber-Straße",
          "number": "80",
          "postalcode": "23552",
          "city": "Lübeck"
        },
        "sources": [
          {
            "type": "osm",
            "id": "node/2419528187",
            "version": 0
          }
        ],
        "created": "2026-05-21",
        "updated": "2026-05-21",
        "payment_attempted": "2026-05-22",
        "apple_id_attempted": "2026-05-23",
        "google_attempted": "2026-05-23"
      }
    },
    {
      "type": "Feature",
      "geometry": {
        "type": "Point",
        "coordinates": [
          10.6270274,
          53.8599567
        ]
      },
      "properties": {
        "id": "tk_lu_osm_n289851895",
        "name": "CITTI-Tank",
        "address": {
          "street": "Herrenholz",
          "number": "14",
          "postalcode": "23556",
          "city": "Lübeck"
        },
        "sources": [
          {
            "type": "osm",
            "id": "node/289851895",
            "version": 0
          },
          {
            "type": "gmaps",
            "id": "payment"
          }
        ],
        "created": "2026-05-21",
        "updated": "2026-05-21",
        "hours": {
          "raw": "24/7"
        },
        "payment": {
          "cards": "no",
          "girocard": "yes",
          "contactless": "yes"
        },
        "apple_id_attempted": "2026-05-23"
      }
    },
    {
      "type": "Feature",
      "geometry": {
        "type": "Point",
        "coordinates": [
          10.6708634,
          53.8723856
        ]
      },
      "properties": {
        "id": "tk_lu_osm_n293336812",
        "name": "Drogerie Libon",
        "address": {
          "street": "Adlerstraße",
          "number": "33d",
          "postalcode": "23554",
          "city": "Lübeck",
          "district": "Holstentor-Nord"
        },
        "sources": [
          {
            "type": "osm",
            "id": "node/293336812",
            "version": 0
          }
        ],
        "created": "2026-05-21",
        "updated": "2026-05-23",
        "hours": {
          "raw": "Mo-Fr 06:30-18:00, Sa 07:00-13:00, Su 08:00-13:00"
        },
        "payment_attempted": "2026-05-22",
        "apple_id_attempted": "2026-05-23",
        "google_attempted": "2026-05-23"
      }
    },
    {
      "type": "Feature",
      "geometry": {
        "type": "Point",
        "coordinates": [
          10.6401344,
          53.8559445
        ]
      },
      "properties": {
        "id": "tk_lu_osm_n299327411",
        "name": "Minibar-Buntekuh",
        "address": {
          "street": "Ziegelstraße",
          "number": "195",
          "postalcode": "23556",
          "city": "Lübeck",
          "district": "Buntekuh"
        },
        "sources": [
          {
            "type": "osm",
            "id": "node/299327411",
            "version": 0
          },
          {
            "type": "apple",
            "id": "14969718168199286959"
          },
          {
            "type": "gmaps",
            "id": "ChIJa2VH574OskcR-QqNcoV6j2o"
          }
        ],
        "created": "2026-05-21",
        "updated": "2026-05-23",
        "payment_attempted": "2026-05-22",
        "hours": {
          "raw": "Mo-Fr 08:00-24:00; Sa 09:00-24:00"
        },
        "google_attempted": "2026-05-23"
      }
    },
    {
      "type": "Feature",
      "geometry": {
        "type": "Point",
        "coordinates": [
          10.7028604,
          53.8632076
        ]
      },
      "properties": {
        "id": "tk_lu_osm_n318237635",
        "name": "Bei Andy",
        "address": {
          "street": "Moltkestraße",
          "number": "41",
          "postalcode": "23564",
          "city": "Lübeck",
          "district": "Marli / Brandenbaum"
        },
        "sources": [
          {
            "type": "osm",
            "id": "node/318237635",
            "version": 0
          },
          {
            "type": "gmaps",
            "id": "ChIJLfh9VgAJskcRHJDOIFB1QXg"
          }
        ],
        "created": "2026-05-21",
        "updated": "2026-05-23",
        "hours": {
          "raw": "Tu-Su 08:00-18:00"
        },
        "tags": [
          "barrierefrei"
        ],
        "payment": {
          "cash": "yes"
        },
        "apple_id_attempted": "2026-05-23",
        "google_attempted": "2026-05-23"
      }
    },
    {
      "type": "Feature",
      "geometry": {
        "type": "Point",
        "coordinates": [
          10.6976016,
          53.9212308
        ]
      },
      "properties": {
        "id": "tk_lu_osm_n333629802",
        "name": "Shell",
        "address": {
          "street": "Eutiner Straße",
          "number": "4a",
          "postalcode": "23611",
          "city": "Bad Schwartau"
        },
        "sources": [
          {
            "type": "osm",
            "id": "node/333629802",
            "version": 0
          },
          {
            "type": "gmaps",
            "id": "payment"
          }
        ],
        "created": "2026-05-21",
        "updated": "2026-05-21",
        "hours": {
          "raw": "Mo-Fr 06:00-22:00;Sa-Su 07:00-22:00"
        },
        "payment": {
          "cards": "no",
          "girocard": "yes",
          "contactless": "yes"
        },
        "apple_id_attempted": "2026-05-23"
      }
    },
    {
      "type": "Feature",
      "geometry": {
        "type": "Point",
        "coordinates": [
          10.69062,
          53.8599438
        ]
      },
      "properties": {
        "id": "tk_lu_osm_n358057974",
        "name": "Kiosk Mühlenbrücke",
        "address": {
          "street": "Mühlenbrücke",
          "postalcode": "23552",
          "city": "Lübeck",
          "number": "19",
          "district": "Innenstadt"
        },
        "sources": [
          {
            "type": "osm",
            "id": "node/358057974",
            "version": 0
          },
          {
            "type": "gmaps",
            "id": "ChIJUcdmr1wJskcRC1drXDR5Jk0"
          }
        ],
        "created": "2026-05-21",
        "updated": "2026-05-23",
        "payment": {
          "cards": "no",
          "girocard": "yes",
          "contactless": "yes"
        },
        "apple_id_attempted": "2026-05-23",
        "google_attempted": "2026-05-23"
      }
    },
    {
      "type": "Feature",
      "geometry": {
        "type": "Point",
        "coordinates": [
          10.8072089,
          53.9014287
        ]
      },
      "properties": {
        "id": "tk_lu_osm_n3860564935",
        "name": "famila Getränkemarkt",
        "address": {
          "street": "Möllerung",
          "number": "11",
          "postalcode": "23569",
          "city": "Lübeck",
          "district": "Herrenwyk"
        },
        "sources": [
          {
            "type": "osm",
            "id": "node/3860564935",
            "version": 0
          },
          {
            "type": "gmaps",
            "id": "payment"
          }
        ],
        "created": "2026-05-21",
        "updated": "2026-05-23",
        "hours": {
          "raw": "Mo-Sa 08:00-21:00"
        },
        "payment": {
          "girocard": "yes",
          "cards": "no",
          "contactless": "yes"
        },
        "apple_id_attempted": "2026-05-23"
      }
    },
    {
      "type": "Feature",
      "geometry": {
        "type": "Point",
        "coordinates": [
          10.70244,
          53.8509633
        ]
      },
      "properties": {
        "id": "tk_lu_osm_n408773425",
        "name": "Ulli's Lädchen",
        "address": {
          "street": "Kahlhorststraße",
          "number": "2",
          "postalcode": "23562",
          "city": "Lübeck",
          "district": "Hüxtertor / Mühlentor / Gärtnergasse"
        },
        "sources": [
          {
            "type": "osm",
            "id": "node/408773425",
            "version": 0
          },
          {
            "type": "gmaps",
            "id": "ChIJ_0nFfPMJskcR3_mdP88SWE8"
          }
        ],
        "created": "2026-05-21",
        "updated": "2026-05-23",
        "payment": {
          "cash": "yes",
          "cards": "unknown",
          "contactless": "unknown",
          "girocard": "unknown",
          "mobile": "unknown"
        },
        "tags": [
          "barrierefrei"
        ],
        "apple_id_attempted": "2026-05-23",
        "google_attempted": "2026-05-23"
      }
    },
    {
      "type": "Feature",
      "geometry": {
        "type": "Point",
        "coordinates": [
          10.6887714,
          53.8691783
        ]
      },
      "properties": {
        "id": "tk_lu_osm_n4152034838",
        "name": "König Kiosk",
        "address": {
          "street": "Königstraße",
          "number": "28",
          "postalcode": "23552",
          "city": "Lübeck"
        },
        "sources": [
          {
            "type": "osm",
            "id": "node/4152034838",
            "version": 0
          },
          {
            "type": "gmaps",
            "id": "payment"
          }
        ],
        "created": "2026-05-21",
        "updated": "2026-05-21",
        "hours": {
          "raw": "Mo-Sa 10:00-01:00"
        },
        "payment": {
          "cards": "no",
          "girocard": "yes",
          "contactless": "yes"
        },
        "apple_id_attempted": "2026-05-23"
      }
    },
    {
      "type": "Feature",
      "geometry": {
        "type": "Point",
        "coordinates": [
          10.6684105,
          53.863047
        ]
      },
      "properties": {
        "id": "tk_lu_osm_n474368433",
        "name": "Lilly's Lindeneck",
        "address": {
          "street": "Lindenstraße",
          "number": "39",
          "postalcode": "23558",
          "city": "Lübeck",
          "district": "Sankt Lorenz Süd"
        },
        "sources": [
          {
            "type": "osm",
            "id": "node/474368433",
            "version": 0
          },
          {
            "type": "gmaps",
            "id": "payment"
          },
          {
            "type": "apple",
            "id": "14199704770909177056"
          }
        ],
        "created": "2026-05-21",
        "updated": "2026-05-23",
        "hours": {
          "raw": "Tu-Fr 07:00-18:00; Sa 07:00-13:00"
        },
        "payment": {
          "girocard": "yes",
          "cards": "no",
          "contactless": "yes"
        }
      }
    },
    {
      "type": "Feature",
      "geometry": {
        "type": "Point",
        "coordinates": [
          10.7061699,
          53.8352655
        ]
      },
      "properties": {
        "id": "tk_lu_osm_n5218978368",
        "name": "Zentro",
        "address": {
          "street": "Heinrich-Meibom-Straße",
          "postalcode": "23562",
          "city": "Lübeck",
          "district": "Strecknitz"
        },
        "sources": [
          {
            "type": "osm",
            "id": "node/5218978368",
            "version": 0
          }
        ],
        "created": "2026-05-21",
        "updated": "2026-05-23",
        "payment_attempted": "2026-05-22",
        "apple_id_attempted": "2026-05-23",
        "google_attempted": "2026-05-23"
      }
    },
    {
      "type": "Feature",
      "geometry": {
        "type": "Point",
        "coordinates": [
          10.6775966,
          53.8417821
        ]
      },
      "properties": {
        "id": "tk_lu_osm_n559106997",
        "name": "Getränkemarkt Hoffmann",
        "address": {
          "street": "Kronsforder Allee",
          "number": "126a",
          "postalcode": "23560",
          "city": "Lübeck",
          "district": "Strecknitz"
        },
        "sources": [
          {
            "type": "osm",
            "id": "node/559106997",
            "version": 0
          },
          {
            "type": "gmaps",
            "id": "payment"
          }
        ],
        "created": "2026-05-21",
        "updated": "2026-05-23",
        "hours": {
          "raw": "Mo-Fr 09:00-19:00; Sa 09:00-16:00"
        },
        "tags": [
          "barrierefrei"
        ],
        "payment": {
          "cards": "no",
          "girocard": "yes",
          "contactless": "yes"
        },
        "apple_id_attempted": "2026-05-23"
      }
    },
    {
      "type": "Feature",
      "geometry": {
        "type": "Point",
        "coordinates": [
          10.6783762,
          53.8962499
        ]
      },
      "properties": {
        "id": "tk_lu_osm_n563830279",
        "name": "LeCat",
        "address": {
          "street": "Am Behnckenhof",
          "number": "16",
          "postalcode": "23554",
          "city": "Lübeck"
        },
        "sources": [
          {
            "type": "osm",
            "id": "node/563830279",
            "version": 0
          },
          {
            "type": "gmaps",
            "id": "ChIJNz8npnUMskcRbPwOtslVj1o"
          }
        ],
        "created": "2026-05-21",
        "updated": "2026-05-21",
        "payment": {
          "girocard": "yes",
          "cards": "no",
          "contactless": "yes"
        },
        "apple_id_attempted": "2026-05-23",
        "google_attempted": "2026-05-23"
      }
    },
    {
      "type": "Feature",
      "geometry": {
        "type": "Point",
        "coordinates": [
          10.6654238,
          53.8717313
        ]
      },
      "properties": {
        "id": "tk_lu_osm_n567936966",
        "name": "Edeka Getränkemarkt",
        "address": {
          "street": "Ziegelstraße",
          "number": "2b",
          "postalcode": "23556",
          "city": "Lübeck",
          "district": "Holstentor-Nord"
        },
        "sources": [
          {
            "type": "osm",
            "id": "node/567936966",
            "version": 0
          },
          {
            "type": "gmaps",
            "id": "payment"
          }
        ],
        "created": "2026-05-21",
        "updated": "2026-05-23",
        "hours": {
          "raw": "Mo-Sa 08:00-21:00"
        },
        "tags": [
          "barrierefrei"
        ],
        "payment": {
          "cards": "no",
          "girocard": "yes",
          "contactless": "yes"
        },
        "apple_id_attempted": "2026-05-23"
      }
    },
    {
      "type": "Feature",
      "geometry": {
        "type": "Point",
        "coordinates": [
          10.6633041,
          53.8690786
        ]
      },
      "properties": {
        "id": "tk_lu_osm_n595518093",
        "name": "Kiosk am Ziegelteller",
        "address": {
          "street": "Wisbystraße",
          "number": "30",
          "postalcode": "23558",
          "city": "Lübeck",
          "district": "Holstentor-Nord"
        },
        "sources": [
          {
            "type": "osm",
            "id": "node/595518093",
            "version": 0
          },
          {
            "type": "gmaps",
            "id": "ChIJKbcQeaAPskcRDWBPLHzoOwc"
          }
        ],
        "created": "2026-05-21",
        "updated": "2026-05-23",
        "payment_attempted": "2026-05-22",
        "apple_id_attempted": "2026-05-23",
        "google_attempted": "2026-05-23"
      }
    },
    {
      "type": "Feature",
      "geometry": {
        "type": "Point",
        "coordinates": [
          10.6398725,
          53.8556416
        ]
      },
      "properties": {
        "id": "tk_lu_osm_n6084678367",
        "name": "Kiosk & Postpartner Buntekuh",
        "address": {
          "street": "Ziegelstraße",
          "number": "197",
          "postalcode": "23556",
          "city": "Lübeck",
          "district": "Buntekuh"
        },
        "sources": [
          {
            "type": "osm",
            "id": "node/6084678367",
            "version": 0
          },
          {
            "type": "gmaps",
            "id": "payment"
          }
        ],
        "created": "2026-05-21",
        "updated": "2026-05-23",
        "hours": {
          "raw": "Mo-Fr 08:00-18:00; Sa 09:00-15:00"
        },
        "payment": {
          "cards": "yes",
          "girocard": "yes",
          "contactless": "yes"
        },
        "apple_id_attempted": "2026-05-23"
      }
    },
    {
      "type": "Feature",
      "geometry": {
        "type": "Point",
        "coordinates": [
          10.6742697,
          53.8654238
        ]
      },
      "properties": {
        "id": "tk_lu_osm_n660790214",
        "name": "Lindenplatz Kiosk",
        "address": {
          "street": "Moislinger Allee",
          "number": "4b",
          "postalcode": "23558",
          "city": "Lübeck",
          "district": "Sankt Lorenz Süd"
        },
        "sources": [
          {
            "type": "osm",
            "id": "node/660790214",
            "version": 0
          },
          {
            "type": "apple",
            "id": "3143627165444826858"
          }
        ],
        "created": "2026-05-21",
        "updated": "2026-05-23",
        "hours": {
          "raw": "Mo-Fr 05:30-18:00; Sa 07:00-13:00"
        },
        "payment_attempted": "2026-05-22",
        "payment": {
          "cards": "yes",
          "contactless": "yes",
          "mobile": "yes"
        }
      }
    },
    {
      "type": "Feature",
      "geometry": {
        "type": "Point",
        "coordinates": [
          10.6885679,
          53.8695573
        ]
      },
      "properties": {
        "id": "tk_lu_osm_n669102338",
        "name": "Pfaffen Kiosk",
        "address": {
          "street": "Pfaffenstraße",
          "number": "15",
          "postalcode": "23552",
          "city": "Lübeck",
          "district": "Innenstadt"
        },
        "sources": [
          {
            "type": "osm",
            "id": "node/669102338",
            "version": 0
          },
          {
            "type": "gmaps",
            "id": "payment"
          },
          {
            "type": "apple",
            "id": "3601297406481922609"
          }
        ],
        "created": "2026-05-21",
        "updated": "2026-05-23",
        "hours": {
          "raw": "Mo-Sa 09:00-23:00; Su 12:00-22:00"
        },
        "tags": [
          "draussen"
        ],
        "payment": {
          "cards": "no",
          "girocard": "yes",
          "contactless": "yes"
        }
      }
    },
    {
      "type": "Feature",
      "geometry": {
        "type": "Point",
        "coordinates": [
          10.7088043,
          53.8357832
        ]
      },
      "properties": {
        "id": "tk_lu_osm_n7040406035",
        "name": "Zentro",
        "address": {
          "street": "Ratzeburger Allee",
          "number": "160",
          "postalcode": "23562",
          "city": "Lübeck",
          "district": "Strecknitz"
        },
        "sources": [
          {
            "type": "osm",
            "id": "node/7040406035",
            "version": 0
          }
        ],
        "created": "2026-05-21",
        "updated": "2026-05-23",
        "hours": {
          "raw": "Mo-Fr 06:30-20:30; Sa-Su 08:00-19:00"
        },
        "payment": {
          "cash": "yes",
          "cards": "yes",
          "contactless": "yes",
          "girocard": "unknown",
          "mobile": "unknown"
        },
        "apple_id_attempted": "2026-05-23"
      }
    },
    {
      "type": "Feature",
      "geometry": {
        "type": "Point",
        "coordinates": [
          10.6426098,
          53.8897849
        ]
      },
      "properties": {
        "id": "tk_lu_osm_n761061505",
        "name": "famila",
        "address": {
          "street": "Ravensbusch",
          "number": "6",
          "postalcode": "23617",
          "city": "Stockelsdorf"
        },
        "sources": [
          {
            "type": "osm",
            "id": "node/761061505",
            "version": 0
          },
          {
            "type": "gmaps",
            "id": "payment"
          }
        ],
        "created": "2026-05-21",
        "updated": "2026-05-23",
        "hours": {
          "raw": "Mo-Sa 07:00-20:00"
        },
        "tags": [
          "barrierefrei"
        ],
        "payment": {
          "cards": "no",
          "girocard": "yes",
          "contactless": "yes"
        },
        "apple_id_attempted": "2026-05-23"
      }
    },
    {
      "type": "Feature",
      "geometry": {
        "type": "Point",
        "coordinates": [
          10.8137588,
          53.9166981
        ]
      },
      "properties": {
        "id": "tk_lu_osm_n7860196562",
        "name": "Ernst Simon",
        "address": {
          "street": "Ostpreußenring",
          "number": "8",
          "postalcode": "23569",
          "city": "Lübeck",
          "district": "Alt-Kücknitz / Dummersdorf / Roter Hahn"
        },
        "sources": [
          {
            "type": "osm",
            "id": "node/7860196562",
            "version": 0
          },
          {
            "type": "gmaps",
            "id": "payment"
          }
        ],
        "created": "2026-05-21",
        "updated": "2026-05-23",
        "hours": {
          "raw": "Su off"
        },
        "payment": {
          "cards": "yes",
          "girocard": "yes",
          "contactless": "yes"
        },
        "apple_id_attempted": "2026-05-23"
      }
    },
    {
      "type": "Feature",
      "geometry": {
        "type": "Point",
        "coordinates": [
          10.6973923,
          53.8650618
        ]
      },
      "properties": {
        "id": "tk_lu_osm_n810167484",
        "name": "hüx kiosk 54",
        "address": {
          "street": "Hüxterdamm",
          "number": "7",
          "postalcode": "23552",
          "city": "Lübeck",
          "district": "Hüxtertor / Mühlentor / Gärtnergasse"
        },
        "sources": [
          {
            "type": "osm",
            "id": "node/810167484",
            "version": 0
          },
          {
            "type": "gmaps",
            "id": "ChIJDSJR6pwJskcRF8-vtE2-epc"
          }
        ],
        "created": "2026-05-21",
        "updated": "2026-05-23",
        "payment_attempted": "2026-05-22",
        "apple_id_attempted": "2026-05-23",
        "google_attempted": "2026-05-23"
      }
    },
    {
      "type": "Feature",
      "geometry": {
        "type": "Point",
        "coordinates": [
          10.6897794,
          53.8460931
        ]
      },
      "properties": {
        "id": "tk_lu_osm_n987958441",
        "name": "Kiosk Reza",
        "address": {
          "street": "Helmholtzstraße",
          "number": "17-19",
          "postalcode": "23562",
          "city": "Lübeck",
          "district": "Hüxtertor / Mühlentor / Gärtnergasse"
        },
        "sources": [
          {
            "type": "osm",
            "id": "node/987958441",
            "version": 0
          },
          {
            "type": "gmaps",
            "id": "payment"
          },
          {
            "type": "apple",
            "id": "4327638981907686228"
          }
        ],
        "created": "2026-05-21",
        "updated": "2026-05-23",
        "hours": {
          "raw": "Mo-Fr 07:00-18:00; Sa 07:00-16:00; Su 07:00-12:00"
        },
        "tags": [
          "barrierefrei"
        ],
        "payment": {
          "cards": "no",
          "girocard": "yes",
          "contactless": "yes"
        }
      }
    },
    {
      "type": "Feature",
      "geometry": {
        "type": "Point",
        "coordinates": [
          10.6940637,
          53.8761549
        ]
      },
      "properties": {
        "id": "tk_lu_osm_w1216008250",
        "name": "wez",
        "address": {
          "street": "Gustav-Radbruch-Platz",
          "number": "1",
          "postalcode": "23568",
          "city": "Lübeck"
        },
        "sources": [
          {
            "type": "osm",
            "id": "way/1216008250",
            "version": 0
          },
          {
            "type": "gmaps",
            "id": "ChIJJ6zN-E0LskcRxgn5OEHMr1g"
          }
        ],
        "created": "2026-05-21",
        "updated": "2026-05-21",
        "payment_attempted": "2026-05-22",
        "apple_id_attempted": "2026-05-23",
        "google_attempted": "2026-05-23"
      }
    },
    {
      "type": "Feature",
      "geometry": {
        "type": "Point",
        "coordinates": [
          10.6994284,
          53.8361939
        ]
      },
      "properties": {
        "id": "tk_lu_osm_w165890067",
        "name": "KIOSK MÖWE",
        "address": {
          "street": "Mönkhofer Weg",
          "postalcode": "23562",
          "city": "Lübeck",
          "district": "Strecknitz"
        },
        "sources": [
          {
            "type": "osm",
            "id": "way/165890067",
            "version": 0
          },
          {
            "type": "gmaps",
            "id": "ChIJ01nqfhoJskcR0IiXePEunhY"
          }
        ],
        "created": "2026-05-21",
        "updated": "2026-05-23",
        "hours": {
          "raw": "Mo-Fr 08:00-17:00"
        },
        "tags": [
          "barrierefrei"
        ],
        "payment_attempted": "2026-05-22",
        "apple_id_attempted": "2026-05-23",
        "google_attempted": "2026-05-23"
      }
    }
  ]
}
