{
  "type": "FeatureCollection",
  "features": [
    {
      "type": "Feature",
      "geometry": {
        "type": "Point",
        "coordinates": [
          7.614582005130812,
          47.55537900813829
        ]
      },
      "properties": {
        "id": "tk_fr_0235",
        "name": "Kiosk Breite Zürcherstraße - Zürich",
        "description": "Frei stehendes Kiosk mit Schiebefenster. Ggü  Haltestelle Breite Tram 3 Richtung Birsfelden",
        "address": {
          "street": "Zürcherstrasse",
          "number": "158",
          "city": "Basel"
        },
        "sources": [
          {
            "type": "hopfenstop",
            "id": "82e9257b-fa00-4c77-8ce3-7b315949b893"
          }
        ],
        "created": "2026-05-19",
        "updated": "2026-05-19"
      }
    },
    {
      "type": "Feature",
      "geometry": {
        "type": "Point",
        "coordinates": [
          7.596156859644974,
          47.5516302055554
        ]
      },
      "properties": {
        "id": "tk_fr_0236",
        "name": "Kiosk Aeschenplatz / St. Alban Anlage - Basel Schweiz",
        "description": "Frei stehendes begehbares Kiosk am Aeschenplatz an Tram 3 Haltestelle Richtung Birsfelden",
        "address": {
          "street": "Aeschenplatz",
          "number": "24",
          "city": "Basel"
        },
        "sources": [
          {
            "type": "hopfenstop",
            "id": "df42b825-50d9-48e9-9d16-9319ec924841"
          }
        ],
        "created": "2026-05-19",
        "updated": "2026-05-19"
      }
    },
    {
      "type": "Feature",
      "geometry": {
        "type": "Point",
        "coordinates": [
          7.594508910197034,
          47.551189940865385
        ]
      },
      "properties": {
        "id": "tk_fr_0237",
        "name": "Kiosk Aeschengraben Ecke Henric Petri-Strasse - Basel Schweiz",
        "description": "Frei stehendes begehbares Kiosk mit Schiebefenster, Aeschengraben 2 Ecke Henric Petri-Strasse,  an Tram Haltestelle Richtung Bahnhof Basel SBB",
        "address": {
          "street": "Aeschengraben",
          "number": "2",
          "city": "Basel"
        },
        "sources": [
          {
            "type": "hopfenstop",
            "id": "39f534e9-90ad-4540-b1ee-552a45d634cf"
          }
        ],
        "created": "2026-05-19",
        "updated": "2026-05-19"
      }
    },
    {
      "type": "Feature",
      "geometry": {
        "type": "Point",
        "coordinates": [
          7.58780559664581,
          47.55892739624062
        ]
      },
      "properties": {
        "id": "tk_fr_0238",
        "name": "Kiosk Eisengasse - Basel Schweiz",
        "description": "Inhouse Kiosk unter der Arkade an Bushaltestelle 36, Eisengasse 18,  ca 50 Meter vom historischen Rathaus entfernt",
        "address": {
          "street": "Marktplatz",
          "number": "2",
          "city": "Basel"
        },
        "sources": [
          {
            "type": "hopfenstop",
            "id": "68ea1ae3-dd9e-487c-89b4-33bc36779d99"
          }
        ],
        "created": "2026-05-19",
        "updated": "2026-05-19"
      }
    },
    {
      "type": "Feature",
      "geometry": {
        "type": "Point",
        "coordinates": [
          7.586727347885134,
          47.55905627090536
        ]
      },
      "properties": {
        "id": "tk_fr_0239",
        "name": "Kiosk Basel Storchen Stadhausgasse - Basel Schweiz",
        "description": "Inhouse Kiosk, eher ein begehbarer Laden in der Altstadt Nähe Marktplatz",
        "address": {
          "street": "Stadthausgasse",
          "number": "21",
          "city": "Basel"
        },
        "sources": [
          {
            "type": "hopfenstop",
            "id": "2996fdbf-b26a-4192-a236-7fd3f0af0735"
          }
        ],
        "created": "2026-05-19",
        "updated": "2026-05-19"
      }
    },
    {
      "type": "Feature",
      "geometry": {
        "type": "Point",
        "coordinates": [
          7.581637659605144,
          47.56653070151626
        ]
      },
      "properties": {
        "id": "tk_fr_0240",
        "name": "Kiosk St. Johann, St. Johanns-Platz - Basel Schweiz",
        "description": "Frei stehendes Kiosk mit Schiebefenster. Direkt an der Tram 2 + 11 Haltestelle, ggü. St. Johanns Tor, St. Johanns.Platz 30, Basel",
        "address": {
          "street": "Sankt Johanns-Ring",
          "city": "Basel"
        },
        "sources": [
          {
            "type": "hopfenstop",
            "id": "b6bb0c85-0b57-445e-9c65-c0486dcfa032"
          }
        ],
        "created": "2026-05-19",
        "updated": "2026-05-19"
      }
    },
    {
      "type": "Feature",
      "geometry": {
        "type": "Point",
        "coordinates": [
          7.589954642515551,
          47.5476362663278
        ]
      },
      "properties": {
        "id": "tk_fr_0241",
        "name": "Kiosk Seitenhalle Bahnhof Basel SBB - Basel Schweiz",
        "description": "Begehbarer Kiosk in der Seitenhalle des Bahnhof Basel SBB",
        "address": {
          "street": "Elisabethenpassage",
          "number": "17",
          "city": "Basel"
        },
        "sources": [
          {
            "type": "hopfenstop",
            "id": "1e6fbc58-2c4b-4622-80fb-8e5eca77ce79"
          }
        ],
        "created": "2026-05-19",
        "updated": "2026-05-19"
      }
    },
    {
      "type": "Feature",
      "geometry": {
        "type": "Point",
        "coordinates": [
          7.589235374830379,
          47.554711837536075
        ]
      },
      "properties": {
        "id": "tk_fr_0242",
        "name": "Kiosk am Barfüsserplatz - Basel Schweiz",
        "description": "Frei stehendes begehbares Kiosk direkt an der Haltestelle Tram 8 am Barfüsserplatz, Basel",
        "address": {
          "street": "Barfüsserplatz",
          "number": "24",
          "city": "Basel"
        },
        "sources": [
          {
            "type": "hopfenstop",
            "id": "7d6eff76-9fd4-43f1-b047-c2bf23dbd396"
          }
        ],
        "created": "2026-05-19",
        "updated": "2026-05-19"
      }
    },
    {
      "type": "Feature",
      "geometry": {
        "type": "Point",
        "coordinates": [
          8.503276999999999,
          47.9399598
        ]
      },
      "properties": {
        "id": "tk_fr_1102",
        "name": "Kiosk König",
        "description": "Kiosk ",
        "address": {
          "street": "Bregstraße",
          "number": "2",
          "postalcode": "78166",
          "city": "Donaueschingen"
        },
        "tags": [
          "fritz_kola"
        ],
        "sources": [
          {
            "type": "hopfenstop",
            "id": "83eed19e-2e8d-4158-bb91-c9c8b7d3b769"
          }
        ],
        "created": "2026-05-19",
        "updated": "2026-05-19"
      }
    },
    {
      "type": "Feature",
      "geometry": {
        "type": "Point",
        "coordinates": [
          7.847197299999999,
          47.9843933
        ]
      },
      "properties": {
        "id": "tk_fr_1128",
        "name": "Kiosk Kiefer",
        "description": "Kiosk ",
        "address": {
          "street": "Günterstalstraße",
          "number": "56",
          "postalcode": "79100",
          "city": "Freiburg im Breisgau",
          "district": "Süd"
        },
        "tags": [
          "fritz_kola",
          "eis",
          "gemischte_tuete",
          "innenraum",
          "lotto",
          "sekt",
          "snacks",
          "sonne",
          "wein"
        ],
        "sources": [
          {
            "type": "hopfenstop",
            "id": "12066cd5-2438-43ea-8298-fa86ca2464f2"
          }
        ],
        "created": "2026-05-19",
        "updated": "2026-05-19"
      }
    },
    {
      "type": "Feature",
      "geometry": {
        "type": "Point",
        "coordinates": [
          7.848350000000001,
          47.98966
        ]
      },
      "properties": {
        "id": "tk_fr_1129",
        "name": "Kiosk Rose ",
        "description": "Kiosk ",
        "address": {
          "street": "Günterstalstraße",
          "number": "3",
          "postalcode": "79102",
          "city": "Freiburg im Breisgau",
          "district": "Süd"
        },
        "tags": [
          "fritz_kola"
        ],
        "sources": [
          {
            "type": "hopfenstop",
            "id": "06b9d120-fec6-4045-9fdc-03e85c4bf0ca"
          }
        ],
        "created": "2026-05-19",
        "updated": "2026-05-19"
      }
    },
    {
      "type": "Feature",
      "geometry": {
        "type": "Point",
        "coordinates": [
          7.847899999999999,
          47.98930000000001
        ]
      },
      "properties": {
        "id": "tk_fr_1130",
        "name": "Kiosk Drexler",
        "description": "Kiosk ",
        "address": {
          "street": "Günterstalstraße",
          "number": "2",
          "postalcode": "79100",
          "city": "Freiburg im Breisgau",
          "district": "Süd"
        },
        "hours": {
          "raw": "Mo-Fr 06:00-19:00; Sa 08:00-19:00"
        },
        "tags": [
          "fritz_kola",
          "eis",
          "gemischte_tuete",
          "kaffee",
          "kuchen",
          "lotto",
          "mate",
          "snacks",
          "ueberdacht"
        ],
        "sources": [
          {
            "type": "hopfenstop",
            "id": "f5e080d7-665a-47c5-9cc3-a1449e5afe5c"
          }
        ],
        "created": "2026-05-19",
        "updated": "2026-05-19"
      }
    },
    {
      "type": "Feature",
      "geometry": {
        "type": "Point",
        "coordinates": [
          7.8408718,
          47.9940018
        ]
      },
      "properties": {
        "id": "tk_fr_1131",
        "name": "Kyosk.org",
        "description": "Kiosk ",
        "address": {
          "street": "Adlerstraße",
          "number": "2",
          "postalcode": "79098",
          "city": "Freiburg im Breisgau",
          "district": "Mitte"
        },
        "tags": [
          "wc",
          "fritz_kola",
          "wein",
          "innenraum",
          "ueberdacht",
          "snacks",
          "sonne",
          "chillout",
          "sitzgelegenheiten",
          "gemischte_tuete",
          "gemuetlich",
          "klassiker",
          "mate"
        ],
        "sources": [
          {
            "type": "hopfenstop",
            "id": "58a9470f-1f28-4b01-9d90-5b211f1027f3"
          }
        ],
        "created": "2026-05-19",
        "updated": "2026-05-19"
      }
    },
    {
      "type": "Feature",
      "geometry": {
        "type": "Point",
        "coordinates": [
          8.4634665,
          48.0592706
        ]
      },
      "properties": {
        "id": "tk_fr_1290",
        "name": "Brigach Kiosk",
        "description": "Kiosk ",
        "address": {
          "street": "Brigachstraße",
          "number": "1",
          "postalcode": "78048",
          "city": "Villingen-Schwenningen"
        },
        "tags": [
          "fritz_kola"
        ],
        "sources": [
          {
            "type": "hopfenstop",
            "id": "3b24e0de-4b46-4a6a-9203-60834b848a6b"
          }
        ],
        "created": "2026-05-19",
        "updated": "2026-05-19"
      }
    },
    {
      "type": "Feature",
      "geometry": {
        "type": "Point",
        "coordinates": [
          8.5371046,
          48.0648235
        ]
      },
      "properties": {
        "id": "tk_fr_1291",
        "name": "Tonis Kiok",
        "description": "Kiosk ",
        "address": {
          "street": "Marktstraße",
          "number": "19",
          "postalcode": "78054",
          "city": "Villingen-Schwenningen"
        },
        "tags": [
          "fritz_kola"
        ],
        "sources": [
          {
            "type": "hopfenstop",
            "id": "c86b1957-3bc6-4614-a2a5-c82bfecff504"
          }
        ],
        "created": "2026-05-19",
        "updated": "2026-05-19"
      }
    },
    {
      "type": "Feature",
      "geometry": {
        "type": "Point",
        "coordinates": [
          7.9652284,
          48.0970634
        ]
      },
      "properties": {
        "id": "tk_fr_1775",
        "name": "Kiosk Ketterer",
        "description": "Seit 40 Jahren",
        "address": {
          "street": "Lange Straße",
          "number": "99",
          "postalcode": "79183",
          "city": "Waldkirch"
        },
        "hours": {
          "raw": "Mo-Su 09:00-17:00"
        },
        "tags": [
          "eis",
          "gemischte_tuete",
          "innenraum",
          "kaffee",
          "lotto",
          "sekt",
          "snacks",
          "sonne",
          "ueberdacht",
          "chillout",
          "wein"
        ],
        "sources": [
          {
            "type": "hopfenstop",
            "id": "e5222b4a-1479-425f-ae30-954dc807f680"
          }
        ],
        "created": "2026-05-19",
        "updated": "2026-05-19"
      }
    },
    {
      "type": "Feature",
      "geometry": {
        "type": "Point",
        "coordinates": [
          7.807577800000001,
          47.9972731
        ]
      },
      "properties": {
        "id": "tk_fr_1776",
        "name": "Kiosk Bugginger Straße",
        "description": "Im Herzen von Weingarten",
        "address": {
          "street": "Sulzburger Straße",
          "number": "33",
          "postalcode": "79114",
          "city": "Freiburg im Breisgau",
          "district": "Weingarten"
        },
        "hours": {
          "raw": "Mo-Su 09:00-18:00"
        },
        "tags": [
          "eis",
          "gemischte_tuete",
          "sekt",
          "snacks",
          "ueberdacht",
          "sonne",
          "wein"
        ],
        "sources": [
          {
            "type": "hopfenstop",
            "id": "c613b666-b3de-41dc-bd42-d1067e79e352"
          }
        ],
        "created": "2026-05-19",
        "updated": "2026-05-19"
      }
    },
    {
      "type": "Feature",
      "geometry": {
        "type": "Point",
        "coordinates": [
          7.854351800000001,
          48.0100378
        ]
      },
      "properties": {
        "id": "tk_fr_1779",
        "name": "Gaby‘s Kiosk",
        "description": "Legendär mit Kacheloptik ",
        "address": {
          "street": "Habsburgerstraße",
          "number": "10",
          "postalcode": "79104",
          "city": "Freiburg im Breisgau",
          "district": "Nord"
        },
        "hours": {
          "raw": "Mo 05:00-20:30; We-Su 05:00-20:30"
        },
        "tags": [
          "eis",
          "gemischte_tuete",
          "kaffee",
          "lotto",
          "sekt",
          "sonne",
          "ueberdacht",
          "wein"
        ],
        "sources": [
          {
            "type": "hopfenstop",
            "id": "68bfc1da-ec7d-47d4-bdc6-2b2fbc4b4f89"
          }
        ],
        "created": "2026-05-19",
        "updated": "2026-05-19"
      }
    },
    {
      "type": "Feature",
      "geometry": {
        "type": "Point",
        "coordinates": [
          7.8737739,
          47.9876599
        ]
      },
      "properties": {
        "id": "tk_fr_1783",
        "name": "Biosk",
        "description": "Generalüberholter Kaffeekiosk mit Green City Charme an der alten Stadthalle. Mountainbiker-Treffpunkt im Freiburger Osten.",
        "address": {
          "street": "Schwarzwaldstraße",
          "number": "80A",
          "postalcode": "79102",
          "city": "Freiburg im Breisgau",
          "district": "Süd"
        },
        "hours": {
          "raw": "Mo-Fr 08:00-17:00; Sa-Su 10:00-18:00"
        },
        "tags": [
          "eis",
          "gemischte_tuete",
          "kaffee",
          "kuchen",
          "mate",
          "sitzgelegenheiten",
          "snacks",
          "ueberdacht",
          "sonne",
          "fritz_kola",
          "milch",
          "flair",
          "barrierefrei",
          "backwaren",
          "chillout",
          "gemuetlich",
          "klassiker",
          "stehtisch"
        ],
        "sources": [
          {
            "type": "hopfenstop",
            "id": "194cd966-a7db-4115-bd8c-ecebe1670a3f"
          }
        ],
        "created": "2026-05-19",
        "updated": "2026-05-19"
      }
    },
    {
      "type": "Feature",
      "geometry": {
        "type": "Point",
        "coordinates": [
          7.8076334,
          48.0137098
        ]
      },
      "properties": {
        "id": "tk_fr_1789",
        "name": "Kiosk Paduaallee",
        "description": "Einer von insgesamt noch fünf betriebenen VAG-Kioske in Freiburg",
        "address": {
          "street": "Breisgauer Straße",
          "number": "2B",
          "postalcode": "79110",
          "city": "Freiburg im Breisgau",
          "district": "West"
        },
        "hours": {
          "raw": "Mo-Fr 06:00-18:00"
        },
        "sources": [
          {
            "type": "hopfenstop",
            "id": "05a46a6e-fa43-4d5b-9010-3e79dbc44b50"
          }
        ],
        "created": "2026-05-19",
        "updated": "2026-05-19"
      }
    },
    {
      "type": "Feature",
      "geometry": {
        "type": "Point",
        "coordinates": [
          7.8535342,
          47.9990508
        ]
      },
      "properties": {
        "id": "tk_fr_1790",
        "name": "Kiosk Parkhaus am Zähringer Tor",
        "description": "Etwas versteckt. Betreiber übernahm Kiosk im Alter von 18 Jahren, seit 34 Jahren in einer Hand.",
        "address": {
          "street": "Habsburgerstraße",
          "number": "127",
          "postalcode": "79104",
          "city": "Freiburg im Breisgau",
          "district": "Mitte"
        },
        "hours": {
          "raw": "Mo-Sa 07:00-19:30"
        },
        "tags": [
          "eis",
          "wc",
          "innenraum",
          "kaffee",
          "gemischte_tuete",
          "kuchen",
          "lotto",
          "sekt",
          "snacks",
          "sonne",
          "ueberdacht",
          "wein",
          "fritz_kola",
          "milch",
          "postkarten",
          "rubbellose",
          "schnaps",
          "zeitschriften",
          "klassiker"
        ],
        "sources": [
          {
            "type": "hopfenstop",
            "id": "95f373dc-09c2-4d5f-8f77-73080bb67f3f"
          }
        ],
        "created": "2026-05-19",
        "updated": "2026-05-19"
      }
    },
    {
      "type": "Feature",
      "geometry": {
        "type": "Point",
        "coordinates": [
          7.8552754,
          47.99157690000001
        ]
      },
      "properties": {
        "id": "tk_fr_1791",
        "name": "Kiosk 8",
        "description": "Schließt eine Lücke im Freiburger Osten, Dreisamnähe",
        "address": {
          "street": "Kartäuserstraße",
          "number": "8",
          "postalcode": "79102",
          "city": "Freiburg im Breisgau",
          "district": "Süd"
        },
        "hours": {
          "raw": "Mo-Fr 15:30-20:00; Sa 10:00-20:00"
        },
        "tags": [
          "lotto",
          "kaffee",
          "mate",
          "sekt",
          "snacks",
          "postkarten"
        ],
        "sources": [
          {
            "type": "hopfenstop",
            "id": "1f98f3a1-d772-4657-a957-cb2d5be2b0d9"
          }
        ],
        "created": "2026-05-19",
        "updated": "2026-05-19"
      }
    },
    {
      "type": "Feature",
      "geometry": {
        "type": "Point",
        "coordinates": [
          7.852765,
          47.9972496
        ]
      },
      "properties": {
        "id": "tk_fr_1792",
        "name": "Kiosk am Holzmarkt",
        "description": "Schöner freistehender Kiosk am historischen Martinstor",
        "address": {
          "street": "Kaiser-Joseph-Straße",
          "number": "155",
          "postalcode": "79098",
          "city": "Freiburg im Breisgau",
          "district": "Mitte"
        },
        "hours": {
          "raw": "Mo-Sa 08:00-19:00; Su 11:00-17:00"
        },
        "tags": [
          "eis",
          "gemischte_tuete",
          "kaffee",
          "lotto",
          "snacks",
          "sonne",
          "ueberdacht",
          "barrierefrei",
          "postkarten",
          "rubbellose",
          "zeitschriften"
        ],
        "sources": [
          {
            "type": "hopfenstop",
            "id": "99710c9b-2bf0-4ee3-b84e-0c56ee522f52"
          }
        ],
        "created": "2026-05-19",
        "updated": "2026-05-19"
      }
    },
    {
      "type": "Feature",
      "geometry": {
        "type": "Point",
        "coordinates": [
          7.809070800000001,
          48.02807019999999
        ]
      },
      "properties": {
        "id": "tk_fr_1797",
        "name": "Kiosk Stadtbahn Landwasser",
        "description": "VAG-Kiosk, seit 1985. Ein tolles Naherholungsziel ist der unmittelbar benachbarte Moosweiher mit 70er Jahre Retrocharme ",
        "address": {
          "street": "Elsässer Straße",
          "number": "100",
          "postalcode": "79110",
          "city": "Freiburg im Breisgau",
          "district": "West"
        },
        "hours": {
          "raw": "Mo-Sa 06:00-18:00"
        },
        "tags": [
          "wc",
          "barrierefrei",
          "backwaren",
          "eis",
          "flair",
          "kaffee",
          "innenraum",
          "lotto",
          "sonne",
          "snacks",
          "zeitschriften",
          "ueberdacht",
          "wein"
        ],
        "sources": [
          {
            "type": "hopfenstop",
            "id": "cdf1806a-9d25-4469-befe-cf26ea3b3330"
          }
        ],
        "created": "2026-05-19",
        "updated": "2026-05-19"
      }
    },
    {
      "type": "Feature",
      "geometry": {
        "type": "Point",
        "coordinates": [
          7.849686199999999,
          47.994335
        ]
      },
      "properties": {
        "id": "tk_fr_1798",
        "name": "Kiosk Dietler-Passage",
        "description": "Etwas versteckt in der Nähe des abends beliebten Augustinerplatzes",
        "address": {
          "street": "Grünwälderstraße",
          "number": "1",
          "postalcode": "79098",
          "city": "Freiburg im Breisgau",
          "district": "Mitte"
        },
        "tags": [
          "eis",
          "gemischte_tuete",
          "innenraum",
          "kaffee",
          "lotto",
          "kuchen",
          "snacks",
          "sonne",
          "ueberdacht",
          "barrierefrei"
        ],
        "sources": [
          {
            "type": "hopfenstop",
            "id": "9878b8da-dfe2-48cb-aefb-a271bd528cb5"
          }
        ],
        "created": "2026-05-19",
        "updated": "2026-05-19"
      }
    },
    {
      "type": "Feature",
      "geometry": {
        "type": "Point",
        "coordinates": [
          7.837365699999999,
          48.00017949999999
        ]
      },
      "properties": {
        "id": "tk_fr_1799",
        "name": "Kiosk 34",
        "description": "Einer von zwei Kiosken in der Eschholzstraße, etwas breiter aufgestellt als sein Gegenüber (Bis Späti)",
        "address": {
          "street": "Eschholzstraße",
          "number": "34",
          "postalcode": "79106",
          "city": "Freiburg im Breisgau",
          "district": "West"
        },
        "hours": {
          "raw": "Mo-Fr 15:00-20:00; Sa 10:00-20:00"
        },
        "tags": [
          "eis",
          "gemischte_tuete",
          "mate",
          "innenraum",
          "lotto",
          "kuchen",
          "snacks",
          "sonne",
          "ueberdacht",
          "wein",
          "fritz_kola",
          "wc",
          "kaffee",
          "musik",
          "sekt",
          "barrierefrei"
        ],
        "sources": [
          {
            "type": "hopfenstop",
            "id": "fd0d8a6c-1f74-461a-8360-143c0bfbe90a"
          }
        ],
        "created": "2026-05-19",
        "updated": "2026-05-19"
      }
    },
    {
      "type": "Feature",
      "geometry": {
        "type": "Point",
        "coordinates": [
          7.809168700000001,
          48.0117456
        ]
      },
      "properties": {
        "id": "tk_fr_1802",
        "name": "Kiosk Bischofslinde",
        "description": "Authentischer Kiosk Nähe Seepark",
        "address": {
          "street": "Dietenbachstraße",
          "number": "1",
          "postalcode": "79114",
          "city": "Freiburg im Breisgau",
          "district": "West"
        },
        "hours": {
          "raw": "Mo-Fr 07:00-18:00; Sa 06:30-14:00"
        },
        "tags": [
          "eis",
          "gemischte_tuete",
          "kaffee",
          "lotto",
          "kuchen",
          "sekt",
          "snacks",
          "sonne",
          "ueberdacht",
          "wein",
          "fritz_kola",
          "stehtisch",
          "barrierefrei",
          "flair",
          "gemuetlich",
          "klassiker",
          "paketshop",
          "postkarten",
          "schnaps",
          "rubbellose",
          "zeitschriften"
        ],
        "sources": [
          {
            "type": "hopfenstop",
            "id": "eae93cb8-da46-4315-b420-c95bb6e42721"
          }
        ],
        "created": "2026-05-19",
        "updated": "2026-05-19"
      }
    },
    {
      "type": "Feature",
      "geometry": {
        "type": "Point",
        "coordinates": [
          7.8160088,
          47.99093569999999
        ]
      },
      "properties": {
        "id": "tk_fr_1806",
        "name": "Kiosk am Haslacher Brunnen",
        "description": "Der Schwerpunkt dieses in der Nähe der Haslacher Gartenstadt gelegenen Stadtteilkiosks liegt auf Tabakwaren in allen Sorten und Abgabegrößen",
        "address": {
          "street": "Carl-Kistner-Straße",
          "number": "2",
          "postalcode": "79115",
          "city": "Freiburg im Breisgau",
          "district": "Haslach"
        },
        "tags": [
          "gemischte_tuete",
          "innenraum",
          "kaffee",
          "lotto",
          "snacks",
          "ueberdacht",
          "paketshop"
        ],
        "sources": [
          {
            "type": "hopfenstop",
            "id": "856ee4ff-4869-48ef-a7f8-5d4578828c94"
          }
        ],
        "created": "2026-05-19",
        "updated": "2026-05-19"
      }
    },
    {
      "type": "Feature",
      "geometry": {
        "type": "Point",
        "coordinates": [
          7.8467316,
          48.0056536
        ]
      },
      "properties": {
        "id": "tk_fr_1807",
        "name": "Brunnelädele",
        "description": "Unscheinbar auf den ersten Blick, ansonsten gut sortierter Kiosk mit angeschlossenen Backshop.",
        "address": {
          "street": "Tennenbacher Straße",
          "number": "38",
          "postalcode": "79106",
          "city": "Freiburg im Breisgau",
          "district": "West"
        },
        "hours": {
          "raw": "Mo-Sa 06:00-18:30"
        },
        "tags": [
          "eis",
          "gemischte_tuete",
          "innenraum",
          "kaffee",
          "kuchen",
          "lotto",
          "sekt",
          "sitzgelegenheiten",
          "snacks",
          "sonne",
          "ueberdacht",
          "wein",
          "fritz_kola",
          "gemuetlich",
          "backwaren",
          "barrierefrei",
          "longpapes",
          "milch",
          "schnaps",
          "stehtisch",
          "zeitschriften"
        ],
        "sources": [
          {
            "type": "hopfenstop",
            "id": "1590e6a2-1297-4b85-874d-e365c926cf64"
          }
        ],
        "created": "2026-05-19",
        "updated": "2026-05-19"
      }
    },
    {
      "type": "Feature",
      "geometry": {
        "type": "Point",
        "coordinates": [
          7.7961612,
          47.9883128
        ]
      },
      "properties": {
        "id": "tk_fr_1808",
        "name": "Kiosk-Haid",
        "description": "Einer der noch verbliebenen VAG-Kioske in der Stadt. Die Lage im Gewerbegebiet wird durch einen sehr rührigen Betreiber kompensiert.",
        "address": {
          "street": "Munzinger Straße",
          "number": "1c",
          "postalcode": "79111",
          "city": "Freiburg im Breisgau",
          "district": "Sankt Georgen"
        },
        "tags": [
          "wc",
          "eis",
          "gemischte_tuete",
          "innenraum",
          "kaffee",
          "kuchen",
          "lotto",
          "mate",
          "sitzgelegenheiten",
          "sekt",
          "snacks",
          "sonne",
          "ueberdacht",
          "wein",
          "fritz_kola",
          "rubbellose"
        ],
        "sources": [
          {
            "type": "hopfenstop",
            "id": "15f6c714-f45c-4e61-954e-4234cfb9af7d"
          }
        ],
        "created": "2026-05-19",
        "updated": "2026-05-19"
      }
    },
    {
      "type": "Feature",
      "geometry": {
        "type": "Point",
        "coordinates": [
          7.759977999999999,
          47.4723798
        ]
      },
      "properties": {
        "id": "tk_fr_1810",
        "name": "Kiosk Sivas",
        "description": "Kiosk-Perle in Basel-Land",
        "address": {
          "street": "Wolfgasse",
          "number": "2",
          "city": "Lausen"
        },
        "sources": [
          {
            "type": "hopfenstop",
            "id": "053115f0-4f0c-4ce4-b9c1-9a6a83c495e3"
          }
        ],
        "created": "2026-05-19",
        "updated": "2026-05-19"
      }
    },
    {
      "type": "Feature",
      "geometry": {
        "type": "Point",
        "coordinates": [
          7.806688400000001,
          47.9976447
        ]
      },
      "properties": {
        "id": "tk_fr_1829",
        "name": "Viktor & Swetlana",
        "description": "Kiosk- und Schreibwarenhandel mit Osteuropa-Flair",
        "address": {
          "street": "Bugginger Straße",
          "number": "54",
          "postalcode": "79114",
          "city": "Freiburg im Breisgau",
          "district": "Weingarten"
        },
        "hours": {
          "raw": "Mo-Sa 07:00-19:00; Su 07:00-18:00"
        },
        "sources": [
          {
            "type": "hopfenstop",
            "id": "8f4eae87-0c33-496c-86dd-ebbb9eaed29a"
          }
        ],
        "created": "2026-05-19",
        "updated": "2026-05-19"
      }
    },
    {
      "type": "Feature",
      "geometry": {
        "type": "Point",
        "coordinates": [
          7.5741969,
          47.5621144
        ]
      },
      "properties": {
        "id": "tk_fr_1842",
        "name": "Kiosk Strassenbahn",
        "description": "Denkmalgeschütztes Tramhäuschen von 1926",
        "address": {
          "street": "Kannenfeldstrasse",
          "number": "2",
          "city": "Basel"
        },
        "sources": [
          {
            "type": "hopfenstop",
            "id": "74f77a4e-9a89-4e61-be5c-2b5eef2637cb"
          }
        ],
        "created": "2026-05-19",
        "updated": "2026-05-19"
      }
    },
    {
      "type": "Feature",
      "geometry": {
        "type": "Point",
        "coordinates": [
          7.5689631,
          47.5645266
        ]
      },
      "properties": {
        "id": "tk_fr_1843",
        "name": "Kiosk Kannenfeldpark",
        "description": "Kiosk",
        "address": {
          "street": "Burgfelderstrasse",
          "number": "70",
          "city": "Basel"
        },
        "sources": [
          {
            "type": "hopfenstop",
            "id": "82f5a197-d57d-4d4b-a4ab-805ecd57209a"
          }
        ],
        "created": "2026-05-19",
        "updated": "2026-05-19"
      }
    },
    {
      "type": "Feature",
      "geometry": {
        "type": "Point",
        "coordinates": [
          7.6113081,
          47.5674664
        ]
      },
      "properties": {
        "id": "tk_fr_1844",
        "name": "Kiosk Hirzbrunnen",
        "description": "Nähe Badischer Bahnhof",
        "address": {
          "street": "Riehenstrasse",
          "number": "239",
          "city": "Basel"
        },
        "sources": [
          {
            "type": "hopfenstop",
            "id": "7c9e3755-2482-4684-b324-811a74389106"
          }
        ],
        "created": "2026-05-19",
        "updated": "2026-05-19"
      }
    },
    {
      "type": "Feature",
      "geometry": {
        "type": "Point",
        "coordinates": [
          7.6268117,
          47.56245089999999
        ]
      },
      "properties": {
        "id": "tk_fr_1845",
        "name": "Kiosk Grenzacherstrasse",
        "description": "Charakteristische Gestaltungselementebdwr 1950er Jahre machen den Kleinbau zu einem architektonischen Zeitzeugen",
        "address": {
          "street": "Grenzacherstrasse",
          "number": "488",
          "city": "Basel"
        },
        "sources": [
          {
            "type": "hopfenstop",
            "id": "07224253-2ae0-478f-a3d6-2fe0529cbb1c"
          }
        ],
        "created": "2026-05-19",
        "updated": "2026-05-19"
      }
    },
    {
      "type": "Feature",
      "geometry": {
        "type": "Point",
        "coordinates": [
          7.595264799999999,
          47.5651179
        ]
      },
      "properties": {
        "id": "tk_fr_1846",
        "name": "Kiosk Hammereck",
        "description": "Guter Kiosk mit Authentizität in Kleinbasel Nähe Messe",
        "address": {
          "street": "Hammerstrasse",
          "number": "91",
          "city": "Basel"
        },
        "sources": [
          {
            "type": "hopfenstop",
            "id": "a82d6ba5-1364-4a45-8022-92d0ecb7afac"
          }
        ],
        "created": "2026-05-19",
        "updated": "2026-05-19"
      }
    },
    {
      "type": "Feature",
      "geometry": {
        "type": "Point",
        "coordinates": [
          7.5907998,
          47.566128
        ]
      },
      "properties": {
        "id": "tk_fr_1847",
        "name": "Kiosk Ambassador N",
        "description": "Riesige Auswahl auf kleinstem Raum, Snackautomat erlaubt Zugriff auch wenn Kiosk geschlossen ",
        "address": {
          "street": "Feldbergstrasse",
          "number": "50",
          "city": "Basel"
        },
        "sources": [
          {
            "type": "hopfenstop",
            "id": "aa898d54-ed7b-4754-a2ad-93fc17c6ea4e"
          }
        ],
        "created": "2026-05-19",
        "updated": "2026-05-19"
      }
    },
    {
      "type": "Feature",
      "geometry": {
        "type": "Point",
        "coordinates": [
          7.5654777,
          47.5570101
        ]
      },
      "properties": {
        "id": "tk_fr_1848",
        "name": "Kiosk Morgartenring",
        "description": "Kiosk",
        "address": {
          "street": "Allschwilerstrasse",
          "number": "127",
          "city": "Basel"
        },
        "sources": [
          {
            "type": "hopfenstop",
            "id": "53a64268-1c42-494f-850a-96a20b702da6"
          }
        ],
        "created": "2026-05-19",
        "updated": "2026-05-19"
      }
    },
    {
      "type": "Feature",
      "geometry": {
        "type": "Point",
        "coordinates": [
          7.592746999999998,
          47.5824467
        ]
      },
      "properties": {
        "id": "tk_fr_1849",
        "name": "Kiosk Bork",
        "description": "In Kleinhüningen Nähe Grenze",
        "address": {
          "street": "Dorfstrasse",
          "number": "14",
          "city": "Basel"
        },
        "sources": [
          {
            "type": "hopfenstop",
            "id": "782f7991-2a05-44af-8082-3b49d10eadd4"
          }
        ],
        "created": "2026-05-19",
        "updated": "2026-05-19"
      }
    },
    {
      "type": "Feature",
      "geometry": {
        "type": "Point",
        "coordinates": [
          7.573886099999999,
          47.5657684
        ]
      },
      "properties": {
        "id": "tk_fr_1851",
        "name": "Kiosk Straßenbahn (korrekt)",
        "description": "Denkmalgeschütztes Straßenbahnhäuschen von 1926",
        "address": {
          "street": "Kannenfeldplatz",
          "number": "6",
          "city": "Basel"
        },
        "tags": [
          "wc"
        ],
        "sources": [
          {
            "type": "hopfenstop",
            "id": "ce9e4a01-00cd-4bb3-a425-baa77a861e5d"
          }
        ],
        "created": "2026-05-19",
        "updated": "2026-05-19"
      }
    },
    {
      "type": "Feature",
      "geometry": {
        "type": "Point",
        "coordinates": [
          7.854012499999999,
          47.9968415
        ]
      },
      "properties": {
        "id": "tk_fr_1860",
        "name": "Kiosk im Karlsbau",
        "description": "Direkt am Stadtgarten\n",
        "address": {
          "street": "Auf der Zinnen",
          "number": "12",
          "postalcode": "79098",
          "city": "Freiburg im Breisgau",
          "district": "Mitte"
        },
        "sources": [
          {
            "type": "hopfenstop",
            "id": "a55b41ce-bf95-4f23-abd3-63dac2fd7ff3"
          }
        ],
        "created": "2026-05-19",
        "updated": "2026-05-19"
      }
    },
    {
      "type": "Feature",
      "geometry": {
        "type": "Point",
        "coordinates": [
          7.8505786,
          47.9946242
        ]
      },
      "properties": {
        "id": "tk_fr_1895",
        "name": "Kiosk Box",
        "description": "Nähe Münsterplatz, eher Standard aber sehr gut gelegen",
        "address": {
          "street": "Salzstraße",
          "number": "3",
          "postalcode": "79098",
          "city": "Freiburg im Breisgau",
          "district": "Mitte"
        },
        "hours": {
          "raw": "Mo-Sa 06:30-19:30"
        },
        "tags": [
          "lotto",
          "sitzgelegenheiten"
        ],
        "sources": [
          {
            "type": "hopfenstop",
            "id": "036519bd-212d-464c-b3f7-9baeea03537a"
          }
        ],
        "created": "2026-05-19",
        "updated": "2026-05-19"
      }
    },
    {
      "type": "Feature",
      "geometry": {
        "type": "Point",
        "coordinates": [
          7.695207099999999,
          47.9175707
        ]
      },
      "properties": {
        "id": "tk_fr_1898",
        "name": "Kiosk am Kurpark",
        "description": "Nostalgie-Charme in der Kurstadt von 1911",
        "address": {
          "street": "Schlatter Straße",
          "number": "32",
          "postalcode": "79189",
          "city": "Bad Krozingen"
        },
        "hours": {
          "raw": "Mo-Sa 08:00-18:00; Su 08:00-12:00"
        },
        "sources": [
          {
            "type": "hopfenstop",
            "id": "0c4c12a1-500c-420a-ae11-4ba850d5ac67"
          }
        ],
        "created": "2026-05-19",
        "updated": "2026-05-19"
      }
    },
    {
      "type": "Feature",
      "geometry": {
        "type": "Point",
        "coordinates": [
          7.666104999999999,
          47.624744
        ]
      },
      "properties": {
        "id": "tk_fr_1901",
        "name": "Die Bartwurst. Der Kiosk.",
        "description": "Der Besitzer hat sich mit Gründergeist und einer besonderen Wurstspezialität zur Aufgabe gemacht, den Rosenfelspark in der Lörracher Innenstadt zu beleben. Leider nur im Sommer geöffnet. Toll für Kinder.",
        "address": {
          "street": "Haagener Straße",
          "number": "97",
          "postalcode": "79539",
          "city": "Lörrach"
        },
        "tags": [
          "wc"
        ],
        "sources": [
          {
            "type": "hopfenstop",
            "id": "59b5aa0e-dd59-461d-bbed-57a7c1675e7f"
          }
        ],
        "created": "2026-05-19",
        "updated": "2026-05-19"
      }
    },
    {
      "type": "Feature",
      "geometry": {
        "type": "Point",
        "coordinates": [
          7.8623985,
          48.3427781
        ]
      },
      "properties": {
        "id": "tk_fr_1907",
        "name": "Kiosk im Stadtpark Lahr",
        "description": "Kinderfreundlich im 1875 von Christian Jamm angelegten Landschaftspark",
        "address": {
          "street": "Bergstraße",
          "number": "76",
          "postalcode": "77933",
          "city": "Lahr/Schwarzwald"
        },
        "sources": [
          {
            "type": "hopfenstop",
            "id": "f53eee8d-14f1-4349-acdf-9007c04ab78f"
          }
        ],
        "created": "2026-05-19",
        "updated": "2026-05-19"
      }
    },
    {
      "type": "Feature",
      "geometry": {
        "type": "Point",
        "coordinates": [
          7.841177699999999,
          47.9965905
        ]
      },
      "properties": {
        "id": "tk_fr_1938",
        "name": "Kiosk VAG-Brücke",
        "description": "Bahnhofsnaher Kiosk, Neuentdeckung ",
        "address": {
          "street": "Bismarckallee",
          "number": "1A",
          "postalcode": "79098",
          "city": "Freiburg im Breisgau",
          "district": "Mitte"
        },
        "sources": [
          {
            "type": "hopfenstop",
            "id": "389fda6c-9608-41a8-954c-09b7851856e9"
          }
        ],
        "created": "2026-05-19",
        "updated": "2026-05-19"
      }
    },
    {
      "type": "Feature",
      "geometry": {
        "type": "Point",
        "coordinates": [
          7.8939006,
          47.98466519999999
        ]
      },
      "properties": {
        "id": "tk_fr_1970",
        "name": "Kiosk Laßbergstraße",
        "description": "Wiederbelebter VAG-Kiosk ab der Endhaltestelle Littenweiler",
        "address": {
          "street": "Hansjakobstraße",
          "number": "166",
          "postalcode": "79117",
          "city": "Freiburg im Breisgau",
          "district": "Ost"
        },
        "tags": [
          "wc"
        ],
        "sources": [
          {
            "type": "hopfenstop",
            "id": "d6c760b6-55cb-478f-835f-af2439f30eaa"
          }
        ],
        "created": "2026-05-19",
        "updated": "2026-05-19"
      }
    },
    {
      "type": "Feature",
      "geometry": {
        "type": "Point",
        "coordinates": [
          7.576036299999999,
          47.5557406
        ]
      },
      "properties": {
        "id": "tk_fr_1984",
        "name": "Kiosk Austrasse",
        "description": "Kiosk",
        "address": {
          "street": "Spalenring",
          "number": "127",
          "city": "Basel"
        },
        "sources": [
          {
            "type": "hopfenstop",
            "id": "7bf2863a-a9ea-453f-8c01-919e88288260"
          }
        ],
        "created": "2026-05-19",
        "updated": "2026-05-19"
      }
    },
    {
      "type": "Feature",
      "geometry": {
        "type": "Point",
        "coordinates": [
          7.841474000000001,
          47.9997838
        ]
      },
      "properties": {
        "id": "tk_fr_2047",
        "name": "Späti 79",
        "description": "Primär Shisha-Flair- Lückenschließer im Stühlinger ",
        "address": {
          "street": "Lehener Straße",
          "number": "9",
          "postalcode": "79106",
          "city": "Freiburg im Breisgau",
          "district": "West"
        },
        "sources": [
          {
            "type": "hopfenstop",
            "id": "77b4c407-2fe1-4ad5-81d8-15e4c3bdef11"
          }
        ],
        "created": "2026-05-19",
        "updated": "2026-05-19"
      }
    }
  ]
}
