{
  "type": "FeatureCollection",
  "features": [
    {
      "type": "Feature",
      "geometry": {
        "type": "Point",
        "coordinates": [
          7.766041159629821,
          49.44488665735685
        ]
      },
      "properties": {
        "id": "tk_fr_0317",
        "name": "Kiosk City Point",
        "description": "Eine Trinkhalle wie aus einer andern Zeit  Last Büdchen Standing  aber das mit einer Menge Würde und charmanter Patina. Für alle die genug vom K in Lautern Hochglanz haben. Ganz klarer Hingetipp für Büdchenfans. ",
        "address": {
          "street": "Maxstraße",
          "number": "1",
          "postalcode": "67659",
          "city": "Kaiserslautern"
        },
        "sources": [
          {
            "type": "hopfenstop",
            "id": "b0702853-c79c-414d-9266-4845e674ceaf"
          }
        ],
        "created": "2026-05-19",
        "updated": "2026-05-19"
      }
    },
    {
      "type": "Feature",
      "geometry": {
        "type": "Point",
        "coordinates": [
          9.00084435939789,
          49.68375241186703
        ]
      },
      "properties": {
        "id": "tk_fr_0397",
        "name": "Kiosk Michelstadt",
        "description": "Kiosk nahe des Bahnhof in Michelstadt",
        "address": {
          "street": "Bahnhofstraße",
          "number": "58",
          "postalcode": "64720",
          "city": "Michelstadt"
        },
        "tags": [
          "wc"
        ],
        "sources": [
          {
            "type": "hopfenstop",
            "id": "1fa1f108-0ab6-43d5-9431-d006784486af"
          }
        ],
        "created": "2026-05-19",
        "updated": "2026-05-19"
      }
    },
    {
      "type": "Feature",
      "geometry": {
        "type": "Point",
        "coordinates": [
          8.47153,
          49.50001
        ]
      },
      "properties": {
        "id": "tk_fr_0463",
        "name": "Kiosk am Eck",
        "description": "Mittlere Auswahl an Pils und Export Bieren. Außerdem große Auswahl an Snacks und Konserven. Im Sommer auch Grillkohle.",
        "address": {
          "street": "Waldhofstraße",
          "number": "38C",
          "postalcode": "68169",
          "city": "Mannheim",
          "district": "Neckarstadt"
        },
        "tags": [
          "snacks"
        ],
        "sources": [
          {
            "type": "hopfenstop",
            "id": "59d7b0ec-5d75-4984-88b6-51a3adfc8a70"
          }
        ],
        "created": "2026-05-19",
        "updated": "2026-05-19"
      }
    },
    {
      "type": "Feature",
      "geometry": {
        "type": "Point",
        "coordinates": [
          8.481531,
          49.5251486
        ]
      },
      "properties": {
        "id": "tk_fr_0475",
        "name": "Kiosk \"Back Food\"",
        "description": "Gute Auswahl Pils und Export verschiedener Brauereien. Tagsüber auch Backwaren.",
        "address": {
          "street": "Oppauer Straße",
          "number": "2",
          "postalcode": "68305",
          "city": "Mannheim",
          "district": "Waldhof"
        },
        "tags": [
          "backwaren",
          "snacks"
        ],
        "sources": [
          {
            "type": "hopfenstop",
            "id": "17fdf113-03e1-423d-83ff-643671902f5a"
          }
        ],
        "created": "2026-05-19",
        "updated": "2026-05-19"
      }
    },
    {
      "type": "Feature",
      "geometry": {
        "type": "Point",
        "coordinates": [
          8.4789512,
          49.4807454
        ]
      },
      "properties": {
        "id": "tk_fr_0588",
        "name": "Die Tanke",
        "description": "Öffnungszeiten der Tanke:\nMontag 0:00 Uhr bis Samstag 24:00 Uhr durchgehend geöffnet.\n\nLebensmittel aller Art\n\nKosmetik und Körperpflege Feinkost Fertiggerichte Konserven, Gebäck Kaffee und Kakao Süssigkeiten Suppen, Saucen und Sossen Tiernahrung Waschmittel und Reinigungsmittel Wurstwaren Backartikel Zeitschriften\n\nund\n\nGetränke\n\nAlkoholfreie Getränke  Säfte Wein Sekt Bier Mixgetränke Spirituosen",
        "address": {
          "street": "Seckenheimer Straße",
          "number": "11A",
          "postalcode": "68165",
          "city": "Mannheim",
          "district": "Schwetzingerstadt"
        },
        "hours": {
          "raw": "Mo-Sa 00:00-23:59"
        },
        "tags": [
          "kaffee",
          "sekt",
          "wein",
          "zeitschriften",
          "gemischte_tuete",
          "eis",
          "innenraum",
          "musik",
          "sitzgelegenheiten",
          "ueberdacht"
        ],
        "sources": [
          {
            "type": "hopfenstop",
            "id": "a51f76da-283f-42e6-8dad-fd95c476a11a"
          }
        ],
        "created": "2026-05-19",
        "updated": "2026-05-19"
      }
    },
    {
      "type": "Feature",
      "geometry": {
        "type": "Point",
        "coordinates": [
          8.6414572,
          49.40169849999999
        ]
      },
      "properties": {
        "id": "tk_fr_0646",
        "name": "Kiosk Dolce Vita",
        "description": "Freistehendes Lotto Kiosk mit Backwaren.",
        "address": {
          "street": "Kranichweg",
          "number": "1",
          "postalcode": "69123",
          "city": "Heidelberg"
        },
        "tags": [
          "lotto",
          "backwaren",
          "snacks"
        ],
        "sources": [
          {
            "type": "hopfenstop",
            "id": "cea2761d-9b8e-4703-ac40-00227ae64507"
          }
        ],
        "created": "2026-05-19",
        "updated": "2026-05-19"
      }
    },
    {
      "type": "Feature",
      "geometry": {
        "type": "Point",
        "coordinates": [
          8.4753721,
          49.5163191
        ]
      },
      "properties": {
        "id": "tk_fr_0771",
        "name": "Kiosk - Imbiss am Luzenberg",
        "description": "Kleiner Kiosk mit Außenbestuhlung. Super freundliche Verkäuferin.",
        "address": {
          "street": "Sandhofer Straße",
          "number": "8",
          "postalcode": "68305",
          "city": "Mannheim",
          "district": "Waldhof"
        },
        "sources": [
          {
            "type": "hopfenstop",
            "id": "c8498ee2-b692-4096-8a62-dd04d2a603d2"
          }
        ],
        "created": "2026-05-19",
        "updated": "2026-05-19"
      }
    },
    {
      "type": "Feature",
      "geometry": {
        "type": "Point",
        "coordinates": [
          8.50556,
          49.03084
        ]
      },
      "properties": {
        "id": "tk_fr_0807",
        "name": "Graf",
        "description": "Freistehendes Kiosk direkt am Radweg nach Pforzheim. Draussen mit Sotzmöglichkeiten und Sonnenschirmen.",
        "address": {
          "street": "Im Stalbühl",
          "number": "1",
          "postalcode": "76229",
          "city": "Karlsruhe",
          "district": "Grötzingen"
        },
        "tags": [
          "wc"
        ],
        "sources": [
          {
            "type": "hopfenstop",
            "id": "942a3820-621d-4c92-8781-57e14d18f8da"
          }
        ],
        "created": "2026-05-19",
        "updated": "2026-05-19"
      }
    },
    {
      "type": "Feature",
      "geometry": {
        "type": "Point",
        "coordinates": [
          8.459807699999999,
          49.494459
        ]
      },
      "properties": {
        "id": "tk_fr_0824",
        "name": "Yüksel",
        "description": "Günstig, reichlich Auswahl und überaus nette Besitzer!!",
        "address": {
          "street": "Beilstraße",
          "number": "20",
          "postalcode": "68159",
          "city": "Mannheim",
          "district": "Innenstadt/Jungbusch"
        },
        "hours": {
          "raw": "Mo-Su 08:00-01:00"
        },
        "sources": [
          {
            "type": "hopfenstop",
            "id": "791d8dd8-3537-492a-9605-550fa3840451"
          }
        ],
        "created": "2026-05-19",
        "updated": "2026-05-19"
      }
    },
    {
      "type": "Feature",
      "geometry": {
        "type": "Point",
        "coordinates": [
          8.734902,
          49.2849149
        ]
      },
      "properties": {
        "id": "tk_fr_1009",
        "name": "Kiosk Hollerbach ",
        "description": "Öffnungszeiten: Mo. bis Fr. 7 bis 20h\n                                            Sa. 7 bis 18h",
        "address": {
          "street": "Eichendorffstraße",
          "number": "20",
          "postalcode": "69234",
          "city": "Dielheim"
        },
        "hours": {
          "raw": "Mo-Fr 07:00-20:00; Sa 07:00-18:00"
        },
        "tags": [
          "wc"
        ],
        "sources": [
          {
            "type": "hopfenstop",
            "id": "24c87e39-55d2-4ab8-b7b6-bbaa822f63c9"
          }
        ],
        "created": "2026-05-19",
        "updated": "2026-05-19"
      }
    },
    {
      "type": "Feature",
      "geometry": {
        "type": "Point",
        "coordinates": [
          8.5528554,
          49.0866041
        ]
      },
      "properties": {
        "id": "tk_fr_1099",
        "name": "Kiosk Aynur",
        "description": "Kiosk ",
        "address": {
          "street": "Büchenauer Straße",
          "number": "1",
          "postalcode": "76646",
          "city": "Bruchsal",
          "district": "Untergrombach"
        },
        "tags": [
          "fritz_kola"
        ],
        "sources": [
          {
            "type": "hopfenstop",
            "id": "35e4da7e-ae59-4400-a487-2f806d1d96ce"
          }
        ],
        "created": "2026-05-19",
        "updated": "2026-05-19"
      }
    },
    {
      "type": "Feature",
      "geometry": {
        "type": "Point",
        "coordinates": [
          8.59138,
          49.12542999999999
        ]
      },
      "properties": {
        "id": "tk_fr_1100",
        "name": "Kiosk Eckshop",
        "description": "Kiosk ",
        "address": {
          "street": "Bahnhofplatz",
          "number": "10",
          "postalcode": "76646",
          "city": "Bruchsal"
        },
        "tags": [
          "fritz_kola"
        ],
        "sources": [
          {
            "type": "hopfenstop",
            "id": "b0cd171c-22ce-46f6-b7c8-5b19adc86a6e"
          }
        ],
        "created": "2026-05-19",
        "updated": "2026-05-19"
      }
    },
    {
      "type": "Feature",
      "geometry": {
        "type": "Point",
        "coordinates": [
          8.693118799999999,
          49.4088438
        ]
      },
      "properties": {
        "id": "tk_fr_1140",
        "name": "Kiosk Mexs",
        "description": "Kiosk ",
        "address": {
          "street": "Bergheimer Straße",
          "number": "1",
          "postalcode": "69115",
          "city": "Heidelberg",
          "district": "Bergheim-Ost"
        },
        "tags": [
          "fritz_kola"
        ],
        "sources": [
          {
            "type": "hopfenstop",
            "id": "1bf2bc6e-92c7-4b6e-aab5-15d776931098"
          }
        ],
        "created": "2026-05-19",
        "updated": "2026-05-19"
      }
    },
    {
      "type": "Feature",
      "geometry": {
        "type": "Point",
        "coordinates": [
          8.6941188,
          49.4096092
        ]
      },
      "properties": {
        "id": "tk_fr_1141",
        "name": "Kiosk Thoma",
        "description": "Kiosk ",
        "address": {
          "street": "Bismarckplatz",
          "number": "1",
          "postalcode": "69115",
          "city": "Heidelberg",
          "district": "Altstadt"
        },
        "tags": [
          "fritz_kola",
          "eis",
          "gemischte_tuete",
          "kaffee",
          "sekt",
          "lotto",
          "sitzgelegenheiten",
          "snacks",
          "wein",
          "sonne",
          "stehtisch"
        ],
        "sources": [
          {
            "type": "hopfenstop",
            "id": "270d29ef-79bd-4f2f-9674-c4e1b1603d8c"
          }
        ],
        "created": "2026-05-19",
        "updated": "2026-05-19"
      }
    },
    {
      "type": "Feature",
      "geometry": {
        "type": "Point",
        "coordinates": [
          8.76374,
          49.41321
        ]
      },
      "properties": {
        "id": "tk_fr_1142",
        "name": "Kiosk Flowerstation",
        "description": "Kiosk ",
        "address": {
          "street": "In der Aue",
          "number": "9",
          "postalcode": "69118",
          "city": "Heidelberg",
          "district": "Ziegelhausen"
        },
        "tags": [
          "fritz_kola"
        ],
        "sources": [
          {
            "type": "hopfenstop",
            "id": "7d709a24-24bc-4c8e-a439-bb6fe7825483"
          }
        ],
        "created": "2026-05-19",
        "updated": "2026-05-19"
      }
    },
    {
      "type": "Feature",
      "geometry": {
        "type": "Point",
        "coordinates": [
          8.6855093,
          49.4077878
        ]
      },
      "properties": {
        "id": "tk_fr_1143",
        "name": "Kiosk am Bismarckplatz",
        "description": "Kiosk ",
        "address": {
          "street": "Bergheimer Straße",
          "number": "75",
          "postalcode": "69115",
          "city": "Heidelberg",
          "district": "Bergheim-Ost"
        },
        "tags": [
          "fritz_kola"
        ],
        "sources": [
          {
            "type": "hopfenstop",
            "id": "be888508-e13f-4b90-a938-54ea1fe0f51b"
          }
        ],
        "created": "2026-05-19",
        "updated": "2026-05-19"
      }
    },
    {
      "type": "Feature",
      "geometry": {
        "type": "Point",
        "coordinates": [
          8.66869,
          49.40964
        ]
      },
      "properties": {
        "id": "tk_fr_1144",
        "name": "Snack-2-Go",
        "description": "Kiosk ",
        "address": {
          "street": "Vangerowstraße",
          "number": "24",
          "postalcode": "69115",
          "city": "Heidelberg",
          "district": "Bergheim-Ost"
        },
        "tags": [
          "fritz_kola"
        ],
        "sources": [
          {
            "type": "hopfenstop",
            "id": "016f10b0-a066-4e25-bd3e-b854f9444f37"
          }
        ],
        "created": "2026-05-19",
        "updated": "2026-05-19"
      }
    },
    {
      "type": "Feature",
      "geometry": {
        "type": "Point",
        "coordinates": [
          8.688084,
          49.3805392
        ]
      },
      "properties": {
        "id": "tk_fr_1145",
        "name": "Lea‘s Kiosk",
        "description": "Kiosk ",
        "address": {
          "street": "Karlsruher Straße",
          "number": "92",
          "postalcode": "69126",
          "city": "Heidelberg"
        },
        "tags": [
          "fritz_kola"
        ],
        "sources": [
          {
            "type": "hopfenstop",
            "id": "fa6947dc-e4d3-4d0b-8c34-0f99dee0ef33"
          }
        ],
        "created": "2026-05-19",
        "updated": "2026-05-19"
      }
    },
    {
      "type": "Feature",
      "geometry": {
        "type": "Point",
        "coordinates": [
          8.686363,
          49.4006763
        ]
      },
      "properties": {
        "id": "tk_fr_1146",
        "name": "Kiosk Stehcafe",
        "description": "Kiosk ",
        "address": {
          "street": "Schillerstraße",
          "number": "18",
          "postalcode": "69115",
          "city": "Heidelberg",
          "district": "Weststadt"
        },
        "tags": [
          "fritz_kola"
        ],
        "sources": [
          {
            "type": "hopfenstop",
            "id": "c70c72da-b31c-4e2d-88da-4544297d2fbf"
          }
        ],
        "created": "2026-05-19",
        "updated": "2026-05-19"
      }
    },
    {
      "type": "Feature",
      "geometry": {
        "type": "Point",
        "coordinates": [
          8.463273,
          49.0012167
        ]
      },
      "properties": {
        "id": "tk_fr_1152",
        "name": "Kiosk am Durlacher Bahnhof",
        "description": "Kiosk ",
        "address": {
          "street": "Willmar-Schwabe-Straße",
          "postalcode": "76227",
          "city": "Karlsruhe",
          "district": "Durlach"
        },
        "tags": [
          "fritz_kola"
        ],
        "sources": [
          {
            "type": "hopfenstop",
            "id": "9ec0d81e-6e99-45b9-b557-2dcf32e9eacf"
          }
        ],
        "created": "2026-05-19",
        "updated": "2026-05-19"
      }
    },
    {
      "type": "Feature",
      "geometry": {
        "type": "Point",
        "coordinates": [
          8.4781183,
          48.9998411
        ]
      },
      "properties": {
        "id": "tk_fr_1153",
        "name": "Kiosk Weiß",
        "description": "Kiosk ",
        "address": {
          "street": "Grötzinger Straße",
          "number": "8A",
          "postalcode": "76227",
          "city": "Karlsruhe",
          "district": "Durlach"
        },
        "tags": [
          "fritz_kola"
        ],
        "sources": [
          {
            "type": "hopfenstop",
            "id": "440c4ff9-6ff8-4346-ad54-287aaa737ec9"
          }
        ],
        "created": "2026-05-19",
        "updated": "2026-05-19"
      }
    },
    {
      "type": "Feature",
      "geometry": {
        "type": "Point",
        "coordinates": [
          8.4233835,
          49.01090850000001
        ]
      },
      "properties": {
        "id": "tk_fr_1154",
        "name": "Kiosk am Karl Wilhelm Platz ",
        "description": "Kiosk ",
        "address": {
          "street": "Karl-Wilhelm-Platz",
          "number": "1",
          "postalcode": "76131",
          "city": "Karlsruhe",
          "district": "Oststadt"
        },
        "tags": [
          "fritz_kola"
        ],
        "sources": [
          {
            "type": "hopfenstop",
            "id": "9fb17dd2-a570-4ee4-8fef-78854b3e0e81"
          }
        ],
        "created": "2026-05-19",
        "updated": "2026-05-19"
      }
    },
    {
      "type": "Feature",
      "geometry": {
        "type": "Point",
        "coordinates": [
          8.4123656,
          49.007574
        ]
      },
      "properties": {
        "id": "tk_fr_1155",
        "name": "Kiosk Strickle",
        "description": "Kiosk ",
        "address": {
          "street": "Waldhornplatz",
          "number": "31",
          "postalcode": "76131",
          "city": "Karlsruhe",
          "district": "Innenstadt-Ost"
        },
        "tags": [
          "fritz_kola"
        ],
        "sources": [
          {
            "type": "hopfenstop",
            "id": "917a51b3-5bca-4f99-8973-efbaa6e737ea"
          }
        ],
        "created": "2026-05-19",
        "updated": "2026-05-19"
      }
    },
    {
      "type": "Feature",
      "geometry": {
        "type": "Point",
        "coordinates": [
          8.4094766,
          49.0084089
        ]
      },
      "properties": {
        "id": "tk_fr_1156",
        "name": "Kiosk 4 You",
        "description": "Kiosk ",
        "address": {
          "street": "Kronenplatz",
          "number": "1",
          "postalcode": "76133",
          "city": "Karlsruhe",
          "district": "Innenstadt-Ost"
        },
        "tags": [
          "fritz_kola"
        ],
        "sources": [
          {
            "type": "hopfenstop",
            "id": "ce59282a-b931-4743-8bee-8f96f9b24c73"
          }
        ],
        "created": "2026-05-19",
        "updated": "2026-05-19"
      }
    },
    {
      "type": "Feature",
      "geometry": {
        "type": "Point",
        "coordinates": [
          8.4001702,
          49.0101173
        ]
      },
      "properties": {
        "id": "tk_fr_1157",
        "name": "Kiosk Reinecke ",
        "description": "Kiosk ",
        "address": {
          "street": "Herrenstraße",
          "number": "13",
          "postalcode": "76133",
          "city": "Karlsruhe",
          "district": "Innenstadt-West"
        },
        "tags": [
          "fritz_kola"
        ],
        "sources": [
          {
            "type": "hopfenstop",
            "id": "2b34a669-3ea3-458e-a631-b08cd31d4df8"
          }
        ],
        "created": "2026-05-19",
        "updated": "2026-05-19"
      }
    },
    {
      "type": "Feature",
      "geometry": {
        "type": "Point",
        "coordinates": [
          8.399089,
          49.0110696
        ]
      },
      "properties": {
        "id": "tk_fr_1158",
        "name": "Kiosk Berenz",
        "description": "Kiosk ",
        "address": {
          "street": "Waldstraße",
          "number": "8",
          "postalcode": "76133",
          "city": "Karlsruhe",
          "district": "Innenstadt-West"
        },
        "tags": [
          "fritz_kola"
        ],
        "sources": [
          {
            "type": "hopfenstop",
            "id": "f406e80b-039a-429e-b02e-62869df315c0"
          }
        ],
        "created": "2026-05-19",
        "updated": "2026-05-19"
      }
    },
    {
      "type": "Feature",
      "geometry": {
        "type": "Point",
        "coordinates": [
          8.4116015,
          49.0086805
        ]
      },
      "properties": {
        "id": "tk_fr_1159",
        "name": "Kiosk Strickle",
        "description": "Kiosk ",
        "address": {
          "street": "Waldhornstraße",
          "number": "31",
          "postalcode": "76131",
          "city": "Karlsruhe",
          "district": "Innenstadt-Ost"
        },
        "tags": [
          "fritz_kola"
        ],
        "sources": [
          {
            "type": "hopfenstop",
            "id": "341f2190-30d6-421a-92fa-1a4b6ff9f041"
          }
        ],
        "created": "2026-05-19",
        "updated": "2026-05-19"
      }
    },
    {
      "type": "Feature",
      "geometry": {
        "type": "Point",
        "coordinates": [
          8.351905799999999,
          49.0096471
        ]
      },
      "properties": {
        "id": "tk_fr_1160",
        "name": "Kiosk John im Kaufland",
        "description": "Kiosk ",
        "address": {
          "street": "Carl-Metz-Straße",
          "number": "7",
          "postalcode": "76185",
          "city": "Karlsruhe",
          "district": "Grünwinkel"
        },
        "tags": [
          "fritz_kola"
        ],
        "sources": [
          {
            "type": "hopfenstop",
            "id": "83a6d8b6-0acb-471f-a025-a46b680a9eea"
          }
        ],
        "created": "2026-05-19",
        "updated": "2026-05-19"
      }
    },
    {
      "type": "Feature",
      "geometry": {
        "type": "Point",
        "coordinates": [
          8.4820382,
          49.4974476
        ]
      },
      "properties": {
        "id": "tk_fr_1175",
        "name": "Neundörfer Kiosk",
        "description": "Kiosk ",
        "address": {
          "street": "Lange Rötterstraße",
          "number": "68",
          "postalcode": "68167",
          "city": "Mannheim",
          "district": "Neckarau"
        },
        "tags": [
          "fritz_kola"
        ],
        "sources": [
          {
            "type": "hopfenstop",
            "id": "c2f2c7cf-e4be-48ba-80f0-78d6d5788107"
          }
        ],
        "created": "2026-05-19",
        "updated": "2026-05-19"
      }
    },
    {
      "type": "Feature",
      "geometry": {
        "type": "Point",
        "coordinates": [
          8.4720998,
          49.4972183
        ]
      },
      "properties": {
        "id": "tk_fr_1176",
        "name": "Der Allrounder Kiosk",
        "description": "Kiosk ",
        "address": {
          "street": "Am Meßplatz",
          "number": "9",
          "postalcode": "68169",
          "city": "Mannheim",
          "district": "Neckarstadt-Ost"
        },
        "tags": [
          "fritz_kola"
        ],
        "sources": [
          {
            "type": "hopfenstop",
            "id": "cb9a617a-2720-4e53-9aed-10a73f5e963f"
          }
        ],
        "created": "2026-05-19",
        "updated": "2026-05-19"
      }
    },
    {
      "type": "Feature",
      "geometry": {
        "type": "Point",
        "coordinates": [
          8.470632199999999,
          49.49778329999999
        ]
      },
      "properties": {
        "id": "tk_fr_1177",
        "name": "Kiosk ",
        "description": "Kiosk ",
        "address": {
          "street": "Mittelstraße",
          "number": "19",
          "postalcode": "68169",
          "city": "Mannheim",
          "district": "Neckarstadt-West"
        },
        "tags": [
          "fritz_kola"
        ],
        "sources": [
          {
            "type": "hopfenstop",
            "id": "b4a5b3df-207b-4dcf-9aaa-525ac2f4a3ae"
          }
        ],
        "created": "2026-05-19",
        "updated": "2026-05-19"
      }
    },
    {
      "type": "Feature",
      "geometry": {
        "type": "Point",
        "coordinates": [
          8.471770099999999,
          49.50002
        ]
      },
      "properties": {
        "id": "tk_fr_1178",
        "name": "Kiosk am Eck",
        "description": "Kiosk ",
        "address": {
          "street": "Carl-Benz-Straße",
          "number": "2",
          "postalcode": "68167",
          "city": "Mannheim",
          "district": "Neckarstadt"
        },
        "hours": {
          "raw": "Mo-Th 05:30-23:30; Fr-Sa 05:30-01:00; Su 14:00-20:00"
        },
        "tags": [
          "fritz_kola"
        ],
        "sources": [
          {
            "type": "hopfenstop",
            "id": "fd00db16-c76b-4b3c-9572-45587f23207a"
          }
        ],
        "created": "2026-05-19",
        "updated": "2026-05-19"
      }
    },
    {
      "type": "Feature",
      "geometry": {
        "type": "Point",
        "coordinates": [
          8.469770500000001,
          49.4805182
        ]
      },
      "properties": {
        "id": "tk_fr_1756",
        "name": "Kiosk am Hauptbahnhof",
        "description": "Große Getränkeauswahl, günstiger als im Bahnhof. ",
        "address": {
          "street": "Willy-Brandt-Platz",
          "number": "2",
          "postalcode": "68161",
          "city": "Mannheim",
          "district": "Schwetzingerstadt"
        },
        "hours": {
          "raw": "Mo-Th 06:00-22:00; Fr 06:00-00:00; Sa 08:00-00:00"
        },
        "sources": [
          {
            "type": "hopfenstop",
            "id": "9e7e6963-7b0e-4fb9-b055-f18bf3988b5c"
          }
        ],
        "created": "2026-05-19",
        "updated": "2026-05-19"
      }
    },
    {
      "type": "Feature",
      "geometry": {
        "type": "Point",
        "coordinates": [
          8.708485,
          49.41185919999999
        ]
      },
      "properties": {
        "id": "tk_fr_1812",
        "name": "SpätyCity - Allround Shop ",
        "description": "Snacks & Süßigkeiten, Tabak, Alkohol, Postkarten und Souvenirs - mitten in der Heidelberger Altstadt. ",
        "address": {
          "street": "Hauptstraße",
          "number": "179",
          "postalcode": "69117",
          "city": "Heidelberg",
          "district": "Altstadt"
        },
        "hours": {
          "raw": "Mo-Th 11:00-23:00; Fr 11:00-03:00; Sa 11:00-00:00; Su 11:00-23:00"
        },
        "sources": [
          {
            "type": "hopfenstop",
            "id": "3cca85d4-f534-406e-be71-073dc007b5c6"
          }
        ],
        "created": "2026-05-19",
        "updated": "2026-05-19"
      }
    },
    {
      "type": "Feature",
      "geometry": {
        "type": "Point",
        "coordinates": [
          8.68563,
          49.41255
        ]
      },
      "properties": {
        "id": "tk_fr_1822",
        "name": "Ku17",
        "description": "Nähe Neckarwiesen",
        "address": {
          "street": "Uferstraße",
          "number": "17",
          "postalcode": "69120",
          "city": "Heidelberg"
        },
        "tags": [
          "wc",
          "eis",
          "gemischte_tuete",
          "innenraum",
          "kuchen",
          "sitzgelegenheiten",
          "snacks",
          "sonne",
          "ueberdacht"
        ],
        "sources": [
          {
            "type": "hopfenstop",
            "id": "d36baaa3-6c1e-4a92-9781-fa31f8d922fd"
          }
        ],
        "created": "2026-05-19",
        "updated": "2026-05-19"
      }
    },
    {
      "type": "Feature",
      "geometry": {
        "type": "Point",
        "coordinates": [
          8.7084837,
          49.4115597
        ]
      },
      "properties": {
        "id": "tk_fr_1823",
        "name": "Späty-4HD",
        "description": "Späti nach Berliner Vorbild",
        "address": {
          "street": "Kettengasse",
          "number": "4",
          "postalcode": "69117",
          "city": "Heidelberg",
          "district": "Altstadt"
        },
        "tags": [
          "musik",
          "sitzgelegenheiten",
          "snacks",
          "wein",
          "kaffee"
        ],
        "sources": [
          {
            "type": "hopfenstop",
            "id": "55d67a47-cc6f-416d-b32b-1a2c062758b3"
          }
        ],
        "created": "2026-05-19",
        "updated": "2026-05-19"
      }
    },
    {
      "type": "Feature",
      "geometry": {
        "type": "Point",
        "coordinates": [
          8.7129499,
          49.41090000000001
        ]
      },
      "properties": {
        "id": "tk_fr_1824",
        "name": "Kurzer Buckel",
        "description": "Wunderbarer Eckkiosk in der Nähe des Schlosses",
        "address": {
          "street": "Kurzer Buckel",
          "number": "1",
          "postalcode": "69117",
          "city": "Heidelberg",
          "district": "Kernaltstadt"
        },
        "sources": [
          {
            "type": "hopfenstop",
            "id": "4210f307-40b6-43f2-9c7b-963fa723220f"
          }
        ],
        "created": "2026-05-19",
        "updated": "2026-05-19"
      }
    },
    {
      "type": "Feature",
      "geometry": {
        "type": "Point",
        "coordinates": [
          8.7008633,
          49.4152768
        ]
      },
      "properties": {
        "id": "tk_fr_1825",
        "name": "Kiosk am Philosophenweg",
        "description": "Das wohl schönste Exemplar der Stadt hoch oben über dem Neckar",
        "address": {
          "street": "Philosophenweg",
          "number": "30",
          "postalcode": "69120",
          "city": "Heidelberg"
        },
        "tags": [
          "eis",
          "gemischte_tuete",
          "kaffee",
          "kuchen",
          "sitzgelegenheiten",
          "snacks",
          "sonne"
        ],
        "sources": [
          {
            "type": "hopfenstop",
            "id": "5eee34ec-1aae-4971-acff-704fc9e85a55"
          }
        ],
        "created": "2026-05-19",
        "updated": "2026-05-19"
      }
    },
    {
      "type": "Feature",
      "geometry": {
        "type": "Point",
        "coordinates": [
          8.4078931,
          49.0016943
        ]
      },
      "properties": {
        "id": "tk_fr_1833",
        "name": "Kiosk am Werderplatz",
        "description": "Kiosk-Charme in Nordbaden",
        "address": {
          "street": "Werderstraße",
          "number": "51",
          "postalcode": "76137",
          "city": "Karlsruhe",
          "district": "Südstadt"
        },
        "hours": {
          "raw": "Mo-Fr 07:00-18:30; Sa 07:00-13:00"
        },
        "sources": [
          {
            "type": "hopfenstop",
            "id": "48f0c5f6-6104-418f-9416-e924d82193c2"
          }
        ],
        "created": "2026-05-19",
        "updated": "2026-05-19"
      }
    },
    {
      "type": "Feature",
      "geometry": {
        "type": "Point",
        "coordinates": [
          8.393559999999999,
          48.9969044
        ]
      },
      "properties": {
        "id": "tk_fr_1834",
        "name": "Kiosk am Kolpingplatz",
        "description": "Bewahrenswert",
        "address": {
          "street": "Karlstraße",
          "number": "128A",
          "postalcode": "76137",
          "city": "Karlsruhe",
          "district": "Südweststadt"
        },
        "sources": [
          {
            "type": "hopfenstop",
            "id": "a505d7f2-89a4-4126-bcf8-1e7fbcb241bc"
          }
        ],
        "created": "2026-05-19",
        "updated": "2026-05-19"
      }
    },
    {
      "type": "Feature",
      "geometry": {
        "type": "Point",
        "coordinates": [
          8.3601733,
          49.0105143
        ]
      },
      "properties": {
        "id": "tk_fr_1835",
        "name": "Kiosk am Entenfang",
        "description": "1955 als Wartehalle für die Straßenbahn erbaut, ist dieser Bau „erst“ seit 1979 ein Kiosk. Der Bau nimmt mit seinem nierenförmigen Grundriss die organischen Rundungen der 1950er Jahre auf. Auch Dach und Kachelverkleidung sind typische Merkmale dieses Architekturstils",
        "address": {
          "street": "Am Entenfang",
          "number": "1",
          "postalcode": "76185",
          "city": "Karlsruhe",
          "district": "Mühlburg"
        },
        "hours": {
          "raw": "Mo-Fr 06:00-18:30; Sa 06:00-13:00"
        },
        "sources": [
          {
            "type": "hopfenstop",
            "id": "cdd33761-f865-4436-9f8e-f6a925ebf69b"
          }
        ],
        "created": "2026-05-19",
        "updated": "2026-05-19"
      }
    },
    {
      "type": "Feature",
      "geometry": {
        "type": "Point",
        "coordinates": [
          8.4133377,
          49.00170689999999
        ]
      },
      "properties": {
        "id": "tk_fr_1836",
        "name": "Südstadt Kiosk",
        "description": "Seit 2019 mit neuen Betreiber, Ladenraum im Berliner Späti-Stil",
        "address": {
          "street": "Morgenstraße",
          "number": "17",
          "postalcode": "76137",
          "city": "Karlsruhe",
          "district": "Südstadt"
        },
        "hours": {
          "raw": "Mo-Fr 07:30-20:00; Sa 08:00-20:00; Su 12:00-17:00"
        },
        "sources": [
          {
            "type": "hopfenstop",
            "id": "fca34990-832a-43de-bd39-492bd179fdbb"
          }
        ],
        "created": "2026-05-19",
        "updated": "2026-05-19"
      }
    },
    {
      "type": "Feature",
      "geometry": {
        "type": "Point",
        "coordinates": [
          8.6064635,
          49.4707824
        ]
      },
      "properties": {
        "id": "tk_fr_1915",
        "name": "Schneckenhäusel Ladenburg",
        "description": "Kiosk",
        "address": {
          "street": "Dr.-Carl-Benz-Platz",
          "number": "2",
          "postalcode": "68526",
          "city": "Ladenburg"
        },
        "sources": [
          {
            "type": "hopfenstop",
            "id": "eb97aee4-2c73-402a-afea-25474df54cba"
          }
        ],
        "created": "2026-05-19",
        "updated": "2026-05-19"
      }
    }
  ]
}
