{
  "type": "FeatureCollection",
  "features": [
    {
      "type": "Feature",
      "geometry": {
        "type": "Point",
        "coordinates": [
          9.2076648,
          48.4929696
        ]
      },
      "properties": {
        "id": "tk_rt_osm_n10178373156",
        "name": "Cafe Station",
        "address": {
          "street": "Willy-Brandt-Platz",
          "number": "25",
          "postalcode": "72764",
          "city": "Reutlingen",
          "district": "Reutlingen (Kernstadt)"
        },
        "sources": [
          {
            "type": "osm",
            "id": "node/10178373156",
            "version": 0
          },
          {
            "type": "gmaps",
            "id": "payment"
          }
        ],
        "created": "2026-05-21",
        "updated": "2026-07-27",
        "hours": {
          "raw": "Mo-Fr 06:00-09:00,10:00-20:00; PH,Sa,Su 14:00-20:00"
        },
        "sources_by_field": {
          "name": "osm",
          "hours": "osm"
        },
        "apple_id_attempted": "2026-08-01",
        "payment": {
          "cards": "no",
          "contactless": "yes",
          "girocard": "yes"
        }
      }
    },
    {
      "type": "Feature",
      "geometry": {
        "type": "Point",
        "coordinates": [
          9.2049925,
          48.5282567
        ]
      },
      "properties": {
        "id": "tk_rt_osm_n10184373576",
        "name": "nerö's Getränkekistle",
        "address": {
          "street": "In Bühlen",
          "number": "6"
        },
        "sources": [
          {
            "type": "osm",
            "id": "node/10184373576",
            "version": 0
          },
          {
            "type": "gmaps",
            "id": "ChIJG9GeweHtmUcRQ7DjIfHZFes"
          }
        ],
        "created": "2026-05-21",
        "updated": "2026-07-27",
        "sources_by_field": {
          "name": "osm",
          "address.street": "osm",
          "address.number": "osm",
          "hours": "google",
          "payment.cards": "google"
        },
        "apple_id_attempted": "2026-08-01",
        "google_attempted": "2026-06-22",
        "hours": {
          "raw": "Tu 16:00-18:30; Th 16:00-18:30; Fr 10:00-13:00,16:00-18:30; We 10:00-14:30; Mo 10:00-13:00,16:00-18:30; Sa 09:00-13:00"
        },
        "payment": {
          "cards": "yes",
          "contactless": "yes",
          "girocard": "yes"
        }
      }
    },
    {
      "type": "Feature",
      "geometry": {
        "type": "Point",
        "coordinates": [
          9.2236744,
          48.4667416
        ]
      },
      "properties": {
        "id": "tk_rt_osm_n10980324359",
        "name": "24/7 Späti",
        "address": {
          "street": "Schloßstraße",
          "number": "12"
        },
        "sources": [
          {
            "type": "osm",
            "id": "node/10980324359",
            "version": 0
          },
          {
            "type": "gmaps",
            "id": "payment"
          }
        ],
        "created": "2026-05-21",
        "updated": "2026-07-27",
        "hours": {
          "raw": "24/7"
        },
        "sources_by_field": {
          "name": "osm",
          "address.street": "osm",
          "address.number": "osm",
          "hours": "osm"
        },
        "apple_id_attempted": "2026-08-01",
        "payment": {
          "cards": "yes",
          "girocard": "yes"
        }
      }
    },
    {
      "type": "Feature",
      "geometry": {
        "type": "Point",
        "coordinates": [
          9.0554339,
          48.5159774
        ]
      },
      "properties": {
        "id": "tk_rt_osm_n1116080509",
        "name": "Eckert",
        "address": {
          "street": "Europaplatz",
          "number": "17",
          "postalcode": "72072",
          "city": "Tübingen"
        },
        "sources": [
          {
            "type": "osm",
            "id": "node/1116080509",
            "version": 0
          },
          {
            "type": "gmaps",
            "id": "payment"
          }
        ],
        "created": "2026-05-21",
        "updated": "2026-07-27",
        "hours": {
          "raw": "Mo-Fr 05:15-20:00; Sa 06:30-20:00; Su 08:00-20:00"
        },
        "tags": [
          "barrierefrei"
        ],
        "sources_by_field": {
          "name": "osm",
          "address.street": "osm",
          "address.number": "osm",
          "address.postalcode": "osm",
          "address.city": "osm",
          "hours": "osm"
        },
        "apple_id_attempted": "2026-08-01",
        "payment": {
          "cards": "no",
          "contactless": "yes",
          "girocard": "yes"
        }
      }
    },
    {
      "type": "Feature",
      "geometry": {
        "type": "Point",
        "coordinates": [
          9.1481104,
          48.4337687
        ]
      },
      "properties": {
        "id": "tk_rt_osm_n11818621478",
        "name": "Getränke Buck",
        "address": {
          "street": "Mühlwiesenstraße",
          "number": "9",
          "postalcode": "72770",
          "city": "Reutlingen",
          "district": "Gönningen"
        },
        "sources": [
          {
            "type": "osm",
            "id": "node/11818621478",
            "version": 0
          },
          {
            "type": "gmaps",
            "id": "payment"
          }
        ],
        "created": "2026-05-21",
        "updated": "2026-07-27",
        "hours": {
          "raw": "Mo-Fr 09:00-12:30,14:30-18:30; Sa 09:00-13:00; Su off"
        },
        "tags": [
          "barrierefrei"
        ],
        "sources_by_field": {
          "name": "osm",
          "hours": "osm"
        },
        "apple_id_attempted": "2026-08-01",
        "payment": {
          "cards": "no",
          "contactless": "yes",
          "girocard": "yes"
        }
      }
    },
    {
      "type": "Feature",
      "geometry": {
        "type": "Point",
        "coordinates": [
          9.2257461,
          48.467023
        ]
      },
      "properties": {
        "id": "tk_rt_osm_n1254322647",
        "name": "Stern Kebap",
        "address": {
          "street": "Lindenplatz",
          "number": "15",
          "postalcode": "72793",
          "city": "Pfullingen"
        },
        "sources": [
          {
            "type": "osm",
            "id": "node/1254322647",
            "version": 0
          },
          {
            "type": "gmaps",
            "id": "ChIJWy7zVqzzmUcRg9VvtKZJ9ns"
          }
        ],
        "created": "2026-05-21",
        "updated": "2026-07-27",
        "hours": {
          "raw": "Tu 10:30-23:00; Th 10:30-23:00; Fr 10:30-23:00; We 10:30-23:00; Mo 10:30-23:00; Sa 10:30-23:00"
        },
        "sources_by_field": {
          "name": "osm",
          "address.street": "osm",
          "address.number": "osm",
          "address.postalcode": "osm",
          "address.city": "osm",
          "hours": "google"
        },
        "apple_id_attempted": "2026-08-01",
        "google_attempted": "2026-08-01",
        "payment": {}
      }
    },
    {
      "type": "Feature",
      "geometry": {
        "type": "Point",
        "coordinates": [
          9.103142,
          48.4614892
        ]
      },
      "properties": {
        "id": "tk_rt_osm_n12630117419",
        "name": "Koch Getränke- und Eventservice",
        "address": {
          "street": "Raiffeisenstraße",
          "number": "6",
          "postalcode": "72810",
          "city": "Gomaringen"
        },
        "sources": [
          {
            "type": "osm",
            "id": "node/12630117419",
            "version": 0
          },
          {
            "type": "gmaps",
            "id": "payment"
          },
          {
            "type": "apple",
            "id": "3595985060897539647"
          }
        ],
        "created": "2026-05-21",
        "updated": "2026-07-27",
        "sources_by_field": {
          "name": "osm"
        },
        "hours": {
          "raw": "Mo 14:00-18:00; Tu-Fr 15:00-18:30; Sa 09:00-12:30"
        },
        "payment": {
          "cards": "no",
          "contactless": "yes",
          "girocard": "yes"
        }
      }
    },
    {
      "type": "Feature",
      "geometry": {
        "type": "Point",
        "coordinates": [
          9.2183084,
          48.483664
        ]
      },
      "properties": {
        "id": "tk_rt_osm_n12718357964",
        "name": "Kiosk im Klinikum am Steinenberg",
        "address": {
          "street": "Steinenbergstraße",
          "number": "31"
        },
        "sources": [
          {
            "type": "osm",
            "id": "node/12718357964",
            "version": 0
          },
          {
            "type": "apple",
            "id": "17576908029002364865"
          }
        ],
        "created": "2026-05-21",
        "updated": "2026-07-27",
        "hours": {
          "raw": "Mo-Fr 08:30-18:00; Sa 12:00-18:00; Su,PH 12:00-17:00"
        },
        "payment": {
          "cash": "yes",
          "cards": "yes",
          "contactless": "unknown",
          "girocard": "unknown"
        },
        "sources_by_field": {
          "name": "osm",
          "address.street": "osm",
          "address.number": "osm",
          "hours": "osm",
          "payment.cash": "osm",
          "payment.cards": "osm",
          "payment.contactless": "osm",
          "payment.girocard": "osm"
        }
      }
    },
    {
      "type": "Feature",
      "geometry": {
        "type": "Point",
        "coordinates": [
          9.3451507,
          48.5294069
        ]
      },
      "properties": {
        "id": "tk_rt_osm_n12733577805",
        "name": "Schwaben Kiosk",
        "address": {
          "street": "Metzinger Straße",
          "number": "18",
          "postalcode": "72581",
          "city": "Dettingen an der Erms",
          "district": "Buchhalde"
        },
        "sources": [
          {
            "type": "osm",
            "id": "node/12733577805",
            "version": 0
          },
          {
            "type": "gmaps",
            "id": "payment"
          }
        ],
        "created": "2026-05-21",
        "updated": "2026-07-27",
        "hours": {
          "raw": "Mo-Sa 09:00-12:00, Mo-Fr 14:30-18:00"
        },
        "sources_by_field": {
          "name": "osm",
          "hours": "osm"
        },
        "apple_id_attempted": "2026-08-01",
        "payment": {
          "cards": "no",
          "contactless": "yes",
          "girocard": "yes"
        }
      }
    },
    {
      "type": "Feature",
      "geometry": {
        "type": "Point",
        "coordinates": [
          9.1851446,
          48.4867063
        ]
      },
      "properties": {
        "id": "tk_rt_osm_n1788523894",
        "name": "Papeterie Tran",
        "address": {
          "street": "Walter-Gropius-Platz",
          "number": "3",
          "postalcode": "72762",
          "city": "Reutlingen"
        },
        "sources": [
          {
            "type": "osm",
            "id": "node/1788523894",
            "version": 0
          },
          {
            "type": "apple",
            "id": "9702754280247003574"
          }
        ],
        "created": "2026-05-21",
        "updated": "2026-07-27",
        "tags": [
          "barrierefrei"
        ],
        "sources_by_field": {
          "name": "osm",
          "address.street": "osm",
          "address.number": "osm",
          "address.postalcode": "osm",
          "address.city": "osm"
        },
        "hours": {
          "raw": "Mo-Fr 08:00-13:00,15:00-18:00; Sa 08:00-13:00"
        },
        "payment": {
          "cards": "yes",
          "contactless": "yes"
        }
      }
    },
    {
      "type": "Feature",
      "geometry": {
        "type": "Point",
        "coordinates": [
          9.2279978,
          48.441308
        ]
      },
      "properties": {
        "id": "tk_rt_osm_n1940411057",
        "name": "Schönbergturm Kiosk",
        "address": {
          "street": "Schönbergweg",
          "postalcode": "72793",
          "city": "Unterhausen",
          "district": "Unterhausen"
        },
        "sources": [
          {
            "type": "osm",
            "id": "node/1940411057",
            "version": 0
          },
          {
            "type": "apple",
            "id": "6283343914570328851"
          },
          {
            "type": "gmaps",
            "id": "ChIJS-LZt3fzmUcR7ILlH0-A-r8"
          }
        ],
        "created": "2026-05-21",
        "updated": "2026-07-27",
        "hours": {
          "raw": "Mo-Su 00:00-24:00"
        },
        "sources_by_field": {
          "name": "osm",
          "hours": "apple"
        },
        "apple_attempted": "2026-08-01",
        "google_attempted": "2026-08-01",
        "payment": {}
      }
    },
    {
      "type": "Feature",
      "geometry": {
        "type": "Point",
        "coordinates": [
          9.0556778,
          48.5207349
        ]
      },
      "properties": {
        "id": "tk_rt_osm_n2961324533",
        "name": "Vinum",
        "address": {
          "street": "Lange Gasse",
          "number": "6",
          "postalcode": "72070",
          "city": "Tübingen"
        },
        "sources": [
          {
            "type": "osm",
            "id": "node/2961324533",
            "version": 0
          },
          {
            "type": "gmaps",
            "id": "payment"
          }
        ],
        "created": "2026-05-21",
        "updated": "2026-07-27",
        "hours": {
          "raw": "Mo-Fr 10:00-18:30; Sa 10:00-16:00; Su,PH off"
        },
        "tags": [
          "barrierefrei"
        ],
        "sources_by_field": {
          "name": "osm",
          "address.street": "osm",
          "address.number": "osm",
          "address.postalcode": "osm",
          "address.city": "osm",
          "hours": "osm"
        },
        "apple_id_attempted": "2026-08-01",
        "payment": {
          "cards": "no",
          "contactless": "yes",
          "girocard": "yes"
        }
      }
    },
    {
      "type": "Feature",
      "geometry": {
        "type": "Point",
        "coordinates": [
          9.2252512,
          48.51498
        ]
      },
      "properties": {
        "id": "tk_rt_osm_n33657618",
        "name": "Agip",
        "address": {
          "street": "Reutlinger Straße",
          "number": "68",
          "postalcode": "72766",
          "city": "Reutlingen",
          "district": "Sondelfingen"
        },
        "sources": [
          {
            "type": "osm",
            "id": "node/33657618",
            "version": 0
          },
          {
            "type": "gmaps",
            "id": "ChIJLWqbVIvtmUcRSOGYoofPpUU"
          }
        ],
        "created": "2026-05-21",
        "updated": "2026-07-27",
        "tags": [
          "barrierefrei"
        ],
        "sources_by_field": {
          "name": "osm",
          "hours": "google"
        },
        "apple_id_attempted": "2026-08-01",
        "google_attempted": "2026-06-22",
        "hours": {
          "raw": "Tu 06:00-22:00; Th 06:00-22:00; Fr 06:00-22:00; We 06:00-22:00; Mo 06:00-22:00; Sa 06:00-22:00; Su 07:00-22:00"
        },
        "payment": {
          "cards": "yes",
          "contactless": "yes",
          "girocard": "yes"
        }
      }
    },
    {
      "type": "Feature",
      "geometry": {
        "type": "Point",
        "coordinates": [
          9.2286954,
          48.5253368
        ]
      },
      "properties": {
        "id": "tk_rt_osm_n355021251",
        "name": "Getränke Fro",
        "address": {
          "street": "Reichenbachstraße",
          "number": "56",
          "postalcode": "72766",
          "city": "Reutlingen",
          "district": "Sondelfingen"
        },
        "sources": [
          {
            "type": "osm",
            "id": "node/355021251",
            "version": 0
          },
          {
            "type": "gmaps",
            "id": "payment"
          },
          {
            "type": "apple",
            "id": "9850683964819029594"
          }
        ],
        "created": "2026-05-21",
        "updated": "2026-07-27",
        "hours": {
          "raw": "Mo-Fr 09:00-20:00; Sa 08:00-18:00"
        },
        "sources_by_field": {
          "name": "osm",
          "hours": "osm"
        },
        "payment": {
          "cards": "no",
          "contactless": "yes",
          "girocard": "yes"
        }
      }
    },
    {
      "type": "Feature",
      "geometry": {
        "type": "Point",
        "coordinates": [
          9.2859539,
          48.5401083
        ]
      },
      "properties": {
        "id": "tk_rt_osm_n3641500815",
        "name": "Weingärtnergenossenschaft",
        "address": {
          "street": "Am Klosterhof",
          "number": "2",
          "postalcode": "72555",
          "city": "Metzingen",
          "district": "Metzingen"
        },
        "sources": [
          {
            "type": "osm",
            "id": "node/3641500815",
            "version": 0
          },
          {
            "type": "gmaps",
            "id": "payment"
          },
          {
            "type": "apple",
            "id": "12421100059868528757"
          }
        ],
        "created": "2026-05-21",
        "updated": "2026-07-27",
        "hours": {
          "raw": "Mo,Tu,Th,Fr 14:00-18:00; We 08:00-12:00,14:00-18:00; Sa 08:00-12:30"
        },
        "sources_by_field": {
          "name": "osm",
          "hours": "osm"
        },
        "payment": {
          "cards": "no",
          "contactless": "yes",
          "girocard": "yes"
        }
      }
    },
    {
      "type": "Feature",
      "geometry": {
        "type": "Point",
        "coordinates": [
          9.2026266,
          48.5063672
        ]
      },
      "properties": {
        "id": "tk_rt_osm_n388064589",
        "name": "Sonnenlädle",
        "address": {
          "street": "Sonnenstraße",
          "number": "83"
        },
        "sources": [
          {
            "type": "osm",
            "id": "node/388064589",
            "version": 0
          },
          {
            "type": "gmaps",
            "id": "payment"
          },
          {
            "type": "apple",
            "id": "16811340070015465275"
          }
        ],
        "created": "2026-05-21",
        "updated": "2026-07-27",
        "hours": {
          "raw": "Mo 15:00-18:00; Tu-Fr 08:30-12:30,15:00-18:00; Sa 08:30-12:30"
        },
        "payment": {
          "cash": "unknown",
          "cards": "yes",
          "contactless": "unknown",
          "girocard": "unknown"
        },
        "sources_by_field": {
          "name": "osm",
          "address.street": "osm",
          "address.number": "osm",
          "hours": "osm",
          "payment.cash": "osm",
          "payment.cards": "osm",
          "payment.contactless": "osm",
          "payment.girocard": "osm"
        }
      }
    },
    {
      "type": "Feature",
      "geometry": {
        "type": "Point",
        "coordinates": [
          9.2263206,
          48.4756561
        ]
      },
      "properties": {
        "id": "tk_rt_osm_n4223996860",
        "name": "Getränke Essl",
        "address": {
          "street": "Max-Eyth-Straße",
          "number": "19",
          "postalcode": "72793",
          "city": "Pfullingen"
        },
        "sources": [
          {
            "type": "osm",
            "id": "node/4223996860",
            "version": 0
          },
          {
            "type": "gmaps",
            "id": "payment"
          }
        ],
        "created": "2026-05-21",
        "updated": "2026-07-27",
        "hours": {
          "raw": "Mo-Fr 07:00-19:00; Sa 08:00-14:00; Su,PH off"
        },
        "tags": [
          "barrierefrei"
        ],
        "sources_by_field": {
          "name": "osm",
          "address.street": "osm",
          "address.number": "osm",
          "address.postalcode": "osm",
          "address.city": "osm",
          "hours": "osm"
        },
        "apple_id_attempted": "2026-08-01",
        "payment": {
          "cards": "yes",
          "contactless": "yes",
          "girocard": "yes"
        }
      }
    },
    {
      "type": "Feature",
      "geometry": {
        "type": "Point",
        "coordinates": [
          9.2354466,
          48.5155096
        ]
      },
      "properties": {
        "id": "tk_rt_osm_n429842430",
        "name": "Getränke Schwab",
        "address": {
          "street": "Hopfengartenstraße",
          "number": "97",
          "postalcode": "72766",
          "city": "Reutlingen"
        },
        "sources": [
          {
            "type": "osm",
            "id": "node/429842430",
            "version": 0
          },
          {
            "type": "gmaps",
            "id": "payment"
          },
          {
            "type": "apple",
            "id": "9316265699251872054"
          }
        ],
        "created": "2026-05-21",
        "updated": "2026-07-27",
        "hours": {
          "raw": "Mo-Fr 14:30-18:00; Sa 09:00-12:00; Su,We,PH off"
        },
        "sources_by_field": {
          "name": "osm",
          "address.street": "osm",
          "address.number": "osm",
          "address.postalcode": "osm",
          "address.city": "osm",
          "hours": "osm"
        },
        "payment": {
          "cards": "yes",
          "contactless": "yes",
          "girocard": "yes"
        }
      }
    },
    {
      "type": "Feature",
      "geometry": {
        "type": "Point",
        "coordinates": [
          9.2898018,
          48.5393886
        ]
      },
      "properties": {
        "id": "tk_rt_osm_n449075573",
        "name": "Richter Kiosk am Bahnhof",
        "address": {
          "street": "Eisenbahnstraße",
          "number": "22",
          "postalcode": "72555",
          "city": "Metzingen"
        },
        "sources": [
          {
            "type": "osm",
            "id": "node/449075573",
            "version": 0
          },
          {
            "type": "gmaps",
            "id": "payment"
          }
        ],
        "created": "2026-05-21",
        "updated": "2026-07-27",
        "hours": {
          "raw": "Mo-Fr 06:00-18:30; Sa 06:00-14:30"
        },
        "sources_by_field": {
          "name": "osm",
          "address.street": "osm",
          "address.number": "osm",
          "address.postalcode": "osm",
          "address.city": "osm",
          "hours": "osm"
        },
        "apple_id_attempted": "2026-08-01",
        "payment": {
          "cards": "no",
          "contactless": "yes",
          "girocard": "yes"
        }
      }
    },
    {
      "type": "Feature",
      "geometry": {
        "type": "Point",
        "coordinates": [
          9.151208,
          48.5129665
        ]
      },
      "properties": {
        "id": "tk_rt_osm_n4949490627",
        "name": "Gefako Getränke Maier GmbH",
        "address": {
          "street": "Bahnhofstraße",
          "number": "11",
          "postalcode": "72827",
          "city": "Wannweil"
        },
        "sources": [
          {
            "type": "osm",
            "id": "node/4949490627",
            "version": 0
          },
          {
            "type": "gmaps",
            "id": "payment"
          }
        ],
        "created": "2026-05-21",
        "updated": "2026-07-27",
        "hours": {
          "raw": "Mo-Tu,Th-Fr 09:00-12:30,14:30-18:30; We 09:00-12:30; Sa 09:00-13:00"
        },
        "tags": [
          "barrierefrei"
        ],
        "sources_by_field": {
          "name": "osm",
          "address.street": "osm",
          "address.number": "osm",
          "address.postalcode": "osm",
          "address.city": "osm",
          "hours": "osm"
        },
        "apple_id_attempted": "2026-08-01",
        "payment": {
          "cards": "no",
          "contactless": "yes",
          "girocard": "yes"
        }
      }
    },
    {
      "type": "Feature",
      "geometry": {
        "type": "Point",
        "coordinates": [
          9.1551974,
          48.4951195
        ]
      },
      "properties": {
        "id": "tk_rt_osm_n5143757600",
        "name": "Getränke Epp",
        "address": {
          "street": "Markwiesenstraße",
          "number": "23",
          "postalcode": "72770",
          "city": "Reutlingen",
          "district": "Industriegebiet West"
        },
        "sources": [
          {
            "type": "osm",
            "id": "node/5143757600",
            "version": 0
          },
          {
            "type": "apple",
            "id": "15323163319330496458"
          }
        ],
        "created": "2026-05-21",
        "updated": "2026-07-27",
        "hours": {
          "raw": "Mo-Fr 07:00-16:00; Sa 08:30-12:00"
        },
        "sources_by_field": {
          "name": "osm",
          "address.street": "osm",
          "address.number": "osm",
          "address.postalcode": "osm",
          "address.city": "osm",
          "address.district": "osm",
          "hours": "apple"
        },
        "apple_attempted": "2026-08-01",
        "google_attempted": "2026-08-01",
        "payment": {}
      }
    },
    {
      "type": "Feature",
      "geometry": {
        "type": "Point",
        "coordinates": [
          9.2136603,
          48.4970598
        ]
      },
      "properties": {
        "id": "tk_rt_osm_n5594896375",
        "name": "Marias Lädle",
        "address": {
          "street": "Karlstraße",
          "number": "34/1",
          "postalcode": "72764",
          "city": "Reutlingen"
        },
        "sources": [
          {
            "type": "osm",
            "id": "node/5594896375",
            "version": 0
          },
          {
            "type": "gmaps",
            "id": "payment"
          }
        ],
        "created": "2026-05-21",
        "updated": "2026-07-27",
        "hours": {
          "raw": "Mo-Fr 05:30-13:30; Sa,Su off"
        },
        "sources_by_field": {
          "name": "osm",
          "address.street": "osm",
          "address.number": "osm",
          "address.postalcode": "osm",
          "address.city": "osm",
          "hours": "osm"
        },
        "apple_id_attempted": "2026-08-01",
        "payment": {
          "cards": "yes",
          "girocard": "yes"
        }
      }
    },
    {
      "type": "Feature",
      "geometry": {
        "type": "Point",
        "coordinates": [
          9.3065494,
          48.5317052
        ]
      },
      "properties": {
        "id": "tk_rt_osm_n598589149",
        "name": "Reusch Fruchtsäfte",
        "address": {
          "street": "Kelternstraße",
          "number": "25",
          "postalcode": "72555",
          "city": "Metzingen",
          "district": "Neuhausen an der Erms"
        },
        "sources": [
          {
            "type": "osm",
            "id": "node/598589149",
            "version": 0
          },
          {
            "type": "gmaps",
            "id": "payment"
          },
          {
            "type": "apple",
            "id": "4284505424015646359"
          }
        ],
        "created": "2026-05-21",
        "updated": "2026-07-27",
        "hours": {
          "raw": "Mo-Fr 08:00-12:15,14:00-18:30; Sa 08:00-13:00; PH closed"
        },
        "sources_by_field": {
          "name": "osm",
          "address.street": "osm",
          "address.number": "osm",
          "address.postalcode": "osm",
          "address.city": "osm",
          "address.district": "osm",
          "hours": "osm"
        },
        "payment": {
          "cards": "yes"
        }
      }
    },
    {
      "type": "Feature",
      "geometry": {
        "type": "Point",
        "coordinates": [
          9.3305044,
          48.5319569
        ]
      },
      "properties": {
        "id": "tk_rt_osm_n606281924",
        "name": "PUR der Getränkefachmarkt Getränkevertrieb Wollwinder",
        "address": {
          "street": "Im Schwöllbogen",
          "number": "12",
          "postalcode": "72581",
          "city": "Dettingen an der Erms"
        },
        "sources": [
          {
            "type": "osm",
            "id": "node/606281924",
            "version": 0
          },
          {
            "type": "gmaps",
            "id": "payment"
          },
          {
            "type": "apple",
            "id": "3336915046837578769"
          }
        ],
        "created": "2026-05-21",
        "updated": "2026-07-27",
        "sources_by_field": {
          "name": "osm",
          "address.street": "osm",
          "address.number": "osm",
          "address.postalcode": "osm",
          "address.city": "osm"
        },
        "hours": {
          "raw": "Mo-Fr 08:30-12:30,13:30-18:30; Sa 08:00-14:00"
        },
        "payment": {
          "cards": "yes",
          "contactless": "yes",
          "girocard": "yes"
        }
      }
    },
    {
      "type": "Feature",
      "geometry": {
        "type": "Point",
        "coordinates": [
          9.2533829,
          48.4801171
        ]
      },
      "properties": {
        "id": "tk_rt_osm_n627339323",
        "name": "Getränkehandel Mühleisen",
        "address": {
          "street": "Reutlinger Straße",
          "number": "33",
          "postalcode": "72800",
          "city": "Eningen unter Achalm"
        },
        "sources": [
          {
            "type": "osm",
            "id": "node/627339323",
            "version": 0
          },
          {
            "type": "gmaps",
            "id": "ChIJra5rG8ZuCUERpSDKHyRXPCE"
          }
        ],
        "created": "2026-05-21",
        "updated": "2026-07-27",
        "hours": {
          "raw": "Tu 09:00-12:00,14:30-18:30; Th 09:00-12:00,14:30-18:30; Fr 09:00-12:00,14:30-18:30; We 09:00-12:00; Mo 09:00-12:00,14:30-18:30; Sa 08:00-13:00"
        },
        "tags": [
          "barrierefrei"
        ],
        "sources_by_field": {
          "name": "osm",
          "address.street": "osm",
          "address.number": "osm",
          "address.postalcode": "osm",
          "address.city": "osm",
          "hours": "google"
        },
        "apple_id_attempted": "2026-08-01",
        "google_attempted": "2026-08-01",
        "payment": {}
      }
    },
    {
      "type": "Feature",
      "geometry": {
        "type": "Point",
        "coordinates": [
          9.3061082,
          48.5303727
        ]
      },
      "properties": {
        "id": "tk_rt_osm_n7257559408",
        "name": "Kiosk Lutz",
        "address": {
          "street": "Kelternstraße",
          "number": "11",
          "postalcode": "72555",
          "city": "Metzingen",
          "district": "Neuhausen"
        },
        "sources": [
          {
            "type": "osm",
            "id": "node/7257559408",
            "version": 0
          },
          {
            "type": "gmaps",
            "id": "payment"
          },
          {
            "type": "apple",
            "id": "9498173041831157777"
          }
        ],
        "created": "2026-05-21",
        "updated": "2026-07-27",
        "hours": {
          "raw": "Mo-Fr 07:00-13:00, 14:30-18:30; Sa 07:00-13:00"
        },
        "sources_by_field": {
          "name": "osm",
          "hours": "osm"
        },
        "payment": {
          "cards": "yes",
          "contactless": "yes",
          "girocard": "yes"
        }
      }
    },
    {
      "type": "Feature",
      "geometry": {
        "type": "Point",
        "coordinates": [
          9.1879388,
          48.4069355
        ]
      },
      "properties": {
        "id": "tk_rt_osm_n732378575",
        "name": "Getränke Buck",
        "address": {
          "street": "Pfullinger Straße",
          "number": "24",
          "postalcode": "72820",
          "city": "Genkingen",
          "district": "Genkingen"
        },
        "sources": [
          {
            "type": "osm",
            "id": "node/732378575",
            "version": 0
          },
          {
            "type": "gmaps",
            "id": "ChIJPdAbyTj0mUcR6XX1lmt9XuE"
          }
        ],
        "created": "2026-05-21",
        "updated": "2026-07-27",
        "sources_by_field": {
          "name": "osm",
          "hours": "google",
          "payment.cards": "google"
        },
        "apple_id_attempted": "2026-08-01",
        "google_attempted": "2026-06-22",
        "hours": {
          "raw": "Tu 09:00-12:30; Th 09:00-12:30,15:00-18:30; Fr 09:00-12:30,15:00-18:30; We 09:00-12:30,15:00-18:30; Mo 09:00-12:30,15:00-18:30; Sa 09:00-13:00"
        },
        "payment": {
          "cards": "yes",
          "contactless": "yes",
          "girocard": "yes"
        }
      }
    },
    {
      "type": "Feature",
      "geometry": {
        "type": "Point",
        "coordinates": [
          9.2934217,
          48.5557586
        ]
      },
      "properties": {
        "id": "tk_rt_osm_n9238613801",
        "name": "Kneissler",
        "address": {
          "street": "Florianstraße",
          "number": "67",
          "postalcode": "72555",
          "city": "Metzingen"
        },
        "sources": [
          {
            "type": "osm",
            "id": "node/9238613801",
            "version": 0
          },
          {
            "type": "gmaps",
            "id": "ChIJn3YqJcPsmUcR-q98_R16LdQ"
          }
        ],
        "created": "2026-05-21",
        "updated": "2026-07-27",
        "hours": {
          "raw": "Tu 17:00-19:00; Th 17:00-19:00; Fr 17:00-19:00; We 17:00-19:00; Mo 17:00-19:00; Sa 10:00-13:00"
        },
        "sources_by_field": {
          "name": "osm",
          "hours": "google"
        },
        "apple_id_attempted": "2026-08-01",
        "google_attempted": "2026-08-01",
        "payment": {}
      }
    },
    {
      "type": "Feature",
      "geometry": {
        "type": "Point",
        "coordinates": [
          9.2009317,
          48.5156631
        ]
      },
      "properties": {
        "id": "tk_rt_osm_n926574661",
        "name": "Getränke Beck",
        "address": {
          "street": "Rommelsbacher Straße",
          "number": "185",
          "postalcode": "72760",
          "city": "Reutlingen"
        },
        "sources": [
          {
            "type": "osm",
            "id": "node/926574661",
            "version": 0
          },
          {
            "type": "apple",
            "id": "16942021542790045759"
          }
        ],
        "created": "2026-05-21",
        "updated": "2026-07-27",
        "hours": {
          "raw": "Mo-Fr 08:30-19:00; Sa 08:30-14:00"
        },
        "payment": {
          "cash": "yes",
          "cards": "yes",
          "contactless": "unknown",
          "girocard": "unknown"
        },
        "tags": [
          "barrierefrei"
        ],
        "sources_by_field": {
          "name": "osm",
          "address.street": "osm",
          "address.number": "osm",
          "address.postalcode": "osm",
          "address.city": "osm",
          "hours": "osm",
          "payment.cash": "osm",
          "payment.cards": "osm",
          "payment.contactless": "osm",
          "payment.girocard": "osm"
        }
      }
    },
    {
      "type": "Feature",
      "geometry": {
        "type": "Point",
        "coordinates": [
          9.0556959,
          48.4100715
        ]
      },
      "properties": {
        "id": "tk_rt_osm_n9312749050",
        "name": "Getränke Leipp",
        "address": {
          "street": "Lange Straße",
          "number": "69",
          "postalcode": "72116",
          "city": "Mössingen",
          "district": "Mössingen"
        },
        "sources": [
          {
            "type": "osm",
            "id": "node/9312749050",
            "version": 0
          },
          {
            "type": "gmaps",
            "id": "payment"
          },
          {
            "type": "apple",
            "id": "2474985448681498664"
          }
        ],
        "created": "2026-05-21",
        "updated": "2026-07-27",
        "sources_by_field": {
          "name": "osm"
        },
        "hours": {
          "raw": "Tu-Fr 16:00-18:30; Sa 10:00-15:30"
        },
        "payment": {
          "cards": "yes",
          "contactless": "yes",
          "girocard": "yes"
        }
      }
    },
    {
      "type": "Feature",
      "geometry": {
        "type": "Point",
        "coordinates": [
          9.2543785,
          48.4850434
        ]
      },
      "properties": {
        "id": "tk_rt_osm_w105697950",
        "name": "Markus Eberwein Getränkevertrieb",
        "address": {
          "street": "Wengenstraße",
          "number": "19",
          "postalcode": "72800",
          "city": "Eningen unter Achalm"
        },
        "sources": [
          {
            "type": "osm",
            "id": "way/105697950",
            "version": 0
          },
          {
            "type": "gmaps",
            "id": "payment"
          },
          {
            "type": "apple",
            "id": "11951946204035932875"
          }
        ],
        "created": "2026-05-21",
        "updated": "2026-07-27",
        "hours": {
          "raw": "Mo-Fr 09:00-12:00,14:00-19:00; Sa 07:30-14:00"
        },
        "sources_by_field": {
          "name": "osm",
          "address.street": "osm",
          "address.number": "osm",
          "address.postalcode": "osm",
          "address.city": "osm",
          "hours": "osm"
        },
        "payment": {
          "cards": "yes",
          "contactless": "yes",
          "girocard": "yes"
        }
      }
    },
    {
      "type": "Feature",
      "geometry": {
        "type": "Point",
        "coordinates": [
          9.279816,
          48.5401593
        ]
      },
      "properties": {
        "id": "tk_rt_osm_w1169729114",
        "name": "Kiosk Ripple",
        "address": {
          "street": "Stuttgarter Straße",
          "number": "34",
          "postalcode": "72555",
          "city": "Metzingen",
          "district": "Metzingen"
        },
        "sources": [
          {
            "type": "osm",
            "id": "way/1169729114",
            "version": 0
          },
          {
            "type": "apple",
            "id": "12900914294905638192"
          }
        ],
        "created": "2026-05-21",
        "updated": "2026-07-27",
        "hours": {
          "raw": "Mo-Fr 05:00-18:00; Sa 07:00-13:00"
        },
        "sources_by_field": {
          "name": "osm",
          "hours": "osm"
        },
        "payment": {
          "cards": "yes",
          "contactless": "yes"
        }
      }
    },
    {
      "type": "Feature",
      "geometry": {
        "type": "Point",
        "coordinates": [
          9.0510012,
          48.4063702
        ]
      },
      "properties": {
        "id": "tk_rt_osm_w255672538",
        "name": "MTB",
        "address": {
          "street": "Bahnhofstraße",
          "number": "37",
          "postalcode": "72116",
          "city": "Mössingen"
        },
        "sources": [
          {
            "type": "osm",
            "id": "way/255672538",
            "version": 0
          },
          {
            "type": "gmaps",
            "id": "payment"
          }
        ],
        "created": "2026-05-21",
        "updated": "2026-07-27",
        "hours": {
          "raw": "Mo-Sa 07:00-22:00; Su 08:00-22:00"
        },
        "sources_by_field": {
          "name": "osm",
          "address.street": "osm",
          "address.number": "osm",
          "address.postalcode": "osm",
          "address.city": "osm",
          "hours": "osm"
        },
        "apple_id_attempted": "2026-08-01",
        "payment": {
          "cards": "no",
          "contactless": "yes",
          "girocard": "yes"
        }
      }
    },
    {
      "type": "Feature",
      "geometry": {
        "type": "Point",
        "coordinates": [
          9.2111124,
          48.4918422
        ]
      },
      "properties": {
        "id": "tk_rt_osm_w318005192",
        "name": "Nachteule",
        "address": {
          "street": "Marktplatz",
          "number": "8",
          "postalcode": "72764",
          "city": "Reutlingen"
        },
        "sources": [
          {
            "type": "osm",
            "id": "way/318005192",
            "version": 0
          },
          {
            "type": "gmaps",
            "id": "payment"
          }
        ],
        "created": "2026-05-21",
        "updated": "2026-07-27",
        "hours": {
          "raw": "Mo-Th 09:00-21:00; Fr,Sa 09:00-24:00; Su,PH off"
        },
        "sources_by_field": {
          "name": "osm",
          "address.street": "osm",
          "address.number": "osm",
          "address.postalcode": "osm",
          "address.city": "osm",
          "hours": "osm"
        },
        "apple_id_attempted": "2026-08-01",
        "payment": {
          "cards": "no",
          "contactless": "yes",
          "girocard": "yes"
        }
      }
    },
    {
      "type": "Feature",
      "geometry": {
        "type": "Point",
        "coordinates": [
          9.2960528,
          48.5619406
        ]
      },
      "properties": {
        "id": "tk_rt_osm_w322543614",
        "name": "Getränkehalle Grafenberg",
        "address": {
          "street": "Albstraße",
          "number": "14",
          "postalcode": "72661",
          "city": "Grafenberg"
        },
        "sources": [
          {
            "type": "osm",
            "id": "way/322543614",
            "version": 0
          },
          {
            "type": "gmaps",
            "id": "payment"
          },
          {
            "type": "apple",
            "id": "958220432753960354"
          }
        ],
        "created": "2026-05-21",
        "updated": "2026-07-27",
        "sources_by_field": {
          "name": "osm",
          "address.street": "osm",
          "address.number": "osm",
          "address.postalcode": "osm",
          "address.city": "osm"
        },
        "hours": {
          "raw": "Mo,We-Fr 09:00-12:30,14:00-18:00; Tu 09:00-12:30; Sa 09:00-13:00"
        },
        "payment": {
          "cards": "no",
          "contactless": "yes",
          "girocard": "yes"
        }
      }
    },
    {
      "type": "Feature",
      "geometry": {
        "type": "Point",
        "coordinates": [
          9.2041572,
          48.511882
        ]
      },
      "properties": {
        "id": "tk_rt_osm_w505924793",
        "name": "Aralcenter Reutlingen",
        "address": {
          "street": "Rommelsbacher Straße",
          "number": "140",
          "postalcode": "72760",
          "city": "Reutlingen"
        },
        "sources": [
          {
            "type": "osm",
            "id": "way/505924793",
            "version": 0
          },
          {
            "type": "gmaps",
            "id": "payment"
          }
        ],
        "created": "2026-05-21",
        "updated": "2026-07-27",
        "hours": {
          "raw": "24/7"
        },
        "tags": [
          "barrierefrei"
        ],
        "sources_by_field": {
          "name": "osm",
          "address.street": "osm",
          "address.number": "osm",
          "address.postalcode": "osm",
          "address.city": "osm",
          "hours": "osm"
        },
        "apple_id_attempted": "2026-08-01",
        "payment": {
          "cards": "no",
          "contactless": "yes",
          "girocard": "yes"
        }
      }
    },
    {
      "type": "Feature",
      "geometry": {
        "type": "Point",
        "coordinates": [
          9.2266099,
          48.468786
        ]
      },
      "properties": {
        "id": "tk_rt_osm_w573720861",
        "name": "Avia",
        "address": {
          "street": "Marktstraße",
          "number": "22",
          "postalcode": "72793",
          "city": "Pfullingen"
        },
        "sources": [
          {
            "type": "osm",
            "id": "way/573720861",
            "version": 0
          },
          {
            "type": "gmaps",
            "id": "ChIJrzcK3KzzmUcR6zYDNqgl1X0"
          }
        ],
        "created": "2026-05-21",
        "updated": "2026-07-27",
        "sources_by_field": {
          "name": "osm",
          "hours": "google",
          "payment.cards": "google"
        },
        "apple_id_attempted": "2026-08-01",
        "google_attempted": "2026-06-22",
        "hours": {
          "raw": "Tu 06:30-21:00; Th 06:30-21:00; Fr 06:30-21:00; We 06:30-21:00; Mo 06:30-21:00; Sa 07:30-20:00; Su 09:00-18:30"
        },
        "payment": {
          "cards": "yes",
          "contactless": "yes",
          "girocard": "yes"
        }
      }
    },
    {
      "type": "Feature",
      "geometry": {
        "type": "Point",
        "coordinates": [
          9.2406569,
          48.4787105
        ]
      },
      "properties": {
        "id": "tk_rt_osm_w993110400",
        "name": "JET",
        "address": {
          "street": "Reutlinger Straße",
          "number": "91",
          "postalcode": "72800",
          "city": "Eningen unter Achalm",
          "district": "Eningen unter Achalm"
        },
        "sources": [
          {
            "type": "osm",
            "id": "way/993110400",
            "version": 0
          },
          {
            "type": "gmaps",
            "id": "payment"
          }
        ],
        "created": "2026-05-21",
        "updated": "2026-07-27",
        "hours": {
          "raw": "24/7"
        },
        "sources_by_field": {
          "name": "osm",
          "hours": "osm"
        },
        "apple_id_attempted": "2026-08-01",
        "payment": {
          "cards": "no",
          "contactless": "yes",
          "girocard": "yes"
        }
      }
    },
    {
      "type": "Feature",
      "geometry": {
        "type": "Point",
        "coordinates": [
          9.226066,
          48.4637049
        ]
      },
      "properties": {
        "id": "tk_rt_osm_n12808984286",
        "name": "24/7 Kiosk",
        "address": {
          "street": "Klosterstraße",
          "number": "14"
        },
        "sources": [
          {
            "type": "osm",
            "id": "node/12808984286",
            "version": 0
          }
        ],
        "created": "2026-05-21",
        "updated": "2026-07-27",
        "hours": {
          "raw": "24/7"
        },
        "payment": {
          "cash": "yes",
          "cards": "yes",
          "contactless": "unknown",
          "girocard": "unknown"
        },
        "sources_by_field": {
          "name": "osm",
          "address.street": "osm",
          "address.number": "osm",
          "hours": "osm",
          "payment.cash": "osm",
          "payment.cards": "osm",
          "payment.contactless": "osm",
          "payment.girocard": "osm"
        },
        "apple_id_attempted": "2026-08-01"
      }
    },
    {
      "type": "Feature",
      "geometry": {
        "type": "Point",
        "coordinates": [
          9.103199,
          48.4596267
        ]
      },
      "properties": {
        "id": "tk_rt_osm_n13388841464",
        "name": "k kiosk",
        "address": {
          "street": "Ohmenhäuser Straße",
          "postalcode": "72810",
          "city": "Gomaringen"
        },
        "sources": [
          {
            "type": "osm",
            "id": "node/13388841464",
            "version": 0
          }
        ],
        "created": "2026-05-21",
        "updated": "2026-07-27",
        "hours": {
          "raw": "Mo-Sa 09:00-19:00"
        },
        "sources_by_field": {
          "name": "osm",
          "address.street": "osm",
          "address.postalcode": "osm",
          "address.city": "osm",
          "hours": "osm"
        },
        "apple_id_attempted": "2026-08-01",
        "google_attempted": "2026-08-01",
        "payment": {}
      }
    },
    {
      "type": "Feature",
      "geometry": {
        "type": "Point",
        "coordinates": [
          9.1095795,
          48.5216159
        ]
      },
      "properties": {
        "id": "tk_rt_osm_n404646561",
        "name": "Brenner",
        "address": {},
        "sources": [
          {
            "type": "osm",
            "id": "node/404646561",
            "version": 0
          }
        ],
        "created": "2026-05-21",
        "updated": "2026-07-27",
        "tags": [
          "barrierefrei"
        ],
        "sources_by_field": {
          "name": "osm"
        },
        "apple_id_attempted": "2026-08-01",
        "google_attempted": "2026-08-01",
        "payment": {}
      }
    },
    {
      "type": "Feature",
      "geometry": {
        "type": "Point",
        "coordinates": [
          9.1876525,
          48.5001916
        ]
      },
      "properties": {
        "id": "tk_rt_osm_n4107891148",
        "name": "PUR Getränkefachmarkt",
        "address": {
          "street": "Heppstraße",
          "number": "91",
          "postalcode": "72760",
          "city": "Reutlingen",
          "district": "Betzingen"
        },
        "sources": [
          {
            "type": "osm",
            "id": "node/4107891148",
            "version": 0
          }
        ],
        "created": "2026-05-21",
        "updated": "2026-07-27",
        "hours": {
          "raw": "Mo-Fr 09:00-12:30,14:00-18:30; Sa 08:00-14:00"
        },
        "payment": {
          "cash": "unknown",
          "cards": "yes",
          "contactless": "unknown",
          "girocard": "unknown"
        },
        "tags": [
          "barrierefrei"
        ],
        "sources_by_field": {
          "name": "osm",
          "address.street": "osm",
          "address.number": "osm",
          "address.postalcode": "osm",
          "address.city": "osm",
          "address.district": "osm",
          "hours": "osm",
          "payment.cash": "osm",
          "payment.cards": "osm",
          "payment.contactless": "osm",
          "payment.girocard": "osm"
        },
        "apple_id_attempted": "2026-08-01"
      }
    },
    {
      "type": "Feature",
      "geometry": {
        "type": "Point",
        "coordinates": [
          9.0835092,
          48.5162109
        ]
      },
      "properties": {
        "id": "tk_rt_osm_n5555781425",
        "name": "Getränkevertrieb Wollwinder",
        "address": {
          "street": "Eisenbahnstraße",
          "number": "132",
          "postalcode": "72072",
          "city": "Tübingen"
        },
        "sources": [
          {
            "type": "osm",
            "id": "node/5555781425",
            "version": 0
          }
        ],
        "created": "2026-05-21",
        "updated": "2026-07-27",
        "hours": {
          "raw": "Mo 16:00-18:30; Tu 16:00-20:00; We 09:00-12:15,16:00-18:30; Th 16:00-18:30; Fr 09:00-12:15,16:00-18:30; Sa 08:30-13:00; Su,PH off"
        },
        "payment": {
          "cash": "yes",
          "cards": "yes",
          "contactless": "unknown",
          "girocard": "unknown"
        },
        "sources_by_field": {
          "name": "osm",
          "address.street": "osm",
          "address.number": "osm",
          "address.postalcode": "osm",
          "address.city": "osm",
          "hours": "osm",
          "payment.cash": "osm",
          "payment.cards": "osm",
          "payment.contactless": "osm",
          "payment.girocard": "osm"
        },
        "apple_id_attempted": "2026-08-01"
      }
    },
    {
      "type": "Feature",
      "geometry": {
        "type": "Point",
        "coordinates": [
          9.0690572,
          48.4100683
        ]
      },
      "properties": {
        "id": "tk_rt_osm_n5829527785",
        "name": "Sudwerkstatt Brauerei",
        "address": {
          "street": "Heerweg",
          "number": "3/1",
          "postalcode": "72116",
          "city": "Mössingen"
        },
        "sources": [
          {
            "type": "osm",
            "id": "node/5829527785",
            "version": 0
          }
        ],
        "created": "2026-05-21",
        "updated": "2026-07-27",
        "sources_by_field": {
          "name": "osm",
          "address.street": "osm",
          "address.number": "osm",
          "address.postalcode": "osm",
          "address.city": "osm"
        },
        "apple_id_attempted": "2026-08-01",
        "google_attempted": "2026-08-01",
        "payment": {}
      }
    },
    {
      "type": "Feature",
      "geometry": {
        "type": "Point",
        "coordinates": [
          9.2161792,
          48.5014068
        ]
      },
      "properties": {
        "id": "tk_rt_osm_n778311164",
        "name": "RAN",
        "address": {
          "street": "Stuttgarter Straße",
          "number": "12"
        },
        "sources": [
          {
            "type": "osm",
            "id": "node/778311164",
            "version": 0
          }
        ],
        "created": "2026-05-21",
        "updated": "2026-07-27",
        "hours": {
          "raw": "Mo-Fr 06:00-22:00; Sa-Su,PH 07:00-22:00"
        },
        "payment": {
          "cash": "yes",
          "cards": "yes",
          "contactless": "unknown",
          "girocard": "unknown"
        },
        "sources_by_field": {
          "name": "osm",
          "address.street": "osm",
          "address.number": "osm",
          "hours": "osm",
          "payment.cash": "osm",
          "payment.cards": "osm",
          "payment.contactless": "osm",
          "payment.girocard": "osm"
        },
        "apple_id_attempted": "2026-08-01"
      }
    },
    {
      "type": "Feature",
      "geometry": {
        "type": "Point",
        "coordinates": [
          9.2733303,
          48.523765
        ]
      },
      "properties": {
        "id": "tk_rt_osm_w1211695638",
        "name": "Golferstüble",
        "address": {},
        "sources": [
          {
            "type": "osm",
            "id": "way/1211695638",
            "version": 0
          }
        ],
        "created": "2026-05-21",
        "updated": "2026-07-27",
        "sources_by_field": {
          "name": "osm"
        },
        "apple_id_attempted": "2026-08-01",
        "google_attempted": "2026-08-01",
        "payment": {}
      }
    },
    {
      "type": "Feature",
      "geometry": {
        "type": "Point",
        "coordinates": [
          9.0519562,
          48.5162847
        ]
      },
      "properties": {
        "id": "tk_rt_osm_w237027051",
        "name": "Parkhäuschen",
        "address": {
          "street": "Uhlandstraße",
          "number": "29",
          "city": "Tübingen"
        },
        "sources": [
          {
            "type": "osm",
            "id": "way/237027051",
            "version": 0
          },
          {
            "type": "gmaps",
            "id": "ChIJ6bgoIQD7mUcRbQtaaC21zoI"
          }
        ],
        "created": "2026-05-21",
        "updated": "2026-08-01",
        "sources_by_field": {
          "name": "osm",
          "address.street": "osm",
          "address.number": "osm",
          "address.city": "osm",
          "hours": "google"
        },
        "apple_id_attempted": "2026-08-01",
        "google_attempted": "2026-08-01",
        "payment": {},
        "hours": {
          "raw": "Th 12:00-17:00; Fr 12:00-17:00; Sa 12:00-17:00; Su 12:00-17:00"
        }
      }
    }
  ]
}
