{
  "type": "FeatureCollection",
  "features": [
    {
      "type": "Feature",
      "geometry": {
        "type": "Point",
        "coordinates": [
          9.168204099999999,
          48.7780221
        ]
      },
      "properties": {
        "id": "tk_fr_0805",
        "name": "F&K Büdle ",
        "description": "Das F&K Büdle versorgt euch am Berliner Platz in Stuttgart mit Zigaretten, Kaffee, Getränken und einer großen Auswahl an Snacks und Süßigkeiten.",
        "address": {
          "street": "Fritz-Elsas-Straße",
          "number": "60",
          "postalcode": "70174",
          "city": "Stuttgart",
          "district": "Stuttgart-Mitte"
        },
        "hours": {
          "raw": "Mo-Fr 07:00-20:00; Sa 19:00-00:00"
        },
        "tags": [
          "barrierefrei",
          "chillout",
          "eis",
          "gemischte_tuete",
          "kaffee",
          "klassiker",
          "mate",
          "milch",
          "musik",
          "schnaps",
          "sekt",
          "snacks",
          "sonne",
          "stehtisch",
          "ueberdacht",
          "wein"
        ],
        "sources": [
          {
            "type": "hopfenstop",
            "id": "284bccf6-0225-4d9a-989c-e153a25c0d82"
          },
          {
            "type": "osm",
            "id": "node/6404913840",
            "version": 0
          }
        ],
        "created": "2026-05-19",
        "updated": "2026-05-20"
      }
    },
    {
      "type": "Feature",
      "geometry": {
        "type": "Point",
        "coordinates": [
          9.352740299999999,
          48.72448499999999
        ]
      },
      "properties": {
        "id": "tk_fr_1124",
        "name": "Dürninger Kiosk",
        "description": "Kiosk ",
        "address": {
          "street": "Alleenstraße",
          "number": "32",
          "postalcode": "73730",
          "city": "Esslingen am Neckar",
          "district": "Zell"
        },
        "tags": [
          "fritz_kola"
        ],
        "sources": [
          {
            "type": "hopfenstop",
            "id": "240e3ade-0ff3-43b6-ba79-4ce595ca7804"
          }
        ],
        "created": "2026-05-19",
        "updated": "2026-05-19"
      }
    },
    {
      "type": "Feature",
      "geometry": {
        "type": "Point",
        "coordinates": [
          9.253798699999999,
          48.8099213
        ]
      },
      "properties": {
        "id": "tk_fr_1125",
        "name": "Kiosk Efi",
        "description": "Kiosk ",
        "address": {
          "street": "Stuttgarter Straße",
          "number": "175",
          "postalcode": "70734",
          "city": "Fellbach",
          "district": "Bad Cannstatt"
        },
        "tags": [
          "fritz_kola"
        ],
        "sources": [
          {
            "type": "hopfenstop",
            "id": "5149fd85-0937-4b21-9953-38915a6d31d5"
          },
          {
            "type": "osm",
            "id": "way/336720322",
            "version": 0
          }
        ],
        "created": "2026-05-19",
        "updated": "2026-05-20",
        "hours": {
          "raw": "Mo-Fr 07:00-13:00,14:00-18:00; Sa 07:00-14:00; PH,Su 08:00-12:00"
        }
      }
    },
    {
      "type": "Feature",
      "geometry": {
        "type": "Point",
        "coordinates": [
          9.2175757,
          48.6847036
        ]
      },
      "properties": {
        "id": "tk_fr_1126",
        "name": "Kiosk Cigo im Real",
        "description": "Kiosk ",
        "address": {
          "street": "Plieninger Straße",
          "number": "63",
          "postalcode": "70794",
          "city": "Filderstadt",
          "district": "Bernhausen"
        },
        "tags": [
          "fritz_kola"
        ],
        "sources": [
          {
            "type": "hopfenstop",
            "id": "fda893f4-73f5-4838-a9c3-4a6d225c11d1"
          }
        ],
        "created": "2026-05-19",
        "updated": "2026-05-19"
      }
    },
    {
      "type": "Feature",
      "geometry": {
        "type": "Point",
        "coordinates": [
          9.2186919,
          48.6766508
        ]
      },
      "properties": {
        "id": "tk_fr_1127",
        "name": "Kiosk Hayta",
        "description": "Kiosk ",
        "address": {
          "street": "Filderbahnstraße",
          "number": "12",
          "postalcode": "70794",
          "city": "Filderstadt",
          "district": "Bernhausen"
        },
        "tags": [
          "fritz_kola"
        ],
        "sources": [
          {
            "type": "hopfenstop",
            "id": "e1a978ec-922a-4615-b14d-81751a74c241"
          }
        ],
        "created": "2026-05-19",
        "updated": "2026-05-19"
      }
    },
    {
      "type": "Feature",
      "geometry": {
        "type": "Point",
        "coordinates": [
          9.8259543,
          48.6252959
        ]
      },
      "properties": {
        "id": "tk_fr_1136",
        "name": "Kiosk Sternplatz",
        "description": "Kiosk ",
        "address": {
          "street": "Stuttgarter Straße",
          "number": "90",
          "postalcode": "73312",
          "city": "Geislingen an der Steige"
        },
        "tags": [
          "fritz_kola"
        ],
        "sources": [
          {
            "type": "hopfenstop",
            "id": "3ca84aa3-6d37-44d4-be77-d073a5118718"
          }
        ],
        "created": "2026-05-19",
        "updated": "2026-05-19"
      }
    },
    {
      "type": "Feature",
      "geometry": {
        "type": "Point",
        "coordinates": [
          9.826635099999999,
          48.6251536
        ]
      },
      "properties": {
        "id": "tk_fr_1137",
        "name": "Kiosk Scheible",
        "description": "Kiosk ",
        "address": {
          "street": "Stuttgarter Straße",
          "number": "80",
          "postalcode": "73312",
          "city": "Geislingen an der Steige"
        },
        "tags": [
          "fritz_kola"
        ],
        "sources": [
          {
            "type": "hopfenstop",
            "id": "d24db2ff-15b3-4020-8c35-1049524989ae"
          }
        ],
        "created": "2026-05-19",
        "updated": "2026-05-19"
      }
    },
    {
      "type": "Feature",
      "geometry": {
        "type": "Point",
        "coordinates": [
          9.8312241,
          48.6242799
        ]
      },
      "properties": {
        "id": "tk_fr_1138",
        "name": "Kiosk Dietrich",
        "description": "Kiosk ",
        "address": {
          "street": "Stuttgarter Straße",
          "number": "38",
          "postalcode": "73312",
          "city": "Geislingen an der Steige"
        },
        "tags": [
          "fritz_kola"
        ],
        "sources": [
          {
            "type": "hopfenstop",
            "id": "76897df0-9ecc-4abd-b177-d21b4d28ad47"
          }
        ],
        "created": "2026-05-19",
        "updated": "2026-05-19"
      }
    },
    {
      "type": "Feature",
      "geometry": {
        "type": "Point",
        "coordinates": [
          9.2211544,
          49.1460113
        ]
      },
      "properties": {
        "id": "tk_fr_1147",
        "name": "Kiosk Schurg",
        "description": "Kiosk ",
        "address": {
          "street": "Berliner Platz",
          "number": "12",
          "postalcode": "74072",
          "city": "Heilbronn"
        },
        "tags": [
          "fritz_kola"
        ],
        "sources": [
          {
            "type": "hopfenstop",
            "id": "1692dd43-73fa-4245-8294-027f6671eb80"
          }
        ],
        "created": "2026-05-19",
        "updated": "2026-05-19"
      }
    },
    {
      "type": "Feature",
      "geometry": {
        "type": "Point",
        "coordinates": [
          9.2212106,
          49.14048289999999
        ]
      },
      "properties": {
        "id": "tk_fr_1148",
        "name": "Kiosk Dofek",
        "description": "Kiosk ",
        "address": {
          "street": "Allee",
          "number": "5",
          "postalcode": "74072",
          "city": "Heilbronn"
        },
        "tags": [
          "fritz_kola"
        ],
        "sources": [
          {
            "type": "hopfenstop",
            "id": "daebb9f1-ac78-447c-a407-f510273aadff"
          }
        ],
        "created": "2026-05-19",
        "updated": "2026-05-19"
      }
    },
    {
      "type": "Feature",
      "geometry": {
        "type": "Point",
        "coordinates": [
          9.2220198,
          49.1423301
        ]
      },
      "properties": {
        "id": "tk_fr_1149",
        "name": "Kiosk Heinrich",
        "description": "Kiosk ",
        "address": {
          "street": "Allee",
          "number": "23",
          "postalcode": "74072",
          "city": "Heilbronn"
        },
        "tags": [
          "fritz_kola"
        ],
        "sources": [
          {
            "type": "hopfenstop",
            "id": "c0decebc-e712-4a93-9631-ee50024f41b9"
          }
        ],
        "created": "2026-05-19",
        "updated": "2026-05-19"
      }
    },
    {
      "type": "Feature",
      "geometry": {
        "type": "Point",
        "coordinates": [
          9.2204911,
          49.1423595
        ]
      },
      "properties": {
        "id": "tk_fr_1150",
        "name": "Kiosk Souvenir",
        "description": "Kiosk ",
        "address": {
          "street": "Sülmerstraße",
          "number": "18",
          "postalcode": "74072",
          "city": "Heilbronn"
        },
        "tags": [
          "fritz_kola"
        ],
        "sources": [
          {
            "type": "hopfenstop",
            "id": "8ea2135b-03b4-46bf-ad4e-ef29d82ff4f0"
          }
        ],
        "created": "2026-05-19",
        "updated": "2026-05-19"
      }
    },
    {
      "type": "Feature",
      "geometry": {
        "type": "Point",
        "coordinates": [
          9.2182198,
          49.1308715
        ]
      },
      "properties": {
        "id": "tk_fr_1151",
        "name": "Kiosk Südbahnhof",
        "description": "Kiosk ",
        "address": {
          "street": "Schmollerstraße",
          "number": "1",
          "postalcode": "74074",
          "city": "Heilbronn"
        },
        "tags": [
          "fritz_kola"
        ],
        "sources": [
          {
            "type": "hopfenstop",
            "id": "4bbca687-ea3e-4fdb-944d-36231d3fd065"
          }
        ],
        "created": "2026-05-19",
        "updated": "2026-05-19"
      }
    },
    {
      "type": "Feature",
      "geometry": {
        "type": "Point",
        "coordinates": [
          9.2547863,
          48.706974
        ]
      },
      "properties": {
        "id": "tk_fr_1219",
        "name": "Kiosk Cigo",
        "description": "Kiosk ",
        "address": {
          "street": "Liststraße",
          "number": "2",
          "postalcode": "73760",
          "city": "Ostfildern",
          "district": "Scharnhausen"
        },
        "tags": [
          "fritz_kola"
        ],
        "sources": [
          {
            "type": "hopfenstop",
            "id": "d0ca7376-5625-45e7-bc44-5f66870145f1"
          }
        ],
        "created": "2026-05-19",
        "updated": "2026-05-19"
      }
    },
    {
      "type": "Feature",
      "geometry": {
        "type": "Point",
        "coordinates": [
          9.1720922,
          48.79977239999999
        ]
      },
      "properties": {
        "id": "tk_fr_1263",
        "name": "Kiosk am Kochenhof",
        "description": "Kiosk ",
        "address": {
          "street": "Am Kochenhof",
          "number": "12",
          "postalcode": "70192",
          "city": "Stuttgart",
          "district": "Nord"
        },
        "tags": [
          "fritz_kola"
        ],
        "sources": [
          {
            "type": "hopfenstop",
            "id": "f95d33ce-827f-476e-94a5-097dd1cfccd7"
          }
        ],
        "created": "2026-05-19",
        "updated": "2026-05-19"
      }
    },
    {
      "type": "Feature",
      "geometry": {
        "type": "Point",
        "coordinates": [
          9.1854,
          48.7745
        ]
      },
      "properties": {
        "id": "tk_fr_1264",
        "name": "Kiosk Markovic",
        "description": "Kiosk ",
        "address": {
          "street": "Charlottenstraße",
          "number": "14",
          "postalcode": "70182",
          "city": "Stuttgart",
          "district": "Stuttgart-Mitte"
        },
        "tags": [
          "fritz_kola"
        ],
        "sources": [
          {
            "type": "hopfenstop",
            "id": "5c9b529c-0b20-48d0-b698-f2f1e668d1cc"
          }
        ],
        "created": "2026-05-19",
        "updated": "2026-05-19"
      }
    },
    {
      "type": "Feature",
      "geometry": {
        "type": "Point",
        "coordinates": [
          9.1865151,
          48.7740744
        ]
      },
      "properties": {
        "id": "tk_fr_1265",
        "name": "Kiosk Markovic",
        "description": "Kiosk ",
        "address": {
          "street": "Charlottenstraße",
          "number": "25",
          "postalcode": "70182",
          "city": "Stuttgart",
          "district": "Stuttgart-Mitte"
        },
        "tags": [
          "fritz_kola"
        ],
        "sources": [
          {
            "type": "hopfenstop",
            "id": "1f347761-2daa-47e1-8b8f-28c03001fda9"
          }
        ],
        "created": "2026-05-19",
        "updated": "2026-05-19"
      }
    },
    {
      "type": "Feature",
      "geometry": {
        "type": "Point",
        "coordinates": [
          9.17817,
          48.7732123
        ]
      },
      "properties": {
        "id": "tk_fr_1266",
        "name": "Kiosk Schwabenzentrum",
        "description": "Kiosk ",
        "address": {
          "street": "Eberhardstraße",
          "number": "35",
          "postalcode": "70173",
          "city": "Stuttgart",
          "district": "Stuttgart-Mitte"
        },
        "tags": [
          "fritz_kola"
        ],
        "sources": [
          {
            "type": "hopfenstop",
            "id": "29c8aa55-6070-4c16-80a5-46e10746d981"
          }
        ],
        "created": "2026-05-19",
        "updated": "2026-05-19"
      }
    },
    {
      "type": "Feature",
      "geometry": {
        "type": "Point",
        "coordinates": [
          9.1605277,
          48.7721215
        ]
      },
      "properties": {
        "id": "tk_fr_1267",
        "name": "Kiosk Kugler",
        "description": "Kiosk ",
        "address": {
          "street": "Hasenbergstraße",
          "number": "43",
          "postalcode": "70176",
          "city": "Stuttgart",
          "district": "Stuttgart-West"
        },
        "tags": [
          "fritz_kola"
        ],
        "sources": [
          {
            "type": "hopfenstop",
            "id": "ad397535-3106-42ba-bbf8-7c451341ff1f"
          }
        ],
        "created": "2026-05-19",
        "updated": "2026-05-19"
      }
    },
    {
      "type": "Feature",
      "geometry": {
        "type": "Point",
        "coordinates": [
          9.16612,
          48.78561999999999
        ]
      },
      "properties": {
        "id": "tk_fr_1268",
        "name": "Espressum",
        "description": "Kiosk ",
        "address": {
          "street": "Herdweg",
          "number": "36",
          "postalcode": "70174",
          "city": "Stuttgart",
          "district": "Nord"
        },
        "tags": [
          "fritz_kola"
        ],
        "sources": [
          {
            "type": "hopfenstop",
            "id": "8904e7a6-074d-415e-bef1-7cbbd2d82cba"
          }
        ],
        "created": "2026-05-19",
        "updated": "2026-05-19"
      }
    },
    {
      "type": "Feature",
      "geometry": {
        "type": "Point",
        "coordinates": [
          9.163184,
          48.7717311
        ]
      },
      "properties": {
        "id": "tk_fr_1269",
        "name": "Kiosk Steininger",
        "description": "Kiosk ",
        "address": {
          "street": "Rotebühlstraße",
          "number": "95",
          "postalcode": "70178",
          "city": "Stuttgart",
          "district": "Stuttgart-West"
        },
        "tags": [
          "fritz_kola",
          "eis",
          "innenraum",
          "kaffee",
          "lotto",
          "sekt",
          "snacks",
          "wein"
        ],
        "sources": [
          {
            "type": "hopfenstop",
            "id": "729f7bc3-2819-4c6e-b551-67656469c2c0"
          }
        ],
        "created": "2026-05-19",
        "updated": "2026-05-19"
      }
    },
    {
      "type": "Feature",
      "geometry": {
        "type": "Point",
        "coordinates": [
          9.1724464,
          48.7722961
        ]
      },
      "properties": {
        "id": "tk_fr_1270",
        "name": "Kiosk im Gerber",
        "description": "Kiosk ",
        "address": {
          "street": "Sophienstraße",
          "number": "21",
          "postalcode": "70178",
          "city": "Stuttgart",
          "district": "Stuttgart-Mitte"
        },
        "tags": [
          "fritz_kola"
        ],
        "sources": [
          {
            "type": "hopfenstop",
            "id": "59213731-eb2b-45f1-966d-7ea40d889dc6"
          }
        ],
        "created": "2026-05-19",
        "updated": "2026-05-19"
      }
    },
    {
      "type": "Feature",
      "geometry": {
        "type": "Point",
        "coordinates": [
          9.162908999999999,
          48.8368186
        ]
      },
      "properties": {
        "id": "tk_fr_1271",
        "name": "Kiosk Journal",
        "description": "Kiosk ",
        "address": {
          "street": "Stammheimer Straße",
          "number": "74",
          "postalcode": "70435",
          "city": "Stuttgart",
          "district": "Zuffenhausen"
        },
        "tags": [
          "fritz_kola"
        ],
        "sources": [
          {
            "type": "hopfenstop",
            "id": "fce674f1-45eb-4a1e-a64f-240fa5445830"
          }
        ],
        "created": "2026-05-19",
        "updated": "2026-05-19"
      }
    },
    {
      "type": "Feature",
      "geometry": {
        "type": "Point",
        "coordinates": [
          9.1599238,
          48.8097405
        ]
      },
      "properties": {
        "id": "tk_fr_1272",
        "name": "Kiosk Cigo",
        "description": "Kiosk ",
        "address": {
          "street": "Stuttgarter Straße",
          "number": "82",
          "postalcode": "70469",
          "city": "Stuttgart",
          "district": "Feuerbach"
        },
        "tags": [
          "fritz_kola"
        ],
        "sources": [
          {
            "type": "hopfenstop",
            "id": "93387c49-3dc9-4592-b5ac-dd7faf3b3fe7"
          }
        ],
        "created": "2026-05-19",
        "updated": "2026-05-19"
      }
    },
    {
      "type": "Feature",
      "geometry": {
        "type": "Point",
        "coordinates": [
          9.173532699999999,
          48.8315651
        ]
      },
      "properties": {
        "id": "tk_fr_1273",
        "name": "Kiosk U11",
        "description": "Kiosk ",
        "address": {
          "street": "Unterländer Straße",
          "number": "11",
          "postalcode": "70435",
          "city": "Stuttgart",
          "district": "Zuffenhausen"
        },
        "tags": [
          "fritz_kola"
        ],
        "sources": [
          {
            "type": "hopfenstop",
            "id": "59ce4754-2c71-4dd8-8f89-c91151d6fcfd"
          }
        ],
        "created": "2026-05-19",
        "updated": "2026-05-19"
      }
    },
    {
      "type": "Feature",
      "geometry": {
        "type": "Point",
        "coordinates": [
          9.15756,
          48.81099
        ]
      },
      "properties": {
        "id": "tk_fr_1274",
        "name": "Kiosk Ulusoy",
        "description": "Kiosk ",
        "address": {
          "street": "Wiener Straße",
          "number": "101",
          "postalcode": "70469",
          "city": "Stuttgart",
          "district": "Feuerbach"
        },
        "tags": [
          "fritz_kola"
        ],
        "sources": [
          {
            "type": "hopfenstop",
            "id": "97a742c6-2268-4d77-9911-db85412af1e3"
          }
        ],
        "created": "2026-05-19",
        "updated": "2026-05-19"
      }
    },
    {
      "type": "Feature",
      "geometry": {
        "type": "Point",
        "coordinates": [
          9.2068953,
          49.12051719999999
        ]
      },
      "properties": {
        "id": "tk_fr_1474",
        "name": "Sontheimer Kebabhaus",
        "description": "Döner + Bier im Kühlschrank",
        "address": {
          "street": "Jörg-Ratgeb-Platz",
          "number": "1",
          "postalcode": "74081",
          "city": "Heilbronn"
        },
        "hours": {
          "raw": "Mo-Su 10:00-22:00"
        },
        "sources": [
          {
            "type": "hopfenstop",
            "id": "7406e6ea-d5d2-4a28-b4b3-a8ee2e70e074"
          }
        ],
        "created": "2026-05-19",
        "updated": "2026-05-19"
      }
    },
    {
      "type": "Feature",
      "geometry": {
        "type": "Point",
        "coordinates": [
          9.163428,
          48.77457099999999
        ]
      },
      "properties": {
        "id": "tk_fr_1525",
        "name": "Kiosko",
        "description": "Kiosk und Café ",
        "address": {
          "street": "Johannesstraße",
          "number": "9",
          "postalcode": "70176",
          "city": "Stuttgart",
          "district": "Stuttgart-West"
        },
        "hours": {
          "raw": "Mo-Th 07:00-16:00"
        },
        "sources": [
          {
            "type": "hopfenstop",
            "id": "634ce35e-3d6a-4e42-88d6-f32a48fda807"
          },
          {
            "type": "osm",
            "id": "node/4684284811",
            "version": 0
          }
        ],
        "created": "2026-05-19",
        "updated": "2026-05-20",
        "tags": [
          "draussen"
        ]
      }
    },
    {
      "type": "Feature",
      "geometry": {
        "type": "Point",
        "coordinates": [
          8.731609299999999,
          48.7707086
        ]
      },
      "properties": {
        "id": "tk_fr_1646",
        "name": "Trinkhalle ",
        "description": "Quelle neuer Lebenslust.\nÖffnungszeit:\n10:00 - 13:00\n13:30 - 16:00",
        "address": {
          "street": "Kurhausdamm",
          "number": "4",
          "postalcode": "75378",
          "city": "Bad Liebenzell"
        },
        "hours": {
          "raw": "Mo-Su 13:30-16:00"
        },
        "sources": [
          {
            "type": "hopfenstop",
            "id": "68a89287-aa01-4c1d-85c8-840d094a1445"
          }
        ],
        "created": "2026-05-19",
        "updated": "2026-05-19"
      }
    },
    {
      "type": "Feature",
      "geometry": {
        "type": "Point",
        "coordinates": [
          9.1880961,
          48.8086703
        ]
      },
      "properties": {
        "id": "tk_fr_1960",
        "name": "Park Snack",
        "description": "Büdchen mit Bier und Snacks",
        "address": {
          "street": "Hunklinge",
          "number": "113",
          "postalcode": "70191",
          "city": "Stuttgart",
          "district": "Bad Cannstatt"
        },
        "tags": [
          "wc"
        ],
        "sources": [
          {
            "type": "hopfenstop",
            "id": "88defad5-f001-490a-940b-57f1f6e7fea4"
          }
        ],
        "created": "2026-05-19",
        "updated": "2026-05-19"
      }
    },
    {
      "type": "Feature",
      "geometry": {
        "type": "Point",
        "coordinates": [
          9.1788355,
          48.772121
        ]
      },
      "properties": {
        "id": "tk_fr_2036",
        "name": "Stuttgarter Späti 43",
        "description": "Kiosk und Klavier ",
        "address": {
          "street": "Hauptstätter Straße",
          "number": "43",
          "postalcode": "70173",
          "city": "Stuttgart",
          "district": "Stuttgart-Mitte"
        },
        "hours": {
          "raw": "Mo-Su 18:00-03:00"
        },
        "sources": [
          {
            "type": "hopfenstop",
            "id": "e5b5d886-8119-4cb1-82d2-ce3c59c676ca"
          }
        ],
        "created": "2026-05-19",
        "updated": "2026-05-19"
      }
    },
    {
      "type": "Feature",
      "geometry": {
        "type": "Point",
        "coordinates": [
          9.180653,
          48.7729252
        ]
      },
      "properties": {
        "id": "tk_fr_2037",
        "name": "Corner 17",
        "description": "Kiosk in dem es alles gibt",
        "address": {
          "street": "Leonhardsplatz",
          "number": "17",
          "postalcode": "70182",
          "city": "Stuttgart",
          "district": "Stuttgart-Mitte"
        },
        "hours": {
          "raw": "Mo-Sa 10:00-00:00"
        },
        "tags": [
          "rubbellose",
          "schnaps"
        ],
        "sources": [
          {
            "type": "hopfenstop",
            "id": "d8fd096d-a1a3-420a-b0f7-503568aff42e"
          },
          {
            "type": "osm",
            "id": "node/5317450064",
            "version": 0
          }
        ],
        "created": "2026-05-19",
        "updated": "2026-05-20"
      }
    },
    {
      "type": "Feature",
      "geometry": {
        "type": "Point",
        "coordinates": [
          9.2175543,
          48.8022979
        ]
      },
      "properties": {
        "id": "tk_fr_2145",
        "name": "Bahnhof Call Shop",
        "description": "Kiosk, Handydoktor (schnell und günstig), Internet Café. ",
        "address": {
          "street": "Bahnhofstraße",
          "number": "17",
          "postalcode": "70372",
          "city": "Stuttgart",
          "district": "Bad Cannstatt"
        },
        "hours": {
          "raw": "Mo-Sa 10:00-00:00"
        },
        "sources": [
          {
            "type": "hopfenstop",
            "id": "03530028-bad0-4381-b9e8-cbd86305d94e"
          }
        ],
        "created": "2026-05-19",
        "updated": "2026-05-19"
      }
    },
    {
      "type": "Feature",
      "geometry": {
        "type": "Point",
        "coordinates": [
          9.15641,
          48.77263
        ]
      },
      "properties": {
        "id": "tk_fr_2156",
        "name": "Hookaholic",
        "description": "Shisha Tabak Zubehör",
        "address": {
          "street": "Ludwigstraße",
          "number": "76",
          "postalcode": "70197",
          "city": "Stuttgart",
          "district": "Stuttgart-West"
        },
        "hours": {
          "raw": "Mo-Sa 12:00-20:00"
        },
        "sources": [
          {
            "type": "hopfenstop",
            "id": "68c807d2-6294-4d74-ad1e-db0810e9f133"
          }
        ],
        "created": "2026-05-19",
        "updated": "2026-05-19"
      }
    },
    {
      "type": "Feature",
      "geometry": {
        "type": "Point",
        "coordinates": [
          9.1627752,
          48.7762744
        ]
      },
      "properties": {
        "id": "tk_fr_2158",
        "name": "SpätiWest",
        "description": "Gute Getränkevielfalt.",
        "address": {
          "street": "Schloßstraße",
          "number": "73B",
          "postalcode": "70176",
          "city": "Stuttgart",
          "district": "Stuttgart-West"
        },
        "hours": {
          "raw": "Mo-Sa 10:00-23:00"
        },
        "sources": [
          {
            "type": "hopfenstop",
            "id": "45fec278-85c6-4a93-b27d-d48edc8e8ad4"
          }
        ],
        "created": "2026-05-19",
        "updated": "2026-05-19"
      }
    },
    {
      "type": "Feature",
      "geometry": {
        "type": "Point",
        "coordinates": [
          9.1547348,
          48.7731468
        ]
      },
      "properties": {
        "id": "tk_fr_2159",
        "name": "Laden",
        "description": "Kiezkiosk",
        "address": {
          "street": "Bismarckstraße",
          "number": "38",
          "postalcode": "70197",
          "city": "Stuttgart",
          "district": "Stuttgart-West"
        },
        "hours": {
          "raw": "Mo-Sa 09:00-18:00"
        },
        "sources": [
          {
            "type": "hopfenstop",
            "id": "87a81f23-6df5-4714-a1b6-55f5c7f7d273"
          }
        ],
        "created": "2026-05-19",
        "updated": "2026-05-19"
      }
    },
    {
      "type": "Feature",
      "geometry": {
        "type": "Point",
        "coordinates": [
          9.1635235,
          48.7637288
        ]
      },
      "properties": {
        "id": "tk_fr_2160",
        "name": "Kidane Kiosk",
        "description": "Nur das absolut Nötigste",
        "address": {
          "street": "Böblinger Straße",
          "number": "36",
          "postalcode": "70178",
          "city": "Stuttgart",
          "district": "Süd"
        },
        "hours": {
          "raw": "Mo-Sa 08:00-18:00"
        },
        "sources": [
          {
            "type": "hopfenstop",
            "id": "a6b0cc21-c364-4995-a459-173e5706224f"
          }
        ],
        "created": "2026-05-19",
        "updated": "2026-05-19"
      }
    },
    {
      "type": "Feature",
      "geometry": {
        "type": "Point",
        "coordinates": [
          9.1667687,
          48.76402460000001
        ]
      },
      "properties": {
        "id": "tk_fr_2161",
        "name": "Tabakkiste",
        "description": "Italienisches Bier",
        "address": {
          "street": "Böblinger Straße",
          "number": "5",
          "postalcode": "70178",
          "city": "Stuttgart",
          "district": "Süd"
        },
        "sources": [
          {
            "type": "hopfenstop",
            "id": "161b1e7f-baed-46c1-bd3a-36f5d5233a20"
          },
          {
            "type": "osm",
            "id": "way/441008409",
            "version": 0
          }
        ],
        "created": "2026-05-19",
        "updated": "2026-05-20",
        "hours": {
          "raw": "\"im Sommer oft bis 21 Uhr\""
        }
      }
    },
    {
      "type": "Feature",
      "geometry": {
        "type": "Point",
        "coordinates": [
          9.1690354,
          48.7635815
        ]
      },
      "properties": {
        "id": "tk_fr_2162",
        "name": "Bauchlädle ",
        "description": "Späti",
        "address": {
          "street": "Filderstraße",
          "number": "59A",
          "postalcode": "70180",
          "city": "Stuttgart",
          "district": "Süd"
        },
        "hours": {
          "raw": "Tu-Sa 17:00-01:00"
        },
        "sources": [
          {
            "type": "hopfenstop",
            "id": "5f0556ff-c872-49b1-8afb-ed457b308da0"
          }
        ],
        "created": "2026-05-19",
        "updated": "2026-05-19"
      }
    }
  ]
}
