{
  "type": "FeatureCollection",
  "features": [
    {
      "type": "Feature",
      "geometry": {
        "type": "Point",
        "coordinates": [
          9.9739742,
          48.4012874
        ]
      },
      "properties": {
        "id": "tk_ul_osm_n1036944327",
        "name": "CIGO Tabakshop Im Kaufland",
        "address": {
          "street": "Blaubeurer Straße",
          "number": "29",
          "postalcode": "89077",
          "city": "Ulm",
          "district": "Weststadt"
        },
        "sources": [
          {
            "type": "osm",
            "id": "node/1036944327",
            "version": 0
          },
          {
            "type": "gmaps",
            "id": "payment"
          }
        ],
        "created": "2026-05-21",
        "updated": "2026-06-15",
        "hours": {
          "raw": "Mo-Fr 09:00-20:00; Sa 08:00-20:00"
        },
        "tags": [
          "barrierefrei"
        ],
        "sources_by_field": {
          "name": "osm",
          "hours": "osm"
        },
        "apple_id_attempted": "2026-05-23",
        "payment": {
          "cards": "yes",
          "girocard": "yes"
        }
      }
    },
    {
      "type": "Feature",
      "geometry": {
        "type": "Point",
        "coordinates": [
          9.9633951,
          48.3938618
        ]
      },
      "properties": {
        "id": "tk_ul_osm_n1179513283",
        "name": "Finkbeiner",
        "address": {
          "street": "Magirusstraße",
          "number": "40",
          "postalcode": "89077",
          "city": "Ulm",
          "district": "Weststadt"
        },
        "sources": [
          {
            "type": "osm",
            "id": "node/1179513283",
            "version": 0
          },
          {
            "type": "gmaps",
            "id": "ChIJr8lBaztkmUcRZfuFON2QNus"
          }
        ],
        "created": "2026-05-21",
        "updated": "2026-06-15",
        "tags": [
          "barrierefrei"
        ],
        "sources_by_field": {
          "name": "osm"
        },
        "apple_id_attempted": "2026-05-23",
        "google_attempted": "2026-05-23",
        "payment": {
          "cards": "no",
          "contactless": "yes",
          "girocard": "yes"
        }
      }
    },
    {
      "type": "Feature",
      "geometry": {
        "type": "Point",
        "coordinates": [
          9.9521024,
          48.4599487
        ]
      },
      "properties": {
        "id": "tk_ul_osm_n11801927542",
        "name": "Getränke Ehret",
        "address": {
          "street": "Zeppelinstraße",
          "number": "12",
          "postalcode": "89160",
          "city": "Dornstadt"
        },
        "sources": [
          {
            "type": "osm",
            "id": "node/11801927542",
            "version": 0
          },
          {
            "type": "apple",
            "id": "13224768107968527740"
          }
        ],
        "created": "2026-05-21",
        "updated": "2026-06-15",
        "sources_by_field": {
          "name": "osm"
        },
        "apple_attempted": "2026-05-24",
        "google_attempted": "2026-05-23",
        "hours": {
          "raw": "Mo-Fr 07:30-12:00,13:00-16:30"
        },
        "payment": {}
      }
    },
    {
      "type": "Feature",
      "geometry": {
        "type": "Point",
        "coordinates": [
          10.1207783,
          48.4880751
        ]
      },
      "properties": {
        "id": "tk_ul_osm_n11927934486",
        "name": "Getränke Abholmarkt",
        "address": {
          "street": "Angertorstraße",
          "number": "52",
          "postalcode": "89129",
          "city": "Langenau",
          "district": "Schammenhof"
        },
        "sources": [
          {
            "type": "osm",
            "id": "node/11927934486",
            "version": 0
          },
          {
            "type": "gmaps",
            "id": "ChIJUTX0wnZCmUcR3bQpY0ux6jg"
          }
        ],
        "created": "2026-05-21",
        "updated": "2026-06-15",
        "hours": {
          "raw": "Mo-Fr 08:00-19:00; Sa 08:00-17:00; Su,PH off"
        },
        "tags": [
          "barrierefrei"
        ],
        "sources_by_field": {
          "name": "osm",
          "hours": "osm"
        },
        "apple_id_attempted": "2026-05-23",
        "google_attempted": "2026-05-23",
        "payment": {}
      }
    },
    {
      "type": "Feature",
      "geometry": {
        "type": "Point",
        "coordinates": [
          10.0026704,
          48.3935511
        ]
      },
      "properties": {
        "id": "tk_ul_osm_n12521354930",
        "name": "TZN Kiosk",
        "address": {
          "street": "Ludwigstraße",
          "number": "29",
          "postalcode": "89231",
          "city": "Neu-Ulm",
          "district": "Stadtmitte"
        },
        "sources": [
          {
            "type": "osm",
            "id": "node/12521354930",
            "version": 0
          },
          {
            "type": "gmaps",
            "id": "payment"
          },
          {
            "type": "apple",
            "id": "15309032229209457248"
          }
        ],
        "created": "2026-05-21",
        "updated": "2026-06-15",
        "hours": {
          "raw": "Mo-Th,Sa 09:00-20:00; Fr 09:00-12:00,14:30-20:00"
        },
        "tags": [
          "barrierefrei"
        ],
        "sources_by_field": {
          "name": "osm",
          "hours": "osm"
        },
        "payment": {
          "cards": "yes",
          "girocard": "yes"
        }
      }
    },
    {
      "type": "Feature",
      "geometry": {
        "type": "Point",
        "coordinates": [
          9.9936377,
          48.405948
        ]
      },
      "properties": {
        "id": "tk_ul_osm_n1316555813",
        "name": "Ulmer Bar Kiosk",
        "address": {
          "street": "Karlstraße",
          "number": "59",
          "postalcode": "89073"
        },
        "sources": [
          {
            "type": "osm",
            "id": "node/1316555813",
            "version": 0
          },
          {
            "type": "gmaps",
            "id": "ChIJs-t5wJBnmUcRUXu9sXqHQVo"
          }
        ],
        "created": "2026-05-21",
        "updated": "2026-06-15",
        "sources_by_field": {
          "name": "osm",
          "address.street": "osm",
          "address.number": "osm",
          "address.postalcode": "osm"
        },
        "apple_id_attempted": "2026-05-23",
        "google_attempted": "2026-05-23",
        "payment": {}
      }
    },
    {
      "type": "Feature",
      "geometry": {
        "type": "Point",
        "coordinates": [
          9.9969939,
          48.4000618
        ]
      },
      "properties": {
        "id": "tk_ul_osm_n13238808187",
        "name": "SNCK BX Snacks+More",
        "address": {
          "street": "Frauenstraße",
          "number": "36",
          "postalcode": "89073",
          "city": "Ulm",
          "district": "Mitte"
        },
        "sources": [
          {
            "type": "osm",
            "id": "node/13238808187",
            "version": 0
          },
          {
            "type": "gmaps",
            "id": "ChIJ9ZPvpvRnmUcR4D_r8yUljw4"
          }
        ],
        "created": "2026-05-21",
        "updated": "2026-06-15",
        "sources_by_field": {
          "name": "osm"
        },
        "apple_id_attempted": "2026-05-23",
        "google_attempted": "2026-05-26",
        "payment": {
          "cards": "yes",
          "girocard": "yes"
        }
      }
    },
    {
      "type": "Feature",
      "geometry": {
        "type": "Point",
        "coordinates": [
          9.9887294,
          48.3964118
        ]
      },
      "properties": {
        "id": "tk_ul_osm_n13243750106",
        "name": "kleinstadt snacks",
        "address": {
          "street": "Fischergasse",
          "number": "2"
        },
        "sources": [
          {
            "type": "osm",
            "id": "node/13243750106",
            "version": 0
          },
          {
            "type": "apple",
            "id": "12390075343636560011"
          }
        ],
        "created": "2026-05-21",
        "updated": "2026-06-15",
        "payment": {
          "cash": "unknown",
          "cards": "yes",
          "contactless": "unknown",
          "girocard": "unknown"
        },
        "sources_by_field": {
          "name": "osm",
          "address.street": "osm",
          "address.number": "osm",
          "payment.cash": "osm",
          "payment.cards": "osm",
          "payment.contactless": "osm",
          "payment.girocard": "osm"
        },
        "hours": {
          "raw": "We-Fr,Su 11:00-21:00; Mo 13:00-21:00; Tu 13:00-18:00; Sa 11:00-22:00"
        }
      }
    },
    {
      "type": "Feature",
      "geometry": {
        "type": "Point",
        "coordinates": [
          9.9847078,
          48.3993468
        ]
      },
      "properties": {
        "id": "tk_ul_osm_n13770815394",
        "name": "My E-Kiosk",
        "address": {
          "street": "Bahnhofplatz",
          "number": "7",
          "postalcode": "89073",
          "city": "Ulm",
          "district": "Mitte"
        },
        "sources": [
          {
            "type": "osm",
            "id": "node/13770815394",
            "version": 0
          },
          {
            "type": "gmaps",
            "id": "payment"
          },
          {
            "type": "apple",
            "id": "4429747619592412783"
          }
        ],
        "created": "2026-05-21",
        "updated": "2026-06-15",
        "hours": {
          "raw": "24/7"
        },
        "sources_by_field": {
          "name": "osm",
          "hours": "osm"
        },
        "payment": {
          "cards": "yes",
          "contactless": "yes",
          "girocard": "yes"
        }
      }
    },
    {
      "type": "Feature",
      "geometry": {
        "type": "Point",
        "coordinates": [
          9.9810584,
          48.3982858
        ]
      },
      "properties": {
        "id": "tk_ul_osm_n1379390350",
        "name": "Totto Lotto Kiosk",
        "address": {
          "street": "Schillerstraße",
          "number": "35",
          "postalcode": "89077",
          "city": "Ulm",
          "district": "Weststadt"
        },
        "sources": [
          {
            "type": "osm",
            "id": "node/1379390350",
            "version": 0
          },
          {
            "type": "apple",
            "id": "10506324170381451490"
          }
        ],
        "created": "2026-05-21",
        "updated": "2026-06-15",
        "hours": {
          "raw": "Sa 07:30-12:30; Th 06:00-14:00; Mo-We,Fr 06:00-14:00,15:30-18:00"
        },
        "tags": [
          "barrierefrei"
        ],
        "sources_by_field": {
          "name": "osm",
          "hours": "osm"
        },
        "payment": {
          "cards": "yes",
          "contactless": "yes"
        }
      }
    },
    {
      "type": "Feature",
      "geometry": {
        "type": "Point",
        "coordinates": [
          9.988885,
          48.4028207
        ]
      },
      "properties": {
        "id": "tk_ul_osm_n1474004077",
        "name": "Trinki Getränkemarkt",
        "address": {
          "street": "Ensingerstraße",
          "number": "11",
          "postalcode": "89073"
        },
        "sources": [
          {
            "type": "osm",
            "id": "node/1474004077",
            "version": 0
          },
          {
            "type": "gmaps",
            "id": "payment"
          },
          {
            "type": "apple",
            "id": "18362128059842493020"
          }
        ],
        "created": "2026-05-21",
        "updated": "2026-06-15",
        "hours": {
          "raw": "Mo-Fr 09:00-13:00, Tu,Fr 15:00-19:00, Sa 09:00-14:00"
        },
        "tags": [
          "barrierefrei"
        ],
        "sources_by_field": {
          "name": "osm",
          "address.street": "osm",
          "address.number": "osm",
          "address.postalcode": "osm",
          "hours": "osm"
        },
        "payment": {
          "cards": "yes",
          "contactless": "yes",
          "girocard": "yes"
        }
      }
    },
    {
      "type": "Feature",
      "geometry": {
        "type": "Point",
        "coordinates": [
          10.0027254,
          48.3907488
        ]
      },
      "properties": {
        "id": "tk_ul_osm_n1531654377",
        "name": "Freie Tankstelle",
        "address": {
          "street": "Turmstraße",
          "number": "38",
          "postalcode": "89231",
          "city": "Neu-Ulm"
        },
        "sources": [
          {
            "type": "osm",
            "id": "node/1531654377",
            "version": 0
          },
          {
            "type": "gmaps",
            "id": "payment"
          }
        ],
        "created": "2026-05-21",
        "updated": "2026-06-15",
        "hours": {
          "raw": "Mo-Fr 07:00-21:00; Sa 08:00-21:00; Su 10:00-21:00"
        },
        "tags": [
          "barrierefrei"
        ],
        "sources_by_field": {
          "name": "osm",
          "address.street": "osm",
          "address.number": "osm",
          "address.postalcode": "osm",
          "address.city": "osm",
          "hours": "osm"
        },
        "apple_id_attempted": "2026-05-23",
        "payment": {
          "cards": "no",
          "contactless": "yes",
          "girocard": "yes"
        }
      }
    },
    {
      "type": "Feature",
      "geometry": {
        "type": "Point",
        "coordinates": [
          10.0342513,
          48.3287455
        ]
      },
      "properties": {
        "id": "tk_ul_osm_n1727477843",
        "name": "Getränke Göbel",
        "address": {
          "street": "Ulmer Straße",
          "number": "33f",
          "postalcode": "89250",
          "city": "Senden",
          "district": "Freudenegg"
        },
        "sources": [
          {
            "type": "osm",
            "id": "node/1727477843",
            "version": 0
          },
          {
            "type": "gmaps",
            "id": "ChIJX9rU94UbmUcRW9DhBoSELOc"
          }
        ],
        "created": "2026-05-21",
        "updated": "2026-06-15",
        "sources_by_field": {
          "name": "osm"
        },
        "apple_id_attempted": "2026-05-23",
        "google_attempted": "2026-05-23",
        "payment": {
          "cards": "yes",
          "contactless": "yes",
          "girocard": "yes"
        }
      }
    },
    {
      "type": "Feature",
      "geometry": {
        "type": "Point",
        "coordinates": [
          9.8936687,
          48.3278482
        ]
      },
      "properties": {
        "id": "tk_ul_osm_n1880353673",
        "name": "Finkbeiner",
        "address": {
          "street": "Ehinger Straße",
          "number": "12",
          "postalcode": "89155",
          "city": "Erbach"
        },
        "sources": [
          {
            "type": "osm",
            "id": "node/1880353673",
            "version": 0
          },
          {
            "type": "gmaps",
            "id": "payment"
          }
        ],
        "created": "2026-05-21",
        "updated": "2026-06-15",
        "sources_by_field": {
          "name": "osm"
        },
        "apple_id_attempted": "2026-05-23",
        "google_attempted": "2026-05-23",
        "payment": {
          "cards": "no",
          "contactless": "yes",
          "girocard": "yes"
        }
      }
    },
    {
      "type": "Feature",
      "geometry": {
        "type": "Point",
        "coordinates": [
          9.9919364,
          48.406359
        ]
      },
      "properties": {
        "id": "tk_ul_osm_n2068082394",
        "name": "Brauerei Shop",
        "address": {
          "street": "Keplerstraße",
          "number": "40",
          "postalcode": "89073",
          "city": "Ulm"
        },
        "sources": [
          {
            "type": "osm",
            "id": "node/2068082394",
            "version": 0
          },
          {
            "type": "gmaps",
            "id": "payment"
          },
          {
            "type": "apple",
            "id": "8748075782828185945"
          }
        ],
        "created": "2026-05-21",
        "updated": "2026-06-15",
        "hours": {
          "raw": "Tu-Fr 12:30-17:00"
        },
        "sources_by_field": {
          "name": "osm",
          "address.street": "osm",
          "address.number": "osm",
          "address.postalcode": "osm",
          "address.city": "osm",
          "hours": "osm"
        },
        "payment": {
          "cards": "no"
        }
      }
    },
    {
      "type": "Feature",
      "geometry": {
        "type": "Point",
        "coordinates": [
          10.1332737,
          48.4184573
        ]
      },
      "properties": {
        "id": "tk_ul_osm_n2153682284",
        "name": "Esso",
        "address": {
          "street": "Ortsstraße",
          "number": "35",
          "postalcode": "89278",
          "city": "Nersingen",
          "district": "Straß"
        },
        "sources": [
          {
            "type": "osm",
            "id": "node/2153682284",
            "version": 0
          },
          {
            "type": "gmaps",
            "id": "payment"
          }
        ],
        "created": "2026-05-21",
        "updated": "2026-06-15",
        "hours": {
          "raw": "Mo-Fr 06:30-20:00, Sa 07:00-20:00, Su 09:00-19:00"
        },
        "sources_by_field": {
          "name": "osm",
          "hours": "osm"
        },
        "apple_id_attempted": "2026-05-23",
        "payment": {
          "cards": "yes",
          "contactless": "yes",
          "girocard": "yes"
        }
      }
    },
    {
      "type": "Feature",
      "geometry": {
        "type": "Point",
        "coordinates": [
          9.9516004,
          48.4040551
        ]
      },
      "properties": {
        "id": "tk_ul_osm_n2436528253",
        "name": "Finkbeiner",
        "address": {
          "street": "In der Wanne",
          "number": "49",
          "postalcode": "89075",
          "city": "Ulm"
        },
        "sources": [
          {
            "type": "osm",
            "id": "node/2436528253",
            "version": 0
          },
          {
            "type": "gmaps",
            "id": "payment"
          }
        ],
        "created": "2026-05-21",
        "updated": "2026-06-15",
        "sources_by_field": {
          "name": "osm",
          "address.street": "osm",
          "address.number": "osm",
          "address.postalcode": "osm",
          "address.city": "osm"
        },
        "apple_id_attempted": "2026-05-23",
        "google_attempted": "2026-05-23",
        "payment": {
          "cards": "no",
          "contactless": "yes",
          "girocard": "yes"
        }
      }
    },
    {
      "type": "Feature",
      "geometry": {
        "type": "Point",
        "coordinates": [
          9.9937905,
          48.3997164
        ]
      },
      "properties": {
        "id": "tk_ul_osm_n2898119734",
        "name": "Ochsen Shop",
        "address": {
          "street": "Hafenbad",
          "number": "8",
          "postalcode": "89073",
          "city": "Ulm"
        },
        "sources": [
          {
            "type": "osm",
            "id": "node/2898119734",
            "version": 0
          },
          {
            "type": "gmaps",
            "id": "payment"
          },
          {
            "type": "apple",
            "id": "6262424462960059578"
          }
        ],
        "created": "2026-05-21",
        "updated": "2026-06-15",
        "hours": {
          "raw": "Mo-Fr 10:00-18:00; Sa 09:00-16:00"
        },
        "sources_by_field": {
          "name": "osm",
          "address.street": "osm",
          "address.number": "osm",
          "address.postalcode": "osm",
          "address.city": "osm",
          "hours": "osm"
        },
        "payment": {
          "cards": "no",
          "contactless": "yes",
          "girocard": "yes"
        }
      }
    },
    {
      "type": "Feature",
      "geometry": {
        "type": "Point",
        "coordinates": [
          9.952988,
          48.4010763
        ]
      },
      "properties": {
        "id": "tk_ul_osm_n3148784201",
        "name": "Molfenter Fruchtsäfte",
        "address": {
          "street": "Auchertwiesenweg",
          "number": "14",
          "postalcode": "89081",
          "city": "Ulm"
        },
        "sources": [
          {
            "type": "osm",
            "id": "node/3148784201",
            "version": 0
          },
          {
            "type": "apple",
            "id": "10780332022743961362"
          }
        ],
        "created": "2026-05-21",
        "updated": "2026-06-15",
        "hours": {
          "raw": "Mo-Fr 08:30-12:30, 13:30-18:30; Sa 08:00-14:00"
        },
        "payment": {
          "cash": "yes",
          "cards": "unknown",
          "contactless": "unknown",
          "girocard": "unknown"
        },
        "tags": [
          "barrierefrei"
        ],
        "sources_by_field": {
          "name": "osm",
          "address.street": "osm",
          "address.number": "osm",
          "address.postalcode": "osm",
          "address.city": "osm",
          "hours": "osm",
          "payment.cash": "osm",
          "payment.cards": "osm",
          "payment.contactless": "osm",
          "payment.girocard": "osm"
        }
      }
    },
    {
      "type": "Feature",
      "geometry": {
        "type": "Point",
        "coordinates": [
          9.9955055,
          48.3977169
        ]
      },
      "properties": {
        "id": "tk_ul_osm_n3152519559",
        "name": "Kiosk Patogh",
        "address": {},
        "sources": [
          {
            "type": "osm",
            "id": "node/3152519559",
            "version": 0
          },
          {
            "type": "apple",
            "id": "11464405659997249997"
          }
        ],
        "created": "2026-05-21",
        "updated": "2026-06-15",
        "hours": {
          "raw": "Mo-Th 07:00-01:00; Fr 07:00-03:00; Sa-Su 07:00-04:00"
        },
        "payment": {
          "cash": "unknown",
          "cards": "yes",
          "contactless": "unknown",
          "girocard": "unknown"
        },
        "sources_by_field": {
          "name": "osm",
          "hours": "osm",
          "payment.cash": "osm",
          "payment.cards": "osm",
          "payment.contactless": "osm",
          "payment.girocard": "osm"
        }
      }
    },
    {
      "type": "Feature",
      "geometry": {
        "type": "Point",
        "coordinates": [
          9.9959315,
          48.3988389
        ]
      },
      "properties": {
        "id": "tk_ul_osm_n3178579081",
        "name": "Bermuda Liquor Store",
        "address": {
          "street": "Hafengasse",
          "number": "28",
          "postalcode": "89073",
          "city": "Ulm"
        },
        "sources": [
          {
            "type": "osm",
            "id": "node/3178579081",
            "version": 0
          },
          {
            "type": "gmaps",
            "id": "payment"
          }
        ],
        "created": "2026-05-21",
        "updated": "2026-06-15",
        "hours": {
          "raw": "Mo-Sa 10:00-18:00"
        },
        "sources_by_field": {
          "name": "osm",
          "address.street": "osm",
          "address.number": "osm",
          "address.postalcode": "osm",
          "address.city": "osm",
          "hours": "osm"
        },
        "apple_id_attempted": "2026-05-23",
        "payment": {
          "cards": "no",
          "contactless": "yes",
          "girocard": "yes"
        }
      }
    },
    {
      "type": "Feature",
      "geometry": {
        "type": "Point",
        "coordinates": [
          10.120964,
          48.4880794
        ]
      },
      "properties": {
        "id": "tk_ul_osm_n3720271148",
        "name": "Freie Tankstelle",
        "address": {
          "street": "Angertorstraße",
          "number": "52",
          "postalcode": "89129",
          "city": "Langenau",
          "district": "Schammenhof"
        },
        "sources": [
          {
            "type": "osm",
            "id": "node/3720271148",
            "version": 0
          },
          {
            "type": "gmaps",
            "id": "payment"
          }
        ],
        "created": "2026-05-21",
        "updated": "2026-06-15",
        "hours": {
          "raw": "Mo-Fr 07:00-20:00; Sa 07:00-18:00; Su,PH 09:00-14:00"
        },
        "sources_by_field": {
          "name": "osm",
          "hours": "osm"
        },
        "apple_id_attempted": "2026-05-23",
        "payment": {
          "cards": "no",
          "contactless": "yes",
          "girocard": "yes"
        }
      }
    },
    {
      "type": "Feature",
      "geometry": {
        "type": "Point",
        "coordinates": [
          10.1318991,
          48.4999958
        ]
      },
      "properties": {
        "id": "tk_ul_osm_n3720271149",
        "name": "Finkbeiner",
        "address": {
          "street": "Benzstraße",
          "postalcode": "89129",
          "city": "Langenau",
          "number": "4"
        },
        "sources": [
          {
            "type": "osm",
            "id": "node/3720271149",
            "version": 0
          },
          {
            "type": "gmaps",
            "id": "payment"
          }
        ],
        "created": "2026-05-21",
        "updated": "2026-06-15",
        "hours": {
          "raw": "Mo-Sa 08:00-20:00; PH closed"
        },
        "sources_by_field": {
          "name": "osm",
          "address.street": "osm",
          "address.postalcode": "osm",
          "address.city": "osm",
          "hours": "osm"
        },
        "apple_id_attempted": "2026-05-23",
        "payment": {
          "cards": "no",
          "contactless": "yes",
          "girocard": "yes"
        }
      }
    },
    {
      "type": "Feature",
      "geometry": {
        "type": "Point",
        "coordinates": [
          10.08127,
          48.4727348
        ]
      },
      "properties": {
        "id": "tk_ul_osm_n3768011528",
        "name": "Reinhard Klingler Mosterei",
        "address": {
          "street": "Schulgasse",
          "number": "5",
          "city": "Langenau"
        },
        "sources": [
          {
            "type": "osm",
            "id": "node/3768011528",
            "version": 0
          },
          {
            "type": "gmaps",
            "id": "ChIJqyI_gklomUcR7tL7_7oyixw"
          }
        ],
        "created": "2026-05-21",
        "updated": "2026-06-15",
        "sources_by_field": {
          "name": "osm",
          "address.street": "osm",
          "address.number": "osm",
          "address.city": "osm"
        },
        "apple_id_attempted": "2026-05-23",
        "google_attempted": "2026-05-23",
        "payment": {}
      }
    },
    {
      "type": "Feature",
      "geometry": {
        "type": "Point",
        "coordinates": [
          9.9624764,
          48.3959935
        ]
      },
      "properties": {
        "id": "tk_ul_osm_n4896042170",
        "name": "Portugal-Flavor",
        "address": {
          "street": "Einsteinstraße",
          "number": "35",
          "postalcode": "89077",
          "city": "Ulm",
          "district": "Söflingen"
        },
        "sources": [
          {
            "type": "osm",
            "id": "node/4896042170",
            "version": 0
          },
          {
            "type": "gmaps",
            "id": "payment"
          }
        ],
        "created": "2026-05-21",
        "updated": "2026-06-15",
        "hours": {
          "raw": "Mo-Fr 08:00-12:00,13:00-17:00"
        },
        "sources_by_field": {
          "name": "osm",
          "hours": "osm"
        },
        "apple_id_attempted": "2026-05-23",
        "payment": {
          "cards": "no",
          "contactless": "yes",
          "girocard": "yes"
        }
      }
    },
    {
      "type": "Feature",
      "geometry": {
        "type": "Point",
        "coordinates": [
          10.1352927,
          48.414697
        ]
      },
      "properties": {
        "id": "tk_ul_osm_n5347802278",
        "name": "Finkbeiner Getränkemarkt",
        "address": {
          "street": "Ilgstraße",
          "number": "2a",
          "postalcode": "89278",
          "city": "Nersingen",
          "district": "Straß"
        },
        "sources": [
          {
            "type": "osm",
            "id": "node/5347802278",
            "version": 0
          },
          {
            "type": "gmaps",
            "id": "payment"
          }
        ],
        "created": "2026-05-21",
        "updated": "2026-06-15",
        "hours": {
          "raw": "Mo-Fr 09:00-12:30, 14:00-19:00 ;Sa 08:00-14:00"
        },
        "tags": [
          "barrierefrei"
        ],
        "sources_by_field": {
          "name": "osm",
          "hours": "osm"
        },
        "apple_id_attempted": "2026-05-23",
        "payment": {
          "cards": "yes",
          "contactless": "yes",
          "girocard": "yes"
        }
      }
    },
    {
      "type": "Feature",
      "geometry": {
        "type": "Point",
        "coordinates": [
          10.0861126,
          48.4473152
        ]
      },
      "properties": {
        "id": "tk_ul_osm_n5644578707",
        "name": "Junginger Fruchtsäfte",
        "address": {
          "street": "Glockeraustraße",
          "number": "27",
          "postalcode": "89275",
          "city": "Elchingen",
          "district": "Oberelchingen"
        },
        "sources": [
          {
            "type": "osm",
            "id": "node/5644578707",
            "version": 0
          },
          {
            "type": "gmaps",
            "id": "payment"
          }
        ],
        "created": "2026-05-21",
        "updated": "2026-06-15",
        "hours": {
          "raw": "Mo-Fr 08:30-18:00; Sa 08:30-13:00"
        },
        "tags": [
          "barrierefrei"
        ],
        "sources_by_field": {
          "name": "osm",
          "address.street": "osm",
          "address.number": "osm",
          "address.postalcode": "osm",
          "address.city": "osm",
          "address.district": "osm",
          "hours": "osm"
        },
        "apple_id_attempted": "2026-05-23",
        "payment": {
          "cards": "no",
          "contactless": "yes",
          "girocard": "yes"
        }
      }
    },
    {
      "type": "Feature",
      "geometry": {
        "type": "Point",
        "coordinates": [
          10.0871892,
          48.4471131
        ]
      },
      "properties": {
        "id": "tk_ul_osm_n5648767890",
        "name": "Getränke BEER",
        "address": {
          "street": "Glockeraustraße",
          "number": "28",
          "postalcode": "89275",
          "city": "Elchingen",
          "district": "Oberelchingen"
        },
        "sources": [
          {
            "type": "osm",
            "id": "node/5648767890",
            "version": 0
          },
          {
            "type": "gmaps",
            "id": "payment"
          }
        ],
        "created": "2026-05-21",
        "updated": "2026-06-15",
        "hours": {
          "raw": "Mo-Fr 07:45-12:00,13:30-18:00; Sa 08:00-13:30; Su,PH off"
        },
        "sources_by_field": {
          "name": "osm",
          "address.street": "osm",
          "address.number": "osm",
          "address.postalcode": "osm",
          "address.city": "osm",
          "address.district": "osm",
          "hours": "osm"
        },
        "apple_id_attempted": "2026-05-23",
        "payment": {
          "cards": "yes",
          "contactless": "yes",
          "girocard": "yes"
        }
      }
    },
    {
      "type": "Feature",
      "geometry": {
        "type": "Point",
        "coordinates": [
          10.0103942,
          48.394617
        ]
      },
      "properties": {
        "id": "tk_ul_osm_n5885010275",
        "name": "Getränke Göbel",
        "address": {
          "street": "Reuttier Straße",
          "postalcode": "89231",
          "city": "Neu-Ulm"
        },
        "sources": [
          {
            "type": "osm",
            "id": "node/5885010275",
            "version": 0
          },
          {
            "type": "gmaps",
            "id": "payment"
          },
          {
            "type": "apple",
            "id": "13626992577742588782"
          }
        ],
        "created": "2026-05-21",
        "updated": "2026-06-15",
        "hours": {
          "raw": "Mo-Sa 08:00-20:00"
        },
        "tags": [
          "barrierefrei"
        ],
        "sources_by_field": {
          "name": "osm",
          "hours": "osm"
        },
        "payment": {
          "cards": "no",
          "contactless": "yes",
          "girocard": "yes"
        }
      }
    },
    {
      "type": "Feature",
      "geometry": {
        "type": "Point",
        "coordinates": [
          10.0578648,
          48.4363842
        ]
      },
      "properties": {
        "id": "tk_ul_osm_n5967056554",
        "name": "Finkbeiner",
        "address": {
          "street": "Schwärzeweg",
          "number": "2"
        },
        "sources": [
          {
            "type": "osm",
            "id": "node/5967056554",
            "version": 0
          },
          {
            "type": "gmaps",
            "id": "payment"
          }
        ],
        "created": "2026-05-21",
        "updated": "2026-06-15",
        "hours": {
          "raw": "Mo-Sa 08:00-20:00"
        },
        "sources_by_field": {
          "name": "osm",
          "address.street": "osm",
          "address.number": "osm",
          "hours": "osm"
        },
        "apple_id_attempted": "2026-05-23",
        "payment": {
          "cards": "no",
          "contactless": "yes",
          "girocard": "yes"
        }
      }
    },
    {
      "type": "Feature",
      "geometry": {
        "type": "Point",
        "coordinates": [
          9.9655612,
          48.3861008
        ]
      },
      "properties": {
        "id": "tk_ul_osm_n7713729379",
        "name": "REWE Getränkemarkt",
        "address": {
          "street": "Römerstraße",
          "number": "120/1",
          "postalcode": "89077",
          "city": "Ulm",
          "district": "Weststadt"
        },
        "sources": [
          {
            "type": "osm",
            "id": "node/7713729379",
            "version": 0
          },
          {
            "type": "gmaps",
            "id": "payment"
          }
        ],
        "created": "2026-05-21",
        "updated": "2026-06-15",
        "hours": {
          "raw": "Mo-Sa 07:00-22:00"
        },
        "tags": [
          "barrierefrei"
        ],
        "sources_by_field": {
          "name": "osm",
          "hours": "osm"
        },
        "apple_id_attempted": "2026-05-23",
        "payment": {
          "cards": "yes",
          "contactless": "yes",
          "girocard": "yes"
        }
      }
    },
    {
      "type": "Feature",
      "geometry": {
        "type": "Point",
        "coordinates": [
          10.1257535,
          48.426807
        ]
      },
      "properties": {
        "id": "tk_ul_osm_n942391473",
        "name": "Getränke Göbel",
        "address": {
          "street": "Weißenhorner Straße",
          "number": "15",
          "postalcode": "89278",
          "city": "Nersingen",
          "district": "Nersingen"
        },
        "sources": [
          {
            "type": "osm",
            "id": "node/942391473",
            "version": 0
          },
          {
            "type": "apple",
            "id": "3215168255919196832"
          }
        ],
        "created": "2026-05-21",
        "updated": "2026-06-15",
        "hours": {
          "raw": "Mo-Fr 08:30-12:30, Sa 08:00-16:00, Mo-Fr 13:30-18:00; Su,PH off"
        },
        "payment": {
          "cash": "unknown",
          "cards": "yes",
          "contactless": "unknown",
          "girocard": "unknown"
        },
        "tags": [
          "barrierefrei"
        ],
        "sources_by_field": {
          "name": "osm",
          "hours": "osm",
          "payment.cash": "osm",
          "payment.cards": "osm",
          "payment.contactless": "osm",
          "payment.girocard": "osm"
        }
      }
    },
    {
      "type": "Feature",
      "geometry": {
        "type": "Point",
        "coordinates": [
          9.9028967,
          48.3044231
        ]
      },
      "properties": {
        "id": "tk_ul_osm_n9554979569",
        "name": "Getränke Oase Fuchs",
        "address": {
          "street": "Ulmer Straße",
          "number": "23",
          "postalcode": "89155",
          "city": "Erbach",
          "district": "Dellmensingen"
        },
        "sources": [
          {
            "type": "osm",
            "id": "node/9554979569",
            "version": 0
          },
          {
            "type": "gmaps",
            "id": "ChIJtytCNdFjmUcRAvaHMixmZhA"
          }
        ],
        "created": "2026-05-21",
        "updated": "2026-06-15",
        "hours": {
          "raw": "Mo-Th 16:00-18:30; Fr 14:00-18:30; Sa 09:00-12:30"
        },
        "sources_by_field": {
          "name": "osm",
          "address.street": "osm",
          "address.number": "osm",
          "address.postalcode": "osm",
          "address.city": "osm",
          "address.district": "osm",
          "hours": "osm"
        },
        "apple_id_attempted": "2026-05-23",
        "google_attempted": "2026-05-23",
        "payment": {}
      }
    },
    {
      "type": "Feature",
      "geometry": {
        "type": "Point",
        "coordinates": [
          9.9998537,
          48.403603
        ]
      },
      "properties": {
        "id": "tk_ul_osm_w106562986",
        "name": "Lotto",
        "address": {
          "postalcode": "89073",
          "street": "König-Wilhelm-Straße",
          "number": "2",
          "city": "Ulm",
          "district": "Oststadt"
        },
        "sources": [
          {
            "type": "osm",
            "id": "way/106562986",
            "version": 0
          },
          {
            "type": "gmaps",
            "id": "ChIJ3TBic-VnmUcRiFzAEx_0hvk"
          }
        ],
        "created": "2026-05-21",
        "updated": "2026-06-15",
        "hours": {
          "raw": "Mo-Fr 07:00-18:30; Sa 07:00-14:00"
        },
        "sources_by_field": {
          "name": "osm",
          "address.postalcode": "osm",
          "hours": "osm"
        },
        "apple_id_attempted": "2026-05-23",
        "google_attempted": "2026-05-23",
        "payment": {}
      }
    },
    {
      "type": "Feature",
      "geometry": {
        "type": "Point",
        "coordinates": [
          10.0371298,
          48.4058807
        ]
      },
      "properties": {
        "id": "tk_ul_osm_w118819602",
        "name": "REWE Getränkemarkt",
        "address": {
          "street": "Leipheimer Straße",
          "number": "49",
          "postalcode": "89233",
          "city": "Neu-Ulm",
          "district": "Pfuhl"
        },
        "sources": [
          {
            "type": "osm",
            "id": "way/118819602",
            "version": 0
          },
          {
            "type": "gmaps",
            "id": "payment"
          }
        ],
        "created": "2026-05-21",
        "updated": "2026-06-15",
        "hours": {
          "raw": "Mo-Sa 07:00-20:00"
        },
        "tags": [
          "barrierefrei"
        ],
        "sources_by_field": {
          "name": "osm",
          "address.street": "osm",
          "address.number": "osm",
          "address.postalcode": "osm",
          "address.city": "osm",
          "address.district": "osm",
          "hours": "osm"
        },
        "apple_id_attempted": "2026-05-23",
        "payment": {
          "cards": "yes",
          "contactless": "yes",
          "girocard": "yes"
        }
      }
    },
    {
      "type": "Feature",
      "geometry": {
        "type": "Point",
        "coordinates": [
          10.0682842,
          48.4099813
        ]
      },
      "properties": {
        "id": "tk_ul_osm_w119591411",
        "name": "Finkbeiner",
        "address": {
          "street": "Adenauerstraße",
          "number": "3",
          "postalcode": "89233",
          "city": "Neu-Ulm"
        },
        "sources": [
          {
            "type": "osm",
            "id": "way/119591411",
            "version": 0
          },
          {
            "type": "gmaps",
            "id": "payment"
          }
        ],
        "created": "2026-05-21",
        "updated": "2026-06-15",
        "hours": {
          "raw": "Mo-Sa 08:00-20:00"
        },
        "tags": [
          "barrierefrei"
        ],
        "sources_by_field": {
          "name": "osm",
          "address.street": "osm",
          "address.number": "osm",
          "address.postalcode": "osm",
          "address.city": "osm",
          "hours": "osm"
        },
        "apple_id_attempted": "2026-05-23",
        "payment": {
          "cards": "no",
          "contactless": "yes",
          "girocard": "yes"
        }
      }
    },
    {
      "type": "Feature",
      "geometry": {
        "type": "Point",
        "coordinates": [
          10.0223076,
          48.4010834
        ]
      },
      "properties": {
        "id": "tk_ul_osm_w121541604",
        "name": "Esso",
        "address": {
          "street": "Augsburger Straße",
          "number": "187",
          "postalcode": "89231",
          "city": "Neu-Ulm"
        },
        "sources": [
          {
            "type": "osm",
            "id": "way/121541604",
            "version": 0
          },
          {
            "type": "gmaps",
            "id": "payment"
          }
        ],
        "created": "2026-05-21",
        "updated": "2026-06-15",
        "hours": {
          "raw": "Mo-Su,PH 06:00-22:00"
        },
        "tags": [
          "barrierefrei"
        ],
        "sources_by_field": {
          "name": "osm",
          "address.street": "osm",
          "address.number": "osm",
          "address.postalcode": "osm",
          "address.city": "osm",
          "hours": "osm"
        },
        "apple_id_attempted": "2026-05-23",
        "payment": {
          "cards": "no",
          "contactless": "yes",
          "girocard": "yes"
        }
      }
    },
    {
      "type": "Feature",
      "geometry": {
        "type": "Point",
        "coordinates": [
          9.9745069,
          48.4019709
        ]
      },
      "properties": {
        "id": "tk_ul_osm_w244941370",
        "name": "Avia",
        "address": {
          "street": "Blaubeurer Straße",
          "number": "32",
          "postalcode": "89077",
          "city": "Ulm",
          "district": "Weststadt"
        },
        "sources": [
          {
            "type": "osm",
            "id": "way/244941370",
            "version": 0
          },
          {
            "type": "gmaps",
            "id": "payment"
          }
        ],
        "created": "2026-05-21",
        "updated": "2026-06-15",
        "hours": {
          "raw": "Mo-Sa,PH 06:00-22:00; Su 08:00-22:00"
        },
        "sources_by_field": {
          "name": "osm",
          "hours": "osm"
        },
        "apple_id_attempted": "2026-05-23",
        "payment": {
          "cards": "no",
          "contactless": "yes",
          "girocard": "yes"
        }
      }
    },
    {
      "type": "Feature",
      "geometry": {
        "type": "Point",
        "coordinates": [
          9.9749957,
          48.401514
        ]
      },
      "properties": {
        "id": "tk_ul_osm_w286963386",
        "name": "RAN Südtank",
        "address": {
          "street": "Blaubeurer Straße",
          "number": "25",
          "postalcode": "89077",
          "city": "Ulm",
          "district": "Weststadt"
        },
        "sources": [
          {
            "type": "osm",
            "id": "way/286963386",
            "version": 0
          },
          {
            "type": "gmaps",
            "id": "payment"
          },
          {
            "type": "apple",
            "id": "7169654112184657770"
          }
        ],
        "created": "2026-05-21",
        "updated": "2026-06-15",
        "hours": {
          "raw": "Mo-Fr 06:00-23:00; Sa 07:00-23:00; Su 08:00-23:00"
        },
        "sources_by_field": {
          "name": "osm",
          "hours": "osm"
        },
        "payment": {
          "cards": "no",
          "contactless": "yes",
          "girocard": "yes"
        }
      }
    },
    {
      "type": "Feature",
      "geometry": {
        "type": "Point",
        "coordinates": [
          9.9771931,
          48.3029474
        ]
      },
      "properties": {
        "id": "tk_ul_osm_w290183081",
        "name": "Finkbeiner",
        "address": {
          "street": "Lehnsanftweg",
          "number": "9",
          "postalcode": "89195",
          "city": "Staig",
          "district": "Altheim"
        },
        "sources": [
          {
            "type": "osm",
            "id": "way/290183081",
            "version": 0
          },
          {
            "type": "gmaps",
            "id": "payment"
          }
        ],
        "created": "2026-05-21",
        "updated": "2026-06-15",
        "hours": {
          "raw": "Mo-Fr 09:00-19:00; Sa 08:00-16:00"
        },
        "sources_by_field": {
          "name": "osm",
          "address.street": "osm",
          "address.number": "osm",
          "address.postalcode": "osm",
          "address.city": "osm",
          "address.district": "osm",
          "hours": "osm"
        },
        "apple_id_attempted": "2026-05-23",
        "payment": {
          "cards": "no",
          "contactless": "yes",
          "girocard": "yes"
        }
      }
    },
    {
      "type": "Feature",
      "geometry": {
        "type": "Point",
        "coordinates": [
          9.9506465,
          48.4603341
        ]
      },
      "properties": {
        "id": "tk_ul_osm_w30609176",
        "name": "Getränke Finkbeiner",
        "address": {
          "street": "Lerchenbergstraße",
          "number": "27",
          "postalcode": "89160",
          "city": "Dornstadt"
        },
        "sources": [
          {
            "type": "osm",
            "id": "way/30609176",
            "version": 0
          },
          {
            "type": "gmaps",
            "id": "payment"
          },
          {
            "type": "apple",
            "id": "15607131250422991302"
          }
        ],
        "created": "2026-05-21",
        "updated": "2026-06-15",
        "tags": [
          "barrierefrei"
        ],
        "sources_by_field": {
          "name": "osm",
          "address.street": "osm",
          "address.number": "osm",
          "address.postalcode": "osm",
          "address.city": "osm"
        },
        "hours": {
          "raw": "Mo-Sa 08:00-20:00"
        },
        "payment": {
          "cards": "no",
          "contactless": "yes",
          "girocard": "yes"
        }
      }
    },
    {
      "type": "Feature",
      "geometry": {
        "type": "Point",
        "coordinates": [
          9.9430164,
          48.4683866
        ]
      },
      "properties": {
        "id": "tk_ul_osm_w331362256",
        "name": "Getränke Ehret",
        "address": {
          "street": "Holzsteige",
          "number": "8",
          "postalcode": "89160",
          "city": "Dornstadt"
        },
        "sources": [
          {
            "type": "osm",
            "id": "way/331362256",
            "version": 0
          },
          {
            "type": "gmaps",
            "id": "ChIJDZEmRZhvmUcRJld1RwZu2to"
          }
        ],
        "created": "2026-05-21",
        "updated": "2026-06-15",
        "sources_by_field": {
          "name": "osm",
          "address.street": "osm",
          "address.number": "osm",
          "address.postalcode": "osm",
          "address.city": "osm"
        },
        "apple_id_attempted": "2026-05-23",
        "google_attempted": "2026-05-23",
        "payment": {
          "cards": "no",
          "contactless": "yes",
          "girocard": "yes"
        }
      }
    },
    {
      "type": "Feature",
      "geometry": {
        "type": "Point",
        "coordinates": [
          9.9137597,
          48.353219
        ]
      },
      "properties": {
        "id": "tk_ul_osm_w35591022",
        "name": "Finkbeiner",
        "address": {
          "street": "Rötelbachstraße",
          "number": "97",
          "postalcode": "89079",
          "city": "Ulm",
          "district": "Einsingen"
        },
        "sources": [
          {
            "type": "osm",
            "id": "way/35591022",
            "version": 0
          },
          {
            "type": "gmaps",
            "id": "payment"
          }
        ],
        "created": "2026-05-21",
        "updated": "2026-06-15",
        "hours": {
          "raw": "Mo-Sa 08:00-20:00"
        },
        "tags": [
          "barrierefrei"
        ],
        "sources_by_field": {
          "name": "osm",
          "address.street": "osm",
          "address.number": "osm",
          "address.postalcode": "osm",
          "address.city": "osm",
          "address.district": "osm",
          "hours": "osm"
        },
        "apple_id_attempted": "2026-05-23",
        "payment": {
          "cards": "no",
          "contactless": "yes",
          "girocard": "yes"
        }
      }
    },
    {
      "type": "Feature",
      "geometry": {
        "type": "Point",
        "coordinates": [
          10.038188,
          48.3337142
        ]
      },
      "properties": {
        "id": "tk_ul_osm_w441390656",
        "name": "Finkbeiner",
        "address": {
          "street": "Berliner Straße",
          "number": "17",
          "postalcode": "89250",
          "city": "Senden"
        },
        "sources": [
          {
            "type": "osm",
            "id": "way/441390656",
            "version": 0
          },
          {
            "type": "gmaps",
            "id": "payment"
          }
        ],
        "created": "2026-05-21",
        "updated": "2026-06-15",
        "hours": {
          "raw": "Mo-Sa 07:00-20:00"
        },
        "sources_by_field": {
          "name": "osm",
          "address.street": "osm",
          "address.number": "osm",
          "address.postalcode": "osm",
          "address.city": "osm",
          "hours": "osm"
        },
        "apple_id_attempted": "2026-05-23",
        "payment": {
          "cards": "no",
          "contactless": "yes",
          "girocard": "yes"
        }
      }
    },
    {
      "type": "Feature",
      "geometry": {
        "type": "Point",
        "coordinates": [
          10.0066244,
          48.4225961
        ]
      },
      "properties": {
        "id": "tk_ul_osm_w677067593",
        "name": "Finkbeiner",
        "address": {
          "street": "Eberhard-Finckh-Straße",
          "number": "3",
          "postalcode": "89075"
        },
        "sources": [
          {
            "type": "osm",
            "id": "way/677067593",
            "version": 0
          },
          {
            "type": "gmaps",
            "id": "payment"
          }
        ],
        "created": "2026-05-21",
        "updated": "2026-06-15",
        "hours": {
          "raw": "Mo-Fr 08:30-19:00, Sa 08:00-18:00"
        },
        "tags": [
          "barrierefrei"
        ],
        "sources_by_field": {
          "name": "osm",
          "address.street": "osm",
          "address.number": "osm",
          "address.postalcode": "osm",
          "hours": "osm"
        },
        "apple_id_attempted": "2026-05-23",
        "payment": {
          "cards": "yes",
          "contactless": "yes",
          "girocard": "yes"
        }
      }
    },
    {
      "type": "Feature",
      "geometry": {
        "type": "Point",
        "coordinates": [
          10.0219182,
          48.4016867
        ]
      },
      "properties": {
        "id": "tk_ul_osm_w69259019",
        "name": "Finkbeiner",
        "address": {
          "street": "Augsburger Straße",
          "number": "186",
          "postalcode": "89231",
          "city": "Neu-Ulm"
        },
        "sources": [
          {
            "type": "osm",
            "id": "way/69259019",
            "version": 0
          },
          {
            "type": "gmaps",
            "id": "payment"
          }
        ],
        "created": "2026-05-21",
        "updated": "2026-06-15",
        "hours": {
          "raw": "Mo-Sa 08:00-20:00"
        },
        "tags": [
          "barrierefrei"
        ],
        "sources_by_field": {
          "name": "osm",
          "address.street": "osm",
          "address.number": "osm",
          "address.postalcode": "osm",
          "address.city": "osm",
          "hours": "osm"
        },
        "apple_id_attempted": "2026-05-23",
        "payment": {
          "cards": "no",
          "contactless": "yes",
          "girocard": "yes"
        }
      }
    },
    {
      "type": "Feature",
      "geometry": {
        "type": "Point",
        "coordinates": [
          10.0146632,
          48.3958481
        ]
      },
      "properties": {
        "id": "tk_ul_osm_w83367735",
        "name": "Finkbeiner",
        "address": {
          "street": "Im Starkfeld",
          "number": "9",
          "postalcode": "89231",
          "city": "Neu-Ulm"
        },
        "sources": [
          {
            "type": "osm",
            "id": "way/83367735",
            "version": 0
          },
          {
            "type": "gmaps",
            "id": "payment"
          }
        ],
        "created": "2026-05-21",
        "updated": "2026-06-15",
        "hours": {
          "raw": "Mo-Fr 08:30-20:00; Sa 08:00-20:00"
        },
        "sources_by_field": {
          "name": "osm",
          "address.street": "osm",
          "address.number": "osm",
          "address.postalcode": "osm",
          "address.city": "osm",
          "hours": "osm"
        },
        "apple_id_attempted": "2026-05-23",
        "payment": {
          "cards": "no",
          "contactless": "yes",
          "girocard": "yes"
        }
      }
    },
    {
      "type": "Feature",
      "geometry": {
        "type": "Point",
        "coordinates": [
          9.9987942,
          48.3946386
        ]
      },
      "properties": {
        "id": "tk_ul_osm_w83824765",
        "name": "Schwabensnack Kiosk",
        "address": {
          "street": "Augsburger Straße",
          "number": "2",
          "postalcode": "89231",
          "city": "Neu-Ulm"
        },
        "sources": [
          {
            "type": "osm",
            "id": "way/83824765",
            "version": 0
          },
          {
            "type": "apple",
            "id": "13227156884378742024"
          }
        ],
        "created": "2026-05-21",
        "updated": "2026-06-15",
        "hours": {
          "raw": "Mo-Sa 10:00-19:00"
        },
        "payment": {
          "cash": "unknown",
          "cards": "yes",
          "contactless": "unknown",
          "girocard": "unknown"
        },
        "tags": [
          "barrierefrei"
        ],
        "sources_by_field": {
          "name": "osm",
          "address.street": "osm",
          "address.number": "osm",
          "address.postalcode": "osm",
          "address.city": "osm",
          "hours": "osm",
          "payment.cash": "osm",
          "payment.cards": "osm",
          "payment.contactless": "osm",
          "payment.girocard": "osm"
        }
      }
    },
    {
      "type": "Feature",
      "geometry": {
        "type": "Point",
        "coordinates": [
          9.9989228,
          48.3913647
        ]
      },
      "properties": {
        "id": "tk_ul_osm_w91236038",
        "name": "Finkbeiner",
        "address": {
          "street": "Gartenstraße",
          "number": "30-34",
          "postalcode": "89231",
          "city": "Neu-Ulm"
        },
        "sources": [
          {
            "type": "osm",
            "id": "way/91236038",
            "version": 0
          },
          {
            "type": "gmaps",
            "id": "payment"
          }
        ],
        "created": "2026-05-21",
        "updated": "2026-06-15",
        "hours": {
          "raw": "Mo-Fr 08:30-19:00; Sa 08:00-18:00"
        },
        "sources_by_field": {
          "name": "osm",
          "address.street": "osm",
          "address.number": "osm",
          "address.postalcode": "osm",
          "address.city": "osm",
          "hours": "osm"
        },
        "apple_id_attempted": "2026-05-23",
        "payment": {
          "cards": "no",
          "contactless": "yes",
          "girocard": "yes"
        }
      }
    },
    {
      "type": "Feature",
      "geometry": {
        "type": "Point",
        "coordinates": [
          10.0077877,
          48.3714275
        ]
      },
      "properties": {
        "id": "tk_ul_osm_w92422974",
        "name": "Finkbeiner",
        "address": {
          "street": "Steinadlerweg",
          "number": "3",
          "postalcode": "89231",
          "city": "Neu-Ulm"
        },
        "sources": [
          {
            "type": "osm",
            "id": "way/92422974",
            "version": 0
          },
          {
            "type": "gmaps",
            "id": "payment"
          }
        ],
        "created": "2026-05-21",
        "updated": "2026-06-15",
        "hours": {
          "raw": "Mo-Sa 08:00-20:00"
        },
        "sources_by_field": {
          "name": "osm",
          "address.street": "osm",
          "address.number": "osm",
          "address.postalcode": "osm",
          "address.city": "osm",
          "hours": "osm"
        },
        "apple_id_attempted": "2026-05-23",
        "payment": {
          "cards": "no",
          "contactless": "yes",
          "girocard": "yes"
        }
      }
    },
    {
      "type": "Feature",
      "geometry": {
        "type": "Point",
        "coordinates": [
          9.980715,
          48.3946478
        ]
      },
      "properties": {
        "id": "tk_ul_osm_n1054349832",
        "name": "Kiosk",
        "address": {},
        "sources": [
          {
            "type": "osm",
            "id": "node/1054349832",
            "version": 0
          }
        ],
        "created": "2026-05-21",
        "updated": "2026-06-15",
        "hours": {
          "raw": "Mo-Fr 06:00-18:00; Sa 08:00-12:00"
        },
        "tags": [
          "barrierefrei"
        ],
        "sources_by_field": {
          "name": "osm",
          "hours": "osm"
        },
        "apple_id_attempted": "2026-05-25",
        "google_attempted": "2026-05-25",
        "payment": {}
      }
    },
    {
      "type": "Feature",
      "geometry": {
        "type": "Point",
        "coordinates": [
          9.972885,
          48.4007003
        ]
      },
      "properties": {
        "id": "tk_ul_osm_n12049695777",
        "name": "Finkbeiner",
        "address": {
          "street": "Beim B'scheid",
          "number": "8",
          "postalcode": "89077",
          "city": "Ulm"
        },
        "sources": [
          {
            "type": "osm",
            "id": "node/12049695777",
            "version": 0
          }
        ],
        "created": "2026-05-21",
        "updated": "2026-06-15",
        "hours": {
          "raw": "Mo-Sa 08:00-20:00"
        },
        "payment": {
          "cash": "unknown",
          "cards": "yes",
          "contactless": "unknown",
          "girocard": "unknown"
        },
        "sources_by_field": {
          "name": "osm",
          "address.street": "osm",
          "address.number": "osm",
          "address.postalcode": "osm",
          "address.city": "osm",
          "hours": "osm",
          "payment.cash": "osm",
          "payment.cards": "osm",
          "payment.contactless": "osm",
          "payment.girocard": "osm"
        },
        "apple_id_attempted": "2026-05-25"
      }
    },
    {
      "type": "Feature",
      "geometry": {
        "type": "Point",
        "coordinates": [
          9.9883988,
          48.3969936
        ]
      },
      "properties": {
        "id": "tk_ul_osm_n12801095078",
        "name": "Kabul Kiosk",
        "address": {},
        "sources": [
          {
            "type": "osm",
            "id": "node/12801095078",
            "version": 0
          }
        ],
        "created": "2026-05-21",
        "updated": "2026-06-15",
        "hours": {
          "raw": "Mo-Th 10:00-23:00; Fr,Sa 10:00-03:00"
        },
        "payment": {
          "cash": "unknown",
          "cards": "yes",
          "contactless": "unknown",
          "girocard": "unknown"
        },
        "sources_by_field": {
          "name": "osm",
          "hours": "osm",
          "payment.cash": "osm",
          "payment.cards": "osm",
          "payment.contactless": "osm",
          "payment.girocard": "osm"
        },
        "apple_id_attempted": "2026-05-25"
      }
    },
    {
      "type": "Feature",
      "geometry": {
        "type": "Point",
        "coordinates": [
          9.9708997,
          48.3593427
        ]
      },
      "properties": {
        "id": "tk_ul_osm_n1462452607",
        "name": "Finkbeiner",
        "address": {},
        "sources": [
          {
            "type": "osm",
            "id": "node/1462452607",
            "version": 0
          }
        ],
        "created": "2026-05-21",
        "updated": "2026-06-15",
        "hours": {
          "raw": "Mo-Sa 08:00-20:00"
        },
        "payment": {
          "cash": "unknown",
          "cards": "yes",
          "contactless": "unknown",
          "girocard": "unknown"
        },
        "tags": [
          "barrierefrei"
        ],
        "sources_by_field": {
          "name": "osm",
          "hours": "osm",
          "payment.cash": "osm",
          "payment.cards": "osm",
          "payment.contactless": "osm",
          "payment.girocard": "osm"
        },
        "apple_id_attempted": "2026-05-25"
      }
    },
    {
      "type": "Feature",
      "geometry": {
        "type": "Point",
        "coordinates": [
          10.0388678,
          48.4096617
        ]
      },
      "properties": {
        "id": "tk_ul_osm_n1649600451",
        "name": "Samurai",
        "address": {},
        "sources": [
          {
            "type": "osm",
            "id": "node/1649600451",
            "version": 0
          }
        ],
        "created": "2026-05-21",
        "updated": "2026-06-15",
        "hours": {
          "raw": "Mo-Sa 07:00-19:00,07:00-19:00"
        },
        "sources_by_field": {
          "name": "osm",
          "hours": "osm"
        },
        "apple_id_attempted": "2026-05-25",
        "google_attempted": "2026-05-25",
        "payment": {}
      }
    },
    {
      "type": "Feature",
      "geometry": {
        "type": "Point",
        "coordinates": [
          10.0147481,
          48.4277438
        ]
      },
      "properties": {
        "id": "tk_ul_osm_n269186776",
        "name": "Toto Lotto Tabak Kaplan",
        "address": {},
        "sources": [
          {
            "type": "osm",
            "id": "node/269186776",
            "version": 0
          }
        ],
        "created": "2026-05-21",
        "updated": "2026-06-15",
        "hours": {
          "raw": "Mo-Fr 15:00-18:00; Sa 09:00-12:00"
        },
        "sources_by_field": {
          "name": "osm",
          "hours": "osm"
        },
        "apple_id_attempted": "2026-05-25",
        "google_attempted": "2026-05-25",
        "payment": {}
      }
    },
    {
      "type": "Feature",
      "geometry": {
        "type": "Point",
        "coordinates": [
          9.9920282,
          48.4003936
        ]
      },
      "properties": {
        "id": "tk_ul_osm_n2698021371",
        "name": "Rosebottel (Concept Store)",
        "address": {
          "street": "Herrenkellergasse",
          "number": "15",
          "postalcode": "89073",
          "city": "Ulm"
        },
        "sources": [
          {
            "type": "osm",
            "id": "node/2698021371",
            "version": 0
          }
        ],
        "created": "2026-05-21",
        "updated": "2026-06-15",
        "hours": {
          "raw": "Sa 09:30-18:00; Tu-Fr 11:00-18:00"
        },
        "payment": {
          "cash": "no",
          "cards": "yes",
          "contactless": "unknown",
          "girocard": "unknown"
        },
        "sources_by_field": {
          "name": "osm",
          "address.street": "osm",
          "address.number": "osm",
          "address.postalcode": "osm",
          "address.city": "osm",
          "hours": "osm",
          "payment.cash": "osm",
          "payment.cards": "osm",
          "payment.contactless": "osm",
          "payment.girocard": "osm"
        },
        "apple_id_attempted": "2026-05-25"
      }
    },
    {
      "type": "Feature",
      "geometry": {
        "type": "Point",
        "coordinates": [
          9.9894191,
          48.4003182
        ]
      },
      "properties": {
        "id": "tk_ul_osm_n2827494070",
        "name": "eSmoking-Shop",
        "address": {},
        "sources": [
          {
            "type": "osm",
            "id": "node/2827494070",
            "version": 0
          }
        ],
        "created": "2026-05-21",
        "updated": "2026-06-15",
        "hours": {
          "raw": "Mo-Sa 11:00-19:00"
        },
        "payment": {
          "cash": "unknown",
          "cards": "yes",
          "contactless": "unknown",
          "girocard": "unknown"
        },
        "sources_by_field": {
          "name": "osm",
          "hours": "osm",
          "payment.cash": "osm",
          "payment.cards": "osm",
          "payment.contactless": "osm",
          "payment.girocard": "osm"
        },
        "apple_id_attempted": "2026-05-25"
      }
    },
    {
      "type": "Feature",
      "geometry": {
        "type": "Point",
        "coordinates": [
          9.9673073,
          48.4085251
        ]
      },
      "properties": {
        "id": "tk_ul_osm_n287749129",
        "name": "Dany's Shop",
        "address": {
          "street": "Stifterweg",
          "number": "5",
          "postalcode": "89075",
          "city": "Ulm"
        },
        "sources": [
          {
            "type": "osm",
            "id": "node/287749129",
            "version": 0
          }
        ],
        "created": "2026-05-21",
        "updated": "2026-06-15",
        "hours": {
          "raw": "Mo-Fr 10:00-18:00; Sa 10:00-12:00"
        },
        "payment": {
          "cash": "unknown",
          "cards": "yes",
          "contactless": "unknown",
          "girocard": "unknown"
        },
        "sources_by_field": {
          "name": "osm",
          "address.street": "osm",
          "address.number": "osm",
          "address.postalcode": "osm",
          "address.city": "osm",
          "hours": "osm",
          "payment.cash": "osm",
          "payment.cards": "osm",
          "payment.contactless": "osm",
          "payment.girocard": "osm"
        },
        "apple_id_attempted": "2026-05-25"
      }
    },
    {
      "type": "Feature",
      "geometry": {
        "type": "Point",
        "coordinates": [
          10.0142808,
          48.3688363
        ]
      },
      "properties": {
        "id": "tk_ul_osm_n6857126120",
        "name": "Bobbi's Shop",
        "address": {},
        "sources": [
          {
            "type": "osm",
            "id": "node/6857126120",
            "version": 0
          }
        ],
        "created": "2026-05-21",
        "updated": "2026-06-15",
        "hours": {
          "raw": "Mo-Fr 08:00-12:30, 14:00-18:00; Sa 08:00-13:00"
        },
        "sources_by_field": {
          "name": "osm",
          "hours": "osm"
        },
        "apple_id_attempted": "2026-05-25",
        "google_attempted": "2026-05-25",
        "payment": {}
      }
    },
    {
      "type": "Feature",
      "geometry": {
        "type": "Point",
        "coordinates": [
          10.1213615,
          48.4290851
        ]
      },
      "properties": {
        "id": "tk_ul_osm_n942391477",
        "name": "Finkbeiner",
        "address": {
          "street": "Dorfstraße",
          "number": "1",
          "postalcode": "89278",
          "city": "Nersingen"
        },
        "sources": [
          {
            "type": "osm",
            "id": "node/942391477",
            "version": 0
          }
        ],
        "created": "2026-05-21",
        "updated": "2026-06-15",
        "hours": {
          "raw": "Mo-Fr 08:00-20:00; Sa 08:00-18:00"
        },
        "payment": {
          "cash": "unknown",
          "cards": "yes",
          "contactless": "unknown",
          "girocard": "unknown"
        },
        "tags": [
          "barrierefrei"
        ],
        "sources_by_field": {
          "name": "osm",
          "address.street": "osm",
          "address.number": "osm",
          "address.postalcode": "osm",
          "address.city": "osm",
          "hours": "osm",
          "payment.cash": "osm",
          "payment.cards": "osm",
          "payment.contactless": "osm",
          "payment.girocard": "osm"
        },
        "apple_id_attempted": "2026-05-25"
      }
    },
    {
      "type": "Feature",
      "geometry": {
        "type": "Point",
        "coordinates": [
          9.9901778,
          48.3979003
        ]
      },
      "properties": {
        "id": "tk_ul_osm_w109761175",
        "name": "Kiosk",
        "address": {},
        "sources": [
          {
            "type": "osm",
            "id": "way/109761175",
            "version": 0
          }
        ],
        "created": "2026-05-21",
        "updated": "2026-06-15",
        "hours": {
          "raw": "We 08:00-18:00; Th,Fr 09:00-18:00; Sa 08:00-16:00"
        },
        "sources_by_field": {
          "name": "osm",
          "hours": "osm"
        },
        "apple_id_attempted": "2026-05-25",
        "google_attempted": "2026-05-25",
        "payment": {}
      }
    },
    {
      "type": "Feature",
      "geometry": {
        "type": "Point",
        "coordinates": [
          10.0198352,
          48.3992877
        ]
      },
      "properties": {
        "id": "tk_ul_osm_w121541587",
        "name": "Finkbeiner",
        "address": {
          "street": "Schwabenstraße",
          "number": "60",
          "postalcode": "89231",
          "city": "Neu-Ulm"
        },
        "sources": [
          {
            "type": "osm",
            "id": "way/121541587",
            "version": 0
          }
        ],
        "created": "2026-05-21",
        "updated": "2026-06-15",
        "hours": {
          "raw": "Mo-Fr 09:00-12:30, 14:00-19:00; Sa 08:00-14:00"
        },
        "sources_by_field": {
          "name": "osm",
          "address.street": "osm",
          "address.number": "osm",
          "address.postalcode": "osm",
          "address.city": "osm",
          "hours": "osm"
        },
        "apple_id_attempted": "2026-05-25",
        "google_attempted": "2026-05-25",
        "payment": {}
      }
    },
    {
      "type": "Feature",
      "geometry": {
        "type": "Point",
        "coordinates": [
          9.983668,
          48.4821244
        ]
      },
      "properties": {
        "id": "tk_ul_osm_w122450387",
        "name": "Finkbeiner",
        "address": {
          "street": "Bahnhofstraße",
          "number": "8",
          "postalcode": "89179",
          "city": "Beimerstetten"
        },
        "sources": [
          {
            "type": "osm",
            "id": "way/122450387",
            "version": 0
          }
        ],
        "created": "2026-05-21",
        "updated": "2026-06-15",
        "hours": {
          "raw": "Mo-Fr 08:30-12:30,14:00-19:00; Sa 08:00-16:00"
        },
        "tags": [
          "barrierefrei"
        ],
        "sources_by_field": {
          "name": "osm",
          "address.street": "osm",
          "address.number": "osm",
          "address.postalcode": "osm",
          "address.city": "osm",
          "hours": "osm"
        },
        "apple_id_attempted": "2026-05-25",
        "google_attempted": "2026-05-25",
        "payment": {}
      }
    },
    {
      "type": "Feature",
      "geometry": {
        "type": "Point",
        "coordinates": [
          9.9778871,
          48.389092
        ]
      },
      "properties": {
        "id": "tk_ul_osm_w169881593",
        "name": "Aral",
        "address": {
          "street": "Illerstraße",
          "number": "2",
          "postalcode": "89077",
          "city": "Ulm"
        },
        "sources": [
          {
            "type": "osm",
            "id": "way/169881593",
            "version": 0
          }
        ],
        "created": "2026-05-21",
        "updated": "2026-06-15",
        "hours": {
          "raw": "24/7"
        },
        "payment": {
          "cash": "yes",
          "cards": "unknown",
          "contactless": "unknown",
          "girocard": "yes"
        },
        "tags": [
          "barrierefrei"
        ],
        "sources_by_field": {
          "name": "osm",
          "address.street": "osm",
          "address.number": "osm",
          "address.postalcode": "osm",
          "address.city": "osm",
          "hours": "osm",
          "payment.cash": "osm",
          "payment.cards": "osm",
          "payment.contactless": "osm",
          "payment.girocard": "osm"
        },
        "apple_id_attempted": "2026-05-25"
      }
    },
    {
      "type": "Feature",
      "geometry": {
        "type": "Point",
        "coordinates": [
          10.0042102,
          48.3925723
        ]
      },
      "properties": {
        "id": "tk_ul_osm_w186545311",
        "name": "ServiceStore DB",
        "address": {
          "street": "Julius-Rohm-Platz",
          "number": "1",
          "postalcode": "89231",
          "city": "Neu-Ulm"
        },
        "sources": [
          {
            "type": "osm",
            "id": "way/186545311",
            "version": 0
          }
        ],
        "created": "2026-05-21",
        "updated": "2026-06-15",
        "hours": {
          "raw": "Mo-Fr 05:00-18:30; Sa,Su 11:00-16:00"
        },
        "tags": [
          "barrierefrei"
        ],
        "sources_by_field": {
          "name": "osm",
          "address.street": "osm",
          "address.number": "osm",
          "address.postalcode": "osm",
          "address.city": "osm",
          "hours": "osm"
        },
        "apple_id_attempted": "2026-05-25",
        "google_attempted": "2026-05-25",
        "payment": {}
      }
    },
    {
      "type": "Feature",
      "geometry": {
        "type": "Point",
        "coordinates": [
          10.0892277,
          48.3207224
        ]
      },
      "properties": {
        "id": "tk_ul_osm_w218662137",
        "name": "Kiosk",
        "address": {},
        "sources": [
          {
            "type": "osm",
            "id": "way/218662137",
            "version": 0
          }
        ],
        "created": "2026-05-21",
        "updated": "2026-06-15",
        "sources_by_field": {
          "name": "osm"
        },
        "apple_id_attempted": "2026-05-25",
        "google_attempted": "2026-05-25",
        "payment": {}
      }
    },
    {
      "type": "Feature",
      "geometry": {
        "type": "Point",
        "coordinates": [
          10.0334154,
          48.38736
        ]
      },
      "properties": {
        "id": "tk_ul_osm_w623121764",
        "name": "Shell",
        "address": {
          "street": "Europastraße",
          "number": "44",
          "postalcode": "89231",
          "city": "Neu-Ulm"
        },
        "sources": [
          {
            "type": "osm",
            "id": "way/623121764",
            "version": 0
          }
        ],
        "created": "2026-05-21",
        "updated": "2026-06-15",
        "hours": {
          "raw": "24/7"
        },
        "payment": {
          "cash": "unknown",
          "cards": "unknown",
          "contactless": "unknown",
          "girocard": "yes"
        },
        "tags": [
          "barrierefrei",
          "wc"
        ],
        "sources_by_field": {
          "name": "osm",
          "address.street": "osm",
          "address.number": "osm",
          "address.postalcode": "osm",
          "address.city": "osm",
          "hours": "osm",
          "payment.cash": "osm",
          "payment.cards": "osm",
          "payment.contactless": "osm",
          "payment.girocard": "osm"
        },
        "apple_id_attempted": "2026-05-25"
      }
    }
  ]
}
