{
  "type": "FeatureCollection",
  "features": [
    {
      "type": "Feature",
      "geometry": {
        "type": "Point",
        "coordinates": [
          7.6033162,
          50.3758001
        ]
      },
      "properties": {
        "id": "tk_ko_osm_n10064627054",
        "name": "Kiosk 60",
        "address": {
          "street": "Herberichstraße",
          "number": "60",
          "postalcode": "56070",
          "city": "Koblenz"
        },
        "sources": [
          {
            "type": "osm",
            "id": "node/10064627054",
            "version": 0
          },
          {
            "type": "gmaps",
            "id": "payment"
          }
        ],
        "created": "2026-05-21",
        "updated": "2026-05-21",
        "hours": {
          "raw": "Mo-Fr 07:00-22:00"
        },
        "payment": {
          "girocard": "yes",
          "cards": "yes",
          "contactless": "yes"
        }
      }
    },
    {
      "type": "Feature",
      "geometry": {
        "type": "Point",
        "coordinates": [
          7.5277295,
          50.3954399
        ]
      },
      "properties": {
        "id": "tk_ko_osm_n10753208656",
        "name": "DGS Getränkemarkt",
        "address": {
          "street": "Industriestraße",
          "number": "24",
          "postalcode": "56218",
          "city": "Mülheim-Kärlich"
        },
        "sources": [
          {
            "type": "osm",
            "id": "node/10753208656",
            "version": 0
          },
          {
            "type": "gmaps",
            "id": "payment"
          }
        ],
        "created": "2026-05-21",
        "updated": "2026-05-21",
        "hours": {
          "raw": "Mo-Fr 09:00-19:00; Sa 08:00-17:00"
        },
        "payment": {
          "cards": "no",
          "girocard": "yes",
          "contactless": "yes"
        }
      }
    },
    {
      "type": "Feature",
      "geometry": {
        "type": "Point",
        "coordinates": [
          7.4610562,
          50.4279297
        ]
      },
      "properties": {
        "id": "tk_ko_osm_n11244198698",
        "name": "HAPPYMAT24",
        "address": {},
        "sources": [
          {
            "type": "osm",
            "id": "node/11244198698",
            "version": 0
          },
          {
            "type": "gmaps",
            "id": "payment"
          }
        ],
        "created": "2026-05-21",
        "updated": "2026-05-21",
        "payment": {
          "cards": "no",
          "girocard": "yes",
          "contactless": "yes"
        }
      }
    },
    {
      "type": "Feature",
      "geometry": {
        "type": "Point",
        "coordinates": [
          7.4661876,
          50.4349451
        ]
      },
      "properties": {
        "id": "tk_ko_osm_n11244227779",
        "name": "Kiosk 67",
        "address": {},
        "sources": [
          {
            "type": "osm",
            "id": "node/11244227779",
            "version": 0
          },
          {
            "type": "gmaps",
            "id": "payment"
          }
        ],
        "created": "2026-05-21",
        "updated": "2026-05-21",
        "payment": {
          "cards": "yes",
          "girocard": "yes"
        }
      }
    },
    {
      "type": "Feature",
      "geometry": {
        "type": "Point",
        "coordinates": [
          7.5920829,
          50.3613855
        ]
      },
      "properties": {
        "id": "tk_ko_osm_n11361065434",
        "name": "TwentyOne Drinks and More",
        "address": {
          "street": "Weißer Gasse",
          "number": "9-11",
          "postalcode": "56068",
          "city": "Koblenz"
        },
        "sources": [
          {
            "type": "osm",
            "id": "node/11361065434",
            "version": 0
          }
        ],
        "created": "2026-05-21",
        "updated": "2026-05-21",
        "hours": {
          "raw": "Tu-Th 14:00-22:00, Fr 14:00-01:00, Sa 14:00-01:00, Su 15:00-22:00"
        },
        "payment": {
          "cash": "yes",
          "cards": "unknown",
          "contactless": "unknown",
          "girocard": "unknown",
          "mobile": "unknown"
        }
      }
    },
    {
      "type": "Feature",
      "geometry": {
        "type": "Point",
        "coordinates": [
          7.5949774,
          50.3580693
        ]
      },
      "properties": {
        "id": "tk_ko_osm_n11361106635",
        "name": "Zana Kiosk & Internet Cafe",
        "address": {
          "street": "Viktoriastraße",
          "number": "6",
          "postalcode": "56068",
          "city": "Koblenz"
        },
        "sources": [
          {
            "type": "osm",
            "id": "node/11361106635",
            "version": 0
          }
        ],
        "created": "2026-05-21",
        "updated": "2026-05-21",
        "payment": {
          "cash": "yes",
          "cards": "unknown",
          "contactless": "unknown",
          "girocard": "unknown",
          "mobile": "unknown"
        }
      }
    },
    {
      "type": "Feature",
      "geometry": {
        "type": "Point",
        "coordinates": [
          7.5706613,
          50.3419437
        ]
      },
      "properties": {
        "id": "tk_ko_osm_n11548013411",
        "name": "REWE Getränkemarkt",
        "address": {},
        "sources": [
          {
            "type": "osm",
            "id": "node/11548013411",
            "version": 0
          },
          {
            "type": "gmaps",
            "id": "payment"
          }
        ],
        "created": "2026-05-21",
        "updated": "2026-05-21",
        "hours": {
          "raw": "Mo-Sa 08:00-20:00"
        },
        "tags": [
          "barrierefrei"
        ],
        "payment": {
          "cards": "no",
          "girocard": "yes",
          "contactless": "yes"
        }
      }
    },
    {
      "type": "Feature",
      "geometry": {
        "type": "Point",
        "coordinates": [
          7.6152676,
          50.3670017
        ]
      },
      "properties": {
        "id": "tk_ko_osm_n12133750910",
        "name": "Kiosk an der Bergstation",
        "address": {},
        "sources": [
          {
            "type": "osm",
            "id": "node/12133750910",
            "version": 0
          }
        ],
        "created": "2026-05-21",
        "updated": "2026-05-21"
      }
    },
    {
      "type": "Feature",
      "geometry": {
        "type": "Point",
        "coordinates": [
          7.6013988,
          50.3602271
        ]
      },
      "properties": {
        "id": "tk_ko_osm_n12258770471",
        "name": "Kiosk Seven",
        "address": {
          "street": "Rheinstraße",
          "number": "30",
          "postalcode": "56068",
          "city": "Koblenz"
        },
        "sources": [
          {
            "type": "osm",
            "id": "node/12258770471",
            "version": 0
          },
          {
            "type": "gmaps",
            "id": "payment"
          }
        ],
        "created": "2026-05-21",
        "updated": "2026-05-21",
        "hours": {
          "raw": "Mo-Th 10:00-22:00; Fr,Sa 10:00-23:00; Su 10:00-20:00"
        },
        "payment": {
          "cards": "no",
          "girocard": "yes",
          "contactless": "yes"
        }
      }
    },
    {
      "type": "Feature",
      "geometry": {
        "type": "Point",
        "coordinates": [
          7.5889175,
          50.3452295
        ]
      },
      "properties": {
        "id": "tk_ko_osm_n12443569105",
        "name": "Streubel - Der Laden",
        "address": {
          "postalcode": "56068"
        },
        "sources": [
          {
            "type": "osm",
            "id": "node/12443569105",
            "version": 0
          }
        ],
        "created": "2026-05-21",
        "updated": "2026-05-21",
        "hours": {
          "raw": "Mo-Fr 07:00-18:00; Sa 07:00-14:00"
        },
        "payment": {
          "cash": "yes",
          "cards": "yes",
          "contactless": "unknown",
          "girocard": "unknown",
          "mobile": "unknown"
        }
      }
    },
    {
      "type": "Feature",
      "geometry": {
        "type": "Point",
        "coordinates": [
          7.6047166,
          50.3599393
        ]
      },
      "properties": {
        "id": "tk_ko_osm_n12694873232",
        "name": "TM Shop",
        "address": {},
        "sources": [
          {
            "type": "osm",
            "id": "node/12694873232",
            "version": 0
          },
          {
            "type": "gmaps",
            "id": "payment"
          }
        ],
        "created": "2026-05-21",
        "updated": "2026-05-21",
        "payment": {
          "cards": "no",
          "girocard": "yes"
        }
      }
    },
    {
      "type": "Feature",
      "geometry": {
        "type": "Point",
        "coordinates": [
          7.6055371,
          50.3619894
        ]
      },
      "properties": {
        "id": "tk_ko_osm_n12694883634",
        "name": "Eis & Getränke",
        "address": {},
        "sources": [
          {
            "type": "osm",
            "id": "node/12694883634",
            "version": 0
          }
        ],
        "created": "2026-05-21",
        "updated": "2026-05-21"
      }
    },
    {
      "type": "Feature",
      "geometry": {
        "type": "Point",
        "coordinates": [
          7.4585246,
          50.4301933
        ]
      },
      "properties": {
        "id": "tk_ko_osm_n12762497218",
        "name": "Jan's Kiosk",
        "address": {},
        "sources": [
          {
            "type": "osm",
            "id": "node/12762497218",
            "version": 0
          },
          {
            "type": "gmaps",
            "id": "payment"
          }
        ],
        "created": "2026-05-21",
        "updated": "2026-05-21",
        "payment": {
          "cards": "yes",
          "girocard": "yes"
        }
      }
    },
    {
      "type": "Feature",
      "geometry": {
        "type": "Point",
        "coordinates": [
          7.5497363,
          50.3458751
        ]
      },
      "properties": {
        "id": "tk_ko_osm_n13011186580",
        "name": "Weingut Spurzem",
        "address": {
          "street": "Am Zehnthof",
          "number": "120"
        },
        "sources": [
          {
            "type": "osm",
            "id": "node/13011186580",
            "version": 0
          },
          {
            "type": "gmaps",
            "id": "payment"
          }
        ],
        "created": "2026-05-21",
        "updated": "2026-05-21",
        "hours": {
          "raw": "Mo-Fr 10:00-13:00, 14:00-18:00; Sa 10:00-13:00"
        },
        "payment": {
          "cards": "no",
          "girocard": "yes",
          "contactless": "yes"
        }
      }
    },
    {
      "type": "Feature",
      "geometry": {
        "type": "Point",
        "coordinates": [
          7.591675,
          50.3566068
        ]
      },
      "properties": {
        "id": "tk_ko_osm_n13020584409",
        "name": "Koblenz Kiosk",
        "address": {},
        "sources": [
          {
            "type": "osm",
            "id": "node/13020584409",
            "version": 0
          },
          {
            "type": "gmaps",
            "id": "payment"
          }
        ],
        "created": "2026-05-21",
        "updated": "2026-05-21",
        "payment": {
          "cards": "no",
          "girocard": "yes"
        }
      }
    },
    {
      "type": "Feature",
      "geometry": {
        "type": "Point",
        "coordinates": [
          7.5923346,
          50.3573941
        ]
      },
      "properties": {
        "id": "tk_ko_osm_n13190979311",
        "name": "Kiosk Bilal",
        "address": {},
        "sources": [
          {
            "type": "osm",
            "id": "node/13190979311",
            "version": 0
          }
        ],
        "created": "2026-05-21",
        "updated": "2026-05-21"
      }
    },
    {
      "type": "Feature",
      "geometry": {
        "type": "Point",
        "coordinates": [
          7.5876664,
          50.3444698
        ]
      },
      "properties": {
        "id": "tk_ko_osm_n13290693458",
        "name": "Edeka-Aktiv-Markt Kreuzberg",
        "address": {
          "street": "Hohenzollernstraße",
          "number": "126-128",
          "postalcode": "56068",
          "city": "Koblenz"
        },
        "sources": [
          {
            "type": "osm",
            "id": "node/13290693458",
            "version": 0
          },
          {
            "type": "gmaps",
            "id": "payment"
          }
        ],
        "created": "2026-05-21",
        "updated": "2026-05-21",
        "hours": {
          "raw": "Mo-Sa 07:00-21:00"
        },
        "tags": [
          "barrierefrei"
        ],
        "payment": {
          "cards": "no",
          "girocard": "yes",
          "contactless": "yes"
        }
      }
    },
    {
      "type": "Feature",
      "geometry": {
        "type": "Point",
        "coordinates": [
          7.5946855,
          50.3685077
        ]
      },
      "properties": {
        "id": "tk_ko_osm_n13329967358",
        "name": "3 Bro's",
        "address": {
          "street": "Andernacher Straße",
          "number": "46",
          "postalcode": "56070",
          "city": "Koblenz"
        },
        "sources": [
          {
            "type": "osm",
            "id": "node/13329967358",
            "version": 0
          }
        ],
        "created": "2026-05-21",
        "updated": "2026-05-21"
      }
    },
    {
      "type": "Feature",
      "geometry": {
        "type": "Point",
        "coordinates": [
          7.4620557,
          50.4304397
        ]
      },
      "properties": {
        "id": "tk_ko_osm_n13710569995",
        "name": "City Kiosk",
        "address": {},
        "sources": [
          {
            "type": "osm",
            "id": "node/13710569995",
            "version": 0
          }
        ],
        "created": "2026-05-21",
        "updated": "2026-05-21"
      }
    },
    {
      "type": "Feature",
      "geometry": {
        "type": "Point",
        "coordinates": [
          7.4598381,
          50.3066328
        ]
      },
      "properties": {
        "id": "tk_ko_osm_n13817675098",
        "name": "REWE Getränkemarkt",
        "address": {
          "street": "Bahnhofstraße",
          "number": "8"
        },
        "sources": [
          {
            "type": "osm",
            "id": "node/13817675098",
            "version": 0
          },
          {
            "type": "gmaps",
            "id": "payment"
          }
        ],
        "created": "2026-05-21",
        "updated": "2026-05-21",
        "hours": {
          "raw": "Mo-Sa 07:00-22:00"
        },
        "tags": [
          "wc"
        ],
        "payment": {
          "cards": "yes",
          "girocard": "yes",
          "contactless": "yes"
        }
      }
    },
    {
      "type": "Feature",
      "geometry": {
        "type": "Point",
        "coordinates": [
          7.4584262,
          50.3013933
        ]
      },
      "properties": {
        "id": "tk_ko_osm_n13820165464",
        "name": "Getränkehandel Gilberg",
        "address": {},
        "sources": [
          {
            "type": "osm",
            "id": "node/13820165464",
            "version": 0
          },
          {
            "type": "gmaps",
            "id": "payment"
          }
        ],
        "created": "2026-05-21",
        "updated": "2026-05-21",
        "payment": {
          "girocard": "yes",
          "cards": "yes"
        }
      }
    },
    {
      "type": "Feature",
      "geometry": {
        "type": "Point",
        "coordinates": [
          7.6824247,
          50.3384764
        ]
      },
      "properties": {
        "id": "tk_ko_osm_n1519504807",
        "name": "Crezelius",
        "address": {
          "street": "Brückenstraße",
          "number": "11",
          "postalcode": "56132",
          "city": "Nievern"
        },
        "sources": [
          {
            "type": "osm",
            "id": "node/1519504807",
            "version": 0
          }
        ],
        "created": "2026-05-21",
        "updated": "2026-05-21",
        "hours": {
          "raw": "Mo 07:00-12:30,15:00-18:00; Tu 07:00-12:30; We-Fr 07:00-12:30,15:00-18:00; Sa 07:30-12:30"
        }
      }
    },
    {
      "type": "Feature",
      "geometry": {
        "type": "Point",
        "coordinates": [
          7.5713469,
          50.4362695
        ]
      },
      "properties": {
        "id": "tk_ko_osm_n2094810166",
        "name": "Leitzbach",
        "address": {
          "street": "Koblenz-Olper-Straße",
          "number": "85",
          "postalcode": "56170",
          "city": "Bendorf"
        },
        "sources": [
          {
            "type": "osm",
            "id": "node/2094810166",
            "version": 0
          }
        ],
        "created": "2026-05-21",
        "updated": "2026-05-21",
        "hours": {
          "raw": "Mo-Fr 06:30-19:30, Sa 08:00-14:00, PH Su 10:00-18:00"
        }
      }
    },
    {
      "type": "Feature",
      "geometry": {
        "type": "Point",
        "coordinates": [
          7.5825217,
          50.3608862
        ]
      },
      "properties": {
        "id": "tk_ko_osm_n2127248090",
        "name": "Kiosk & Hermes Shop",
        "address": {
          "street": "Moselweißer Straße",
          "number": "34a"
        },
        "sources": [
          {
            "type": "osm",
            "id": "node/2127248090",
            "version": 0
          }
        ],
        "created": "2026-05-21",
        "updated": "2026-05-21",
        "hours": {
          "raw": "Mo-Fr 07:00-18:00; Sa 08:00-14:00"
        }
      }
    },
    {
      "type": "Feature",
      "geometry": {
        "type": "Point",
        "coordinates": [
          7.5064223,
          50.3468965
        ]
      },
      "properties": {
        "id": "tk_ko_osm_n266696667",
        "name": "Shell Autohof",
        "address": {
          "street": "Am Rübenacher Wald",
          "number": "2",
          "postalcode": "56072",
          "city": "Koblenz"
        },
        "sources": [
          {
            "type": "osm",
            "id": "node/266696667",
            "version": 0
          }
        ],
        "created": "2026-05-21",
        "updated": "2026-05-21",
        "hours": {
          "raw": "24/7"
        },
        "tags": [
          "barrierefrei"
        ]
      }
    },
    {
      "type": "Feature",
      "geometry": {
        "type": "Point",
        "coordinates": [
          7.5900666,
          50.3474106
        ]
      },
      "properties": {
        "id": "tk_ko_osm_n2881463742",
        "name": "Ralf Stürmer Tabakwaren",
        "address": {
          "street": "Hohenzollernstraße",
          "number": "78",
          "postalcode": "56068",
          "city": "Koblenz"
        },
        "sources": [
          {
            "type": "osm",
            "id": "node/2881463742",
            "version": 0
          },
          {
            "type": "gmaps",
            "id": "payment"
          }
        ],
        "created": "2026-05-21",
        "updated": "2026-05-21",
        "payment": {
          "girocard": "yes",
          "cards": "yes"
        }
      }
    },
    {
      "type": "Feature",
      "geometry": {
        "type": "Point",
        "coordinates": [
          7.5761703,
          50.3637252
        ]
      },
      "properties": {
        "id": "tk_ko_osm_n3064035847",
        "name": "HIT Getränkemarkt",
        "address": {
          "street": "Schlachthofstraße",
          "number": "66",
          "postalcode": "56073",
          "city": "Koblenz"
        },
        "sources": [
          {
            "type": "osm",
            "id": "node/3064035847",
            "version": 0
          }
        ],
        "created": "2026-05-21",
        "updated": "2026-05-21",
        "hours": {
          "raw": "Mo-Sa 08:00-21:00"
        },
        "payment": {
          "cash": "yes",
          "cards": "yes",
          "contactless": "unknown",
          "girocard": "unknown",
          "mobile": "unknown"
        },
        "tags": [
          "barrierefrei"
        ]
      }
    },
    {
      "type": "Feature",
      "geometry": {
        "type": "Point",
        "coordinates": [
          7.5193226,
          50.3119335
        ]
      },
      "properties": {
        "id": "tk_ko_osm_n3352608322",
        "name": "Moselkiosk",
        "address": {},
        "sources": [
          {
            "type": "osm",
            "id": "node/3352608322",
            "version": 0
          }
        ],
        "created": "2026-05-21",
        "updated": "2026-05-21"
      }
    },
    {
      "type": "Feature",
      "geometry": {
        "type": "Point",
        "coordinates": [
          7.5477348,
          50.3446207
        ]
      },
      "properties": {
        "id": "tk_ko_osm_n345451293",
        "name": "REWE Getränkemarkt",
        "address": {},
        "sources": [
          {
            "type": "osm",
            "id": "node/345451293",
            "version": 0
          },
          {
            "type": "gmaps",
            "id": "payment"
          }
        ],
        "created": "2026-05-21",
        "updated": "2026-05-21",
        "hours": {
          "raw": "Mo-Fr 09:00-20:00; Sa 08:00-20:00"
        },
        "tags": [
          "barrierefrei"
        ],
        "payment": {
          "cards": "yes",
          "girocard": "yes",
          "contactless": "yes"
        }
      }
    },
    {
      "type": "Feature",
      "geometry": {
        "type": "Point",
        "coordinates": [
          7.594696,
          50.3609455
        ]
      },
      "properties": {
        "id": "tk_ko_osm_n3458177122",
        "name": "Habibi",
        "address": {
          "street": "An der Liebfrauenkirche",
          "number": "2",
          "postalcode": "56068",
          "city": "Koblenz"
        },
        "sources": [
          {
            "type": "osm",
            "id": "node/3458177122",
            "version": 0
          },
          {
            "type": "gmaps",
            "id": "payment"
          }
        ],
        "created": "2026-05-21",
        "updated": "2026-05-21",
        "hours": {
          "raw": "Mo-Sa 10:00-20:00; Su 10:00-20:00"
        },
        "payment": {
          "cards": "no",
          "girocard": "yes",
          "contactless": "yes"
        }
      }
    },
    {
      "type": "Feature",
      "geometry": {
        "type": "Point",
        "coordinates": [
          7.5195058,
          50.3959206
        ]
      },
      "properties": {
        "id": "tk_ko_osm_n3475742708",
        "name": "trinkgut",
        "address": {
          "street": "Industriestraße",
          "number": "45",
          "postalcode": "56218",
          "city": "Mülheim-Kärlich"
        },
        "sources": [
          {
            "type": "osm",
            "id": "node/3475742708",
            "version": 0
          }
        ],
        "created": "2026-05-21",
        "updated": "2026-05-21",
        "hours": {
          "raw": "Mo-Fr 09:00-19:00; Sa 08:00-18:00; PH off"
        },
        "payment": {
          "cash": "yes",
          "cards": "unknown",
          "contactless": "unknown",
          "girocard": "unknown",
          "mobile": "unknown"
        },
        "tags": [
          "barrierefrei"
        ]
      }
    },
    {
      "type": "Feature",
      "geometry": {
        "type": "Point",
        "coordinates": [
          7.4605872,
          50.4258963
        ]
      },
      "properties": {
        "id": "tk_ko_osm_n3659331097",
        "name": "Presse City Tabak Lotto",
        "address": {},
        "sources": [
          {
            "type": "osm",
            "id": "node/3659331097",
            "version": 0
          },
          {
            "type": "gmaps",
            "id": "payment"
          }
        ],
        "created": "2026-05-21",
        "updated": "2026-05-21",
        "payment": {
          "cards": "no",
          "girocard": "yes",
          "contactless": "yes"
        }
      }
    },
    {
      "type": "Feature",
      "geometry": {
        "type": "Point",
        "coordinates": [
          7.4596099,
          50.4295401
        ]
      },
      "properties": {
        "id": "tk_ko_osm_n3661237588",
        "name": "Tabak Unger",
        "address": {},
        "sources": [
          {
            "type": "osm",
            "id": "node/3661237588",
            "version": 0
          },
          {
            "type": "gmaps",
            "id": "payment"
          }
        ],
        "created": "2026-05-21",
        "updated": "2026-05-21",
        "payment": {
          "cards": "yes",
          "girocard": "yes",
          "contactless": "yes"
        }
      }
    },
    {
      "type": "Feature",
      "geometry": {
        "type": "Point",
        "coordinates": [
          7.5362241,
          50.425632
        ]
      },
      "properties": {
        "id": "tk_ko_osm_n3786119149",
        "name": "Getränke Reifferscheid Trinkbar",
        "address": {},
        "sources": [
          {
            "type": "osm",
            "id": "node/3786119149",
            "version": 0
          },
          {
            "type": "gmaps",
            "id": "payment"
          }
        ],
        "created": "2026-05-21",
        "updated": "2026-05-21",
        "tags": [
          "barrierefrei"
        ],
        "payment": {
          "cards": "no",
          "girocard": "yes",
          "contactless": "yes"
        }
      }
    },
    {
      "type": "Feature",
      "geometry": {
        "type": "Point",
        "coordinates": [
          7.646201,
          50.2529045
        ]
      },
      "properties": {
        "id": "tk_ko_osm_n4125103290",
        "name": "Weingut Matthias Müller",
        "address": {
          "street": "Mainzer Straße",
          "number": "45",
          "postalcode": "56322",
          "city": "Spay"
        },
        "sources": [
          {
            "type": "osm",
            "id": "node/4125103290",
            "version": 0
          },
          {
            "type": "gmaps",
            "id": "payment"
          }
        ],
        "created": "2026-05-21",
        "updated": "2026-05-21",
        "hours": {
          "raw": "Mo-Sa 08:00-19:00; Su 10:00-18:00"
        },
        "payment": {
          "cards": "no",
          "girocard": "yes",
          "contactless": "yes"
        }
      }
    },
    {
      "type": "Feature",
      "geometry": {
        "type": "Point",
        "coordinates": [
          7.550479,
          50.3644669
        ]
      },
      "properties": {
        "id": "tk_ko_osm_n4175903939",
        "name": "Metternicher Eck",
        "address": {},
        "sources": [
          {
            "type": "osm",
            "id": "node/4175903939",
            "version": 0
          },
          {
            "type": "gmaps",
            "id": "payment"
          }
        ],
        "created": "2026-05-21",
        "updated": "2026-05-21",
        "hours": {
          "raw": "Mo-Fr 06:00-19:00"
        },
        "payment": {
          "cards": "no",
          "girocard": "yes",
          "contactless": "yes"
        }
      }
    },
    {
      "type": "Feature",
      "geometry": {
        "type": "Point",
        "coordinates": [
          7.5936419,
          50.3624009
        ]
      },
      "properties": {
        "id": "tk_ko_osm_n4185575295",
        "name": "Snack Point",
        "address": {
          "postalcode": "56068",
          "city": "Koblenz"
        },
        "sources": [
          {
            "type": "osm",
            "id": "node/4185575295",
            "version": 0
          }
        ],
        "created": "2026-05-21",
        "updated": "2026-05-21",
        "payment": {
          "cash": "yes",
          "cards": "unknown",
          "contactless": "unknown",
          "girocard": "unknown",
          "mobile": "unknown"
        }
      }
    },
    {
      "type": "Feature",
      "geometry": {
        "type": "Point",
        "coordinates": [
          7.4628695,
          50.431973
        ]
      },
      "properties": {
        "id": "tk_ko_osm_n5222228606",
        "name": "Tabak Zeitschriften",
        "address": {},
        "sources": [
          {
            "type": "osm",
            "id": "node/5222228606",
            "version": 0
          }
        ],
        "created": "2026-05-21",
        "updated": "2026-05-21"
      }
    },
    {
      "type": "Feature",
      "geometry": {
        "type": "Point",
        "coordinates": [
          7.589648,
          50.3528874
        ]
      },
      "properties": {
        "id": "tk_ko_osm_n585246998",
        "name": "Vape 125",
        "address": {
          "street": "Löhrstraße",
          "number": "125"
        },
        "sources": [
          {
            "type": "osm",
            "id": "node/585246998",
            "version": 0
          },
          {
            "type": "gmaps",
            "id": "payment"
          }
        ],
        "created": "2026-05-21",
        "updated": "2026-05-21",
        "payment": {
          "cards": "yes",
          "girocard": "yes",
          "contactless": "yes"
        }
      }
    },
    {
      "type": "Feature",
      "geometry": {
        "type": "Point",
        "coordinates": [
          7.6035754,
          50.2990642
        ]
      },
      "properties": {
        "id": "tk_ko_osm_n618845825",
        "name": "KD",
        "address": {},
        "sources": [
          {
            "type": "osm",
            "id": "node/618845825",
            "version": 0
          }
        ],
        "created": "2026-05-21",
        "updated": "2026-05-21"
      }
    },
    {
      "type": "Feature",
      "geometry": {
        "type": "Point",
        "coordinates": [
          7.5792262,
          50.3598206
        ]
      },
      "properties": {
        "id": "tk_ko_osm_n660282708",
        "name": "Star Kiosk Habesha",
        "address": {
          "street": "Moselweißer Straße",
          "number": "66",
          "postalcode": "56073",
          "city": "Koblenz"
        },
        "sources": [
          {
            "type": "osm",
            "id": "node/660282708",
            "version": 0
          },
          {
            "type": "gmaps",
            "id": "payment"
          }
        ],
        "created": "2026-05-21",
        "updated": "2026-05-21",
        "hours": {
          "raw": "Mo-Fr 9:00-17:00; Sa 8:00-12:00"
        },
        "payment": {
          "cards": "no",
          "girocard": "yes",
          "contactless": "yes"
        }
      }
    },
    {
      "type": "Feature",
      "geometry": {
        "type": "Point",
        "coordinates": [
          7.6461927,
          50.3719694
        ]
      },
      "properties": {
        "id": "tk_ko_osm_n6764249458",
        "name": "Getränke Brühne",
        "address": {
          "street": "In den Sieben Morgen",
          "number": "23",
          "postalcode": "56077",
          "city": "Koblenz"
        },
        "sources": [
          {
            "type": "osm",
            "id": "node/6764249458",
            "version": 0
          },
          {
            "type": "gmaps",
            "id": "payment"
          }
        ],
        "created": "2026-05-21",
        "updated": "2026-05-21",
        "payment": {
          "cards": "yes",
          "girocard": "yes",
          "contactless": "yes"
        }
      }
    },
    {
      "type": "Feature",
      "geometry": {
        "type": "Point",
        "coordinates": [
          7.4626556,
          50.4132047
        ]
      },
      "properties": {
        "id": "tk_ko_osm_n6857552763",
        "name": "Lotto & Tabakwaren Gundert",
        "address": {
          "street": "Hauptstraße",
          "number": "5a"
        },
        "sources": [
          {
            "type": "osm",
            "id": "node/6857552763",
            "version": 0
          },
          {
            "type": "gmaps",
            "id": "payment"
          }
        ],
        "created": "2026-05-21",
        "updated": "2026-05-21",
        "payment": {
          "cards": "no",
          "girocard": "yes",
          "contactless": "yes"
        }
      }
    },
    {
      "type": "Feature",
      "geometry": {
        "type": "Point",
        "coordinates": [
          7.6115725,
          50.2955104
        ]
      },
      "properties": {
        "id": "tk_ko_osm_n807148916",
        "name": "Kiosk Quiram",
        "address": {
          "street": "Adolfstraße",
          "number": "144",
          "postalcode": "56112",
          "city": "Lahnstein"
        },
        "sources": [
          {
            "type": "osm",
            "id": "node/807148916",
            "version": 0
          }
        ],
        "created": "2026-05-21",
        "updated": "2026-05-21",
        "tags": [
          "barrierefrei"
        ]
      }
    },
    {
      "type": "Feature",
      "geometry": {
        "type": "Point",
        "coordinates": [
          7.5978529,
          50.3208116
        ]
      },
      "properties": {
        "id": "tk_ko_osm_n823749219",
        "name": "Getränke Hoffmann",
        "address": {
          "street": "Koblenzer Straße",
          "number": "25a",
          "postalcode": "56112",
          "city": "Lahnstein"
        },
        "sources": [
          {
            "type": "osm",
            "id": "node/823749219",
            "version": 0
          }
        ],
        "created": "2026-05-21",
        "updated": "2026-05-21",
        "hours": {
          "raw": "Mo-Sa 08:00-20:00"
        },
        "payment": {
          "cash": "yes",
          "cards": "yes",
          "contactless": "unknown",
          "girocard": "unknown",
          "mobile": "unknown"
        },
        "tags": [
          "barrierefrei"
        ]
      }
    },
    {
      "type": "Feature",
      "geometry": {
        "type": "Point",
        "coordinates": [
          7.6080737,
          50.3832202
        ]
      },
      "properties": {
        "id": "tk_ko_osm_n8340974558",
        "name": "Kiosk Lieser",
        "address": {
          "street": "Büngertsweg",
          "number": "101",
          "postalcode": "56070",
          "city": "Koblenz"
        },
        "sources": [
          {
            "type": "osm",
            "id": "node/8340974558",
            "version": 0
          }
        ],
        "created": "2026-05-21",
        "updated": "2026-05-21",
        "hours": {
          "raw": "Mo-Fr 08:00-18:00; Sa 08:00-16:00"
        }
      }
    },
    {
      "type": "Feature",
      "geometry": {
        "type": "Point",
        "coordinates": [
          7.5618581,
          50.3530895
        ]
      },
      "properties": {
        "id": "tk_ko_osm_n8341042756",
        "name": "Quads am Eck",
        "address": {
          "street": "Koblenzer Straße",
          "number": "68",
          "postalcode": "56073",
          "city": "Koblenz"
        },
        "sources": [
          {
            "type": "osm",
            "id": "node/8341042756",
            "version": 0
          }
        ],
        "created": "2026-05-21",
        "updated": "2026-05-21",
        "hours": {
          "raw": "Mo-Fr 07:30-17:30; Sa 09:00-14:00"
        },
        "payment": {
          "cash": "unknown",
          "cards": "yes",
          "contactless": "unknown",
          "girocard": "unknown",
          "mobile": "unknown"
        }
      }
    },
    {
      "type": "Feature",
      "geometry": {
        "type": "Point",
        "coordinates": [
          7.6195528,
          50.3465825
        ]
      },
      "properties": {
        "id": "tk_ko_osm_n8341056210",
        "name": "Kioskbetriebe Groß",
        "address": {
          "street": "Fritz-von-Unruh-Straße",
          "number": "1",
          "postalcode": "56077",
          "city": "Koblenz"
        },
        "sources": [
          {
            "type": "osm",
            "id": "node/8341056210",
            "version": 0
          },
          {
            "type": "gmaps",
            "id": "payment"
          }
        ],
        "created": "2026-05-21",
        "updated": "2026-05-21",
        "payment": {
          "cards": "no",
          "girocard": "yes",
          "contactless": "yes"
        }
      }
    },
    {
      "type": "Feature",
      "geometry": {
        "type": "Point",
        "coordinates": [
          7.6730385,
          50.4402743
        ]
      },
      "properties": {
        "id": "tk_ko_osm_n843137677",
        "name": "DGS",
        "address": {},
        "sources": [
          {
            "type": "osm",
            "id": "node/843137677",
            "version": 0
          },
          {
            "type": "gmaps",
            "id": "payment"
          }
        ],
        "created": "2026-05-21",
        "updated": "2026-05-21",
        "hours": {
          "raw": "Mo-Fr 09:00-18:00; Sa 08:00-15:00"
        },
        "payment": {
          "cards": "no",
          "girocard": "yes",
          "contactless": "yes"
        }
      }
    },
    {
      "type": "Feature",
      "geometry": {
        "type": "Point",
        "coordinates": [
          7.6286118,
          50.3707211
        ]
      },
      "properties": {
        "id": "tk_ko_osm_n9232872848",
        "name": "Niederberger Markt",
        "address": {},
        "sources": [
          {
            "type": "osm",
            "id": "node/9232872848",
            "version": 0
          },
          {
            "type": "gmaps",
            "id": "payment"
          }
        ],
        "created": "2026-05-21",
        "updated": "2026-05-21",
        "payment": {
          "girocard": "yes",
          "cards": "no",
          "contactless": "yes"
        }
      }
    },
    {
      "type": "Feature",
      "geometry": {
        "type": "Point",
        "coordinates": [
          7.5508763,
          50.3519667
        ]
      },
      "properties": {
        "id": "tk_ko_osm_n9380034693",
        "name": "Schwaab Fruchtsaft e.K.",
        "address": {
          "street": "In der Laach",
          "number": "74",
          "postalcode": "56072",
          "city": "Koblenz"
        },
        "sources": [
          {
            "type": "osm",
            "id": "node/9380034693",
            "version": 0
          },
          {
            "type": "gmaps",
            "id": "payment"
          }
        ],
        "created": "2026-05-21",
        "updated": "2026-05-21",
        "payment": {
          "cards": "no",
          "girocard": "yes",
          "contactless": "yes"
        }
      }
    },
    {
      "type": "Feature",
      "geometry": {
        "type": "Point",
        "coordinates": [
          7.5448964,
          50.4404782
        ]
      },
      "properties": {
        "id": "tk_ko_osm_n9380049657",
        "name": "Lohnmosterei Ninks Saftladen",
        "address": {
          "street": "Engersgaustraße",
          "number": "87e",
          "postalcode": "56566",
          "city": "Neuwied"
        },
        "sources": [
          {
            "type": "osm",
            "id": "node/9380049657",
            "version": 0
          }
        ],
        "created": "2026-05-21",
        "updated": "2026-05-21"
      }
    },
    {
      "type": "Feature",
      "geometry": {
        "type": "Point",
        "coordinates": [
          7.5897059,
          50.3537976
        ]
      },
      "properties": {
        "id": "tk_ko_osm_n9433411417",
        "name": "Getränkeoase",
        "address": {
          "street": "Löhrstraße",
          "number": "119",
          "postalcode": "56068"
        },
        "sources": [
          {
            "type": "osm",
            "id": "node/9433411417",
            "version": 0
          }
        ],
        "created": "2026-05-21",
        "updated": "2026-05-21",
        "hours": {
          "raw": "Mo-Sa 09:00-24:00; Su 10:00-24:00"
        },
        "payment": {
          "cash": "yes",
          "cards": "unknown",
          "contactless": "unknown",
          "girocard": "unknown",
          "mobile": "unknown"
        }
      }
    },
    {
      "type": "Feature",
      "geometry": {
        "type": "Point",
        "coordinates": [
          7.6168822,
          50.397848
        ]
      },
      "properties": {
        "id": "tk_ko_osm_n9684229709",
        "name": "DGS RheintalXpress",
        "address": {},
        "sources": [
          {
            "type": "osm",
            "id": "node/9684229709",
            "version": 0
          }
        ],
        "created": "2026-05-21",
        "updated": "2026-05-21"
      }
    },
    {
      "type": "Feature",
      "geometry": {
        "type": "Point",
        "coordinates": [
          7.5849827,
          50.3585853
        ]
      },
      "properties": {
        "id": "tk_ko_osm_w102075677",
        "name": "DGS Der Getränke Spezialist",
        "address": {
          "street": "David-Röntgen-Straße",
          "number": "22"
        },
        "sources": [
          {
            "type": "osm",
            "id": "way/102075677",
            "version": 0
          },
          {
            "type": "gmaps",
            "id": "payment"
          }
        ],
        "created": "2026-05-21",
        "updated": "2026-05-21",
        "payment": {
          "cards": "no",
          "girocard": "yes",
          "contactless": "yes"
        }
      }
    },
    {
      "type": "Feature",
      "geometry": {
        "type": "Point",
        "coordinates": [
          7.6443601,
          50.2634868
        ]
      },
      "properties": {
        "id": "tk_ko_osm_w106485816",
        "name": "Classic Tankstelle",
        "address": {
          "street": "An der B 9",
          "number": "1",
          "postalcode": "56322",
          "city": "Spay"
        },
        "sources": [
          {
            "type": "osm",
            "id": "way/106485816",
            "version": 0
          },
          {
            "type": "gmaps",
            "id": "payment"
          }
        ],
        "created": "2026-05-21",
        "updated": "2026-05-21",
        "hours": {
          "raw": "Mo-Fr 06:00-21:00; Sa 07:00-21:00; Su 08:00-20:00"
        },
        "payment": {
          "cards": "no",
          "girocard": "yes",
          "contactless": "yes"
        }
      }
    },
    {
      "type": "Feature",
      "geometry": {
        "type": "Point",
        "coordinates": [
          7.6256865,
          50.2777194
        ]
      },
      "properties": {
        "id": "tk_ko_osm_w106492176",
        "name": "DGS Getränkemarkt",
        "address": {
          "street": "Mainzer Straße",
          "number": "73",
          "postalcode": "56321"
        },
        "sources": [
          {
            "type": "osm",
            "id": "way/106492176",
            "version": 0
          },
          {
            "type": "gmaps",
            "id": "payment"
          }
        ],
        "created": "2026-05-21",
        "updated": "2026-05-21",
        "hours": {
          "raw": "Mo-Fr 09:00-18:00; Sa 09:00-15:00"
        },
        "payment": {
          "cards": "yes",
          "girocard": "yes",
          "contactless": "yes"
        }
      }
    },
    {
      "type": "Feature",
      "geometry": {
        "type": "Point",
        "coordinates": [
          7.5955824,
          50.4442179
        ]
      },
      "properties": {
        "id": "tk_ko_osm_w123896986",
        "name": "Kantine",
        "address": {},
        "sources": [
          {
            "type": "osm",
            "id": "way/123896986",
            "version": 0
          }
        ],
        "created": "2026-05-21",
        "updated": "2026-05-21"
      }
    },
    {
      "type": "Feature",
      "geometry": {
        "type": "Point",
        "coordinates": [
          7.6023994,
          50.3633669
        ]
      },
      "properties": {
        "id": "tk_ko_osm_w1244825644",
        "name": "Souvenirs-Eis-Getränke",
        "address": {},
        "sources": [
          {
            "type": "osm",
            "id": "way/1244825644",
            "version": 0
          }
        ],
        "created": "2026-05-21",
        "updated": "2026-05-21"
      }
    },
    {
      "type": "Feature",
      "geometry": {
        "type": "Point",
        "coordinates": [
          7.5947394,
          50.3604186
        ]
      },
      "properties": {
        "id": "tk_ko_osm_w1246819580",
        "name": "Planbox E-Kiosk",
        "address": {},
        "sources": [
          {
            "type": "osm",
            "id": "way/1246819580",
            "version": 0
          }
        ],
        "created": "2026-05-21",
        "updated": "2026-05-21",
        "hours": {
          "raw": "24/7"
        },
        "payment": {
          "cash": "unknown",
          "cards": "yes",
          "contactless": "unknown",
          "girocard": "unknown",
          "mobile": "unknown"
        },
        "tags": [
          "barrierefrei"
        ]
      }
    },
    {
      "type": "Feature",
      "geometry": {
        "type": "Point",
        "coordinates": [
          7.606502,
          50.4022023
        ]
      },
      "properties": {
        "id": "tk_ko_osm_w126641837",
        "name": "REWE Getränkemarkt",
        "address": {
          "street": "Rheinstraße",
          "number": "117",
          "postalcode": "56179",
          "city": "Vallendar"
        },
        "sources": [
          {
            "type": "osm",
            "id": "way/126641837",
            "version": 0
          },
          {
            "type": "gmaps",
            "id": "payment"
          }
        ],
        "created": "2026-05-21",
        "updated": "2026-05-21",
        "hours": {
          "raw": "Mo-Sa 08:00-22:00"
        },
        "tags": [
          "barrierefrei"
        ],
        "payment": {
          "cards": "yes",
          "girocard": "yes",
          "contactless": "yes"
        }
      }
    },
    {
      "type": "Feature",
      "geometry": {
        "type": "Point",
        "coordinates": [
          7.6827545,
          50.4494577
        ]
      },
      "properties": {
        "id": "tk_ko_osm_w131221142",
        "name": "Getränke Starke",
        "address": {
          "street": "In den Erlen",
          "number": "15",
          "postalcode": "56206",
          "city": "Hilgert"
        },
        "sources": [
          {
            "type": "osm",
            "id": "way/131221142",
            "version": 0
          }
        ],
        "created": "2026-05-21",
        "updated": "2026-05-21"
      }
    },
    {
      "type": "Feature",
      "geometry": {
        "type": "Point",
        "coordinates": [
          7.5751599,
          50.3831946
        ]
      },
      "properties": {
        "id": "tk_ko_osm_w140943841",
        "name": "DGS Der Getränkespezialist",
        "address": {
          "street": "Otto-Schönhagen-Straße",
          "number": "6",
          "postalcode": "56070",
          "city": "Koblenz"
        },
        "sources": [
          {
            "type": "osm",
            "id": "way/140943841",
            "version": 0
          },
          {
            "type": "gmaps",
            "id": "payment"
          }
        ],
        "created": "2026-05-21",
        "updated": "2026-05-21",
        "hours": {
          "raw": "Mo-Sa 09:00-19:00"
        },
        "payment": {
          "girocard": "yes",
          "cards": "yes"
        }
      }
    },
    {
      "type": "Feature",
      "geometry": {
        "type": "Point",
        "coordinates": [
          7.5957254,
          50.3714333
        ]
      },
      "properties": {
        "id": "tk_ko_osm_w165237133",
        "name": "Getränke Quelle",
        "address": {
          "street": "Andernacher Straße",
          "postalcode": "56070",
          "city": "Koblenz"
        },
        "sources": [
          {
            "type": "osm",
            "id": "way/165237133",
            "version": 0
          }
        ],
        "created": "2026-05-21",
        "updated": "2026-05-21",
        "tags": [
          "barrierefrei"
        ]
      }
    },
    {
      "type": "Feature",
      "geometry": {
        "type": "Point",
        "coordinates": [
          7.6208832,
          50.3663751
        ]
      },
      "properties": {
        "id": "tk_ko_osm_w311742103",
        "name": "REWE Getränkemarkt",
        "address": {
          "street": "Arenberger Straße",
          "number": "34-36",
          "postalcode": "56077"
        },
        "sources": [
          {
            "type": "osm",
            "id": "way/311742103",
            "version": 0
          },
          {
            "type": "gmaps",
            "id": "payment"
          }
        ],
        "created": "2026-05-21",
        "updated": "2026-05-21",
        "payment": {
          "cards": "yes",
          "girocard": "yes",
          "contactless": "yes"
        }
      }
    },
    {
      "type": "Feature",
      "geometry": {
        "type": "Point",
        "coordinates": [
          7.613864,
          50.3495678
        ]
      },
      "properties": {
        "id": "tk_ko_osm_w315199311",
        "name": "DSG",
        "address": {
          "street": "Lindenallee",
          "number": "13"
        },
        "sources": [
          {
            "type": "osm",
            "id": "way/315199311",
            "version": 0
          },
          {
            "type": "gmaps",
            "id": "payment"
          }
        ],
        "created": "2026-05-21",
        "updated": "2026-05-21",
        "payment": {
          "cards": "no",
          "girocard": "yes",
          "contactless": "yes"
        }
      }
    },
    {
      "type": "Feature",
      "geometry": {
        "type": "Point",
        "coordinates": [
          7.4873377,
          50.4338891
        ]
      },
      "properties": {
        "id": "tk_ko_osm_w35838779",
        "name": "Rewe Center Getränkemarkt",
        "address": {
          "street": "Königsberger Straße",
          "number": "4",
          "postalcode": "56564",
          "city": "Neuwied"
        },
        "sources": [
          {
            "type": "osm",
            "id": "way/35838779",
            "version": 0
          },
          {
            "type": "gmaps",
            "id": "payment"
          }
        ],
        "created": "2026-05-21",
        "updated": "2026-05-21",
        "payment": {
          "cards": "yes",
          "girocard": "yes",
          "contactless": "yes"
        }
      }
    },
    {
      "type": "Feature",
      "geometry": {
        "type": "Point",
        "coordinates": [
          7.4844745,
          50.4350137
        ]
      },
      "properties": {
        "id": "tk_ko_osm_w35934430",
        "name": "DSG Der Getränke Spezialist",
        "address": {
          "street": "Stettiner Straße",
          "number": "2",
          "postalcode": "56564",
          "city": "Neuwied"
        },
        "sources": [
          {
            "type": "osm",
            "id": "way/35934430",
            "version": 0
          },
          {
            "type": "gmaps",
            "id": "payment"
          }
        ],
        "created": "2026-05-21",
        "updated": "2026-05-21",
        "payment": {
          "cards": "no",
          "girocard": "yes",
          "contactless": "yes"
        }
      }
    },
    {
      "type": "Feature",
      "geometry": {
        "type": "Point",
        "coordinates": [
          7.4937236,
          50.4371968
        ]
      },
      "properties": {
        "id": "tk_ko_osm_w36994971",
        "name": "trinkgut",
        "address": {
          "street": "Allensteiner Straße",
          "number": "22a",
          "postalcode": "56566",
          "city": "Neuwied"
        },
        "sources": [
          {
            "type": "osm",
            "id": "way/36994971",
            "version": 0
          },
          {
            "type": "gmaps",
            "id": "payment"
          }
        ],
        "created": "2026-05-21",
        "updated": "2026-05-21",
        "payment": {
          "cards": "no",
          "girocard": "yes",
          "contactless": "yes"
        }
      }
    },
    {
      "type": "Feature",
      "geometry": {
        "type": "Point",
        "coordinates": [
          7.7037793,
          50.3809925
        ]
      },
      "properties": {
        "id": "tk_ko_osm_w391076348",
        "name": "Getränke Schneider",
        "address": {
          "street": "Industriestraße",
          "number": "1",
          "postalcode": "56337",
          "city": "Simmern"
        },
        "sources": [
          {
            "type": "osm",
            "id": "way/391076348",
            "version": 0
          }
        ],
        "created": "2026-05-21",
        "updated": "2026-05-21",
        "hours": {
          "raw": "Mo-Fr 09:00-18:00; Sa 09:00-14:00"
        },
        "tags": [
          "barrierefrei"
        ]
      }
    },
    {
      "type": "Feature",
      "geometry": {
        "type": "Point",
        "coordinates": [
          7.4723996,
          50.4313212
        ]
      },
      "properties": {
        "id": "tk_ko_osm_w458586060",
        "name": "Kiosk Gisela",
        "address": {
          "street": "Augustastraße",
          "number": "43",
          "postalcode": "56564",
          "city": "Neuwied"
        },
        "sources": [
          {
            "type": "osm",
            "id": "way/458586060",
            "version": 0
          },
          {
            "type": "gmaps",
            "id": "payment"
          }
        ],
        "created": "2026-05-21",
        "updated": "2026-05-21",
        "hours": {
          "raw": "Mo-Fr 07:00-18:00; Sa 07:00-13:00"
        },
        "payment": {
          "cash": "yes"
        }
      }
    },
    {
      "type": "Feature",
      "geometry": {
        "type": "Point",
        "coordinates": [
          7.5180296,
          50.4137986
        ]
      },
      "properties": {
        "id": "tk_ko_osm_w485571557",
        "name": "Getränke Both",
        "address": {
          "street": "Freiherr-vom-Stein-Straße",
          "number": "37",
          "postalcode": "56220",
          "city": "Urmitz"
        },
        "sources": [
          {
            "type": "osm",
            "id": "way/485571557",
            "version": 0
          },
          {
            "type": "gmaps",
            "id": "payment"
          }
        ],
        "created": "2026-05-21",
        "updated": "2026-05-21",
        "hours": {
          "raw": "Mo-Fr 08:00-12:00,13:30-18:00; Sa 09:00-13:00; Su off"
        },
        "tags": [
          "barrierefrei"
        ],
        "payment": {
          "girocard": "yes",
          "cards": "no",
          "contactless": "yes"
        }
      }
    },
    {
      "type": "Feature",
      "geometry": {
        "type": "Point",
        "coordinates": [
          7.5996833,
          50.3169138
        ]
      },
      "properties": {
        "id": "tk_ko_osm_w68477117",
        "name": "Getränke-Abholmarkt",
        "address": {},
        "sources": [
          {
            "type": "osm",
            "id": "way/68477117",
            "version": 0
          },
          {
            "type": "gmaps",
            "id": "payment"
          }
        ],
        "created": "2026-05-21",
        "updated": "2026-05-21",
        "payment": {
          "cards": "yes",
          "girocard": "yes",
          "contactless": "yes"
        }
      }
    },
    {
      "type": "Feature",
      "geometry": {
        "type": "Point",
        "coordinates": [
          7.6033111,
          50.3071575
        ]
      },
      "properties": {
        "id": "tk_ko_osm_w68506168",
        "name": "Globus Getränke-Center",
        "address": {
          "street": "Brückenstraße",
          "number": "26"
        },
        "sources": [
          {
            "type": "osm",
            "id": "way/68506168",
            "version": 0
          },
          {
            "type": "gmaps",
            "id": "payment"
          }
        ],
        "created": "2026-05-21",
        "updated": "2026-05-21",
        "payment": {
          "cards": "no",
          "girocard": "yes",
          "contactless": "yes"
        }
      }
    },
    {
      "type": "Feature",
      "geometry": {
        "type": "Point",
        "coordinates": [
          7.7139842,
          50.334007
        ]
      },
      "properties": {
        "id": "tk_ko_osm_w742002010",
        "name": "REWE Getränkemarkt",
        "address": {
          "street": "Römerstraße",
          "number": "80-81",
          "postalcode": "56130",
          "city": "Bad Ems"
        },
        "sources": [
          {
            "type": "osm",
            "id": "way/742002010",
            "version": 0
          },
          {
            "type": "gmaps",
            "id": "payment"
          }
        ],
        "created": "2026-05-21",
        "updated": "2026-05-21",
        "hours": {
          "raw": "Mo-Sa 07:00-21:00"
        },
        "tags": [
          "barrierefrei"
        ],
        "payment": {
          "cards": "no",
          "girocard": "yes",
          "contactless": "yes"
        }
      }
    }
  ]
}
