{
  "type": "FeatureCollection",
  "features": [
    {
      "type": "Feature",
      "geometry": {
        "type": "Point",
        "coordinates": [
          6.5934844,
          49.7903872
        ]
      },
      "properties": {
        "id": "tk_tr_osm_n1170538016",
        "name": "Getränke Kersch",
        "address": {
          "street": "Im Fischerberg",
          "number": "7",
          "postalcode": "54298",
          "city": "Aach"
        },
        "sources": [
          {
            "type": "osm",
            "id": "node/1170538016",
            "version": 0
          }
        ],
        "created": "2026-05-21",
        "updated": "2026-05-21",
        "hours": {
          "raw": "Mo-Fr 16:00-18:30; Sa 09:00-17:00; Su off"
        },
        "payment_attempted": "2026-05-22"
      }
    },
    {
      "type": "Feature",
      "geometry": {
        "type": "Point",
        "coordinates": [
          6.6349019,
          49.7586141
        ]
      },
      "properties": {
        "id": "tk_tr_osm_n13624792778",
        "name": "Kiosk am Paulusplatz",
        "address": {
          "street": "Paulusplatz",
          "number": "6",
          "postalcode": "54290",
          "city": "Trier"
        },
        "sources": [
          {
            "type": "osm",
            "id": "node/13624792778",
            "version": 0
          }
        ],
        "created": "2026-05-21",
        "updated": "2026-05-21",
        "hours": {
          "raw": "Mo-Fr 07:30-18:00; Sa 10:00-18:00"
        },
        "payment_attempted": "2026-05-22"
      }
    },
    {
      "type": "Feature",
      "geometry": {
        "type": "Point",
        "coordinates": [
          6.5671823,
          49.6953144
        ]
      },
      "properties": {
        "id": "tk_tr_osm_n2043562576",
        "name": "happy Getränkemarkt",
        "address": {},
        "sources": [
          {
            "type": "osm",
            "id": "node/2043562576",
            "version": 0
          },
          {
            "type": "gmaps",
            "id": "payment"
          }
        ],
        "created": "2026-05-21",
        "updated": "2026-05-22",
        "hours": {
          "raw": "Mo-Fr 09:00-19:00; Sa 08:00-16:00; PH off"
        },
        "tags": [
          "barrierefrei"
        ],
        "payment": {
          "cards": "no",
          "girocard": "yes",
          "contactless": "yes"
        }
      }
    },
    {
      "type": "Feature",
      "geometry": {
        "type": "Point",
        "coordinates": [
          6.655506,
          49.7653408
        ]
      },
      "properties": {
        "id": "tk_tr_osm_n2311085586",
        "name": "REWE Getränkemarkt",
        "address": {},
        "sources": [
          {
            "type": "osm",
            "id": "node/2311085586",
            "version": 0
          },
          {
            "type": "gmaps",
            "id": "payment"
          }
        ],
        "created": "2026-05-21",
        "updated": "2026-05-22",
        "hours": {
          "raw": "Mo-Sa 07:00-21:30"
        },
        "payment": {
          "cards": "yes",
          "girocard": "yes",
          "contactless": "yes"
        }
      }
    },
    {
      "type": "Feature",
      "geometry": {
        "type": "Point",
        "coordinates": [
          6.5876776,
          49.8481094
        ]
      },
      "properties": {
        "id": "tk_tr_osm_n2508280018",
        "name": "Kelterei Conrad",
        "address": {
          "street": "Trägerwiese",
          "number": "1",
          "postalcode": "54298",
          "city": "Welschbillig"
        },
        "sources": [
          {
            "type": "osm",
            "id": "node/2508280018",
            "version": 0
          }
        ],
        "created": "2026-05-21",
        "updated": "2026-05-21",
        "hours": {
          "raw": "Mo-Fr 09:00-12:00, 14:00-18:00, Sa 09:00-14:00; Su,PH off"
        },
        "payment": {
          "cash": "yes",
          "cards": "unknown",
          "contactless": "unknown",
          "girocard": "yes",
          "mobile": "unknown"
        },
        "tags": [
          "barrierefrei"
        ]
      }
    },
    {
      "type": "Feature",
      "geometry": {
        "type": "Point",
        "coordinates": [
          6.6427701,
          49.7528532
        ]
      },
      "properties": {
        "id": "tk_tr_osm_n290672165",
        "name": "Palastgarten-Terrasse",
        "address": {},
        "sources": [
          {
            "type": "osm",
            "id": "node/290672165",
            "version": 0
          }
        ],
        "created": "2026-05-21",
        "updated": "2026-05-21",
        "hours": {
          "raw": "Fr-Su 13:00+"
        },
        "payment": {
          "cash": "yes",
          "cards": "yes",
          "contactless": "unknown",
          "girocard": "unknown",
          "mobile": "unknown"
        },
        "tags": [
          "barrierefrei",
          "draussen"
        ]
      }
    },
    {
      "type": "Feature",
      "geometry": {
        "type": "Point",
        "coordinates": [
          6.6410544,
          49.7572773
        ]
      },
      "properties": {
        "id": "tk_tr_osm_n4745074002",
        "name": "Kiosk Ziggi",
        "address": {},
        "sources": [
          {
            "type": "osm",
            "id": "node/4745074002",
            "version": 0
          }
        ],
        "created": "2026-05-21",
        "updated": "2026-05-21",
        "hours": {
          "raw": "Mo-Sa 07:00-22:00; Su 12:00-20:00"
        },
        "payment_attempted": "2026-05-22"
      }
    },
    {
      "type": "Feature",
      "geometry": {
        "type": "Point",
        "coordinates": [
          6.649563,
          49.7633012
        ]
      },
      "properties": {
        "id": "tk_tr_osm_n4759369721",
        "name": "Neimann",
        "address": {
          "street": "Paulinstraße",
          "number": "82",
          "postalcode": "54292",
          "city": "Trier"
        },
        "sources": [
          {
            "type": "osm",
            "id": "node/4759369721",
            "version": 0
          },
          {
            "type": "gmaps",
            "id": "payment"
          }
        ],
        "created": "2026-05-21",
        "updated": "2026-05-22",
        "hours": {
          "raw": "Mo-Fr 07:00-18:00; Sa 07:00-14:00; Su,PH off"
        },
        "payment": {
          "cards": "yes",
          "girocard": "yes",
          "contactless": "yes"
        }
      }
    },
    {
      "type": "Feature",
      "geometry": {
        "type": "Point",
        "coordinates": [
          6.6286846,
          49.7236138
        ]
      },
      "properties": {
        "id": "tk_tr_osm_n4824759680",
        "name": "Happy Getränkemarkt",
        "address": {},
        "sources": [
          {
            "type": "osm",
            "id": "node/4824759680",
            "version": 0
          },
          {
            "type": "gmaps",
            "id": "payment"
          }
        ],
        "created": "2026-05-21",
        "updated": "2026-05-22",
        "hours": {
          "raw": "Mo-Fr 09:00-18:30; Sa 09:00-14:00"
        },
        "payment": {
          "cards": "no",
          "girocard": "yes",
          "contactless": "yes"
        }
      }
    },
    {
      "type": "Feature",
      "geometry": {
        "type": "Point",
        "coordinates": [
          6.6375058,
          49.7510859
        ]
      },
      "properties": {
        "id": "tk_tr_osm_n4938929908",
        "name": "Kiosk Denisa",
        "address": {},
        "sources": [
          {
            "type": "osm",
            "id": "node/4938929908",
            "version": 0
          }
        ],
        "created": "2026-05-21",
        "updated": "2026-05-21",
        "tags": [
          "barrierefrei"
        ],
        "payment_attempted": "2026-05-22"
      }
    },
    {
      "type": "Feature",
      "geometry": {
        "type": "Point",
        "coordinates": [
          6.6412394,
          49.7582414
        ]
      },
      "properties": {
        "id": "tk_tr_osm_n5016129105",
        "name": "Ziggis Kiosk",
        "address": {},
        "sources": [
          {
            "type": "osm",
            "id": "node/5016129105",
            "version": 0
          },
          {
            "type": "gmaps",
            "id": "payment"
          }
        ],
        "created": "2026-05-21",
        "updated": "2026-05-22",
        "hours": {
          "raw": "Mo-Fr 06:00-22:00; Sa,Su,PH 11:00-20:00"
        },
        "payment": {
          "cards": "no",
          "girocard": "yes",
          "contactless": "yes"
        }
      }
    },
    {
      "type": "Feature",
      "geometry": {
        "type": "Point",
        "coordinates": [
          6.6472381,
          49.7547861
        ]
      },
      "properties": {
        "id": "tk_tr_osm_n5196862550",
        "name": "Aral Ostallee Trier",
        "address": {},
        "sources": [
          {
            "type": "osm",
            "id": "node/5196862550",
            "version": 0
          }
        ],
        "created": "2026-05-21",
        "updated": "2026-05-21",
        "hours": {
          "raw": "24/7"
        },
        "payment": {
          "cash": "yes",
          "cards": "unknown",
          "contactless": "unknown",
          "girocard": "unknown",
          "mobile": "unknown"
        },
        "tags": [
          "ueberdacht"
        ]
      }
    },
    {
      "type": "Feature",
      "geometry": {
        "type": "Point",
        "coordinates": [
          6.6138131,
          49.7377234
        ]
      },
      "properties": {
        "id": "tk_tr_osm_n5497417108",
        "name": "Getränke Star",
        "address": {},
        "sources": [
          {
            "type": "osm",
            "id": "node/5497417108",
            "version": 0
          },
          {
            "type": "gmaps",
            "id": "payment"
          }
        ],
        "created": "2026-05-21",
        "updated": "2026-05-22",
        "hours": {
          "raw": "Mo-Sa 07:00-22:00"
        },
        "tags": [
          "barrierefrei"
        ],
        "payment": {
          "cards": "no",
          "girocard": "yes",
          "contactless": "yes"
        }
      }
    },
    {
      "type": "Feature",
      "geometry": {
        "type": "Point",
        "coordinates": [
          6.6372234,
          49.750374
        ]
      },
      "properties": {
        "id": "tk_tr_osm_n5578973219",
        "name": "Lavinda",
        "address": {},
        "sources": [
          {
            "type": "osm",
            "id": "node/5578973219",
            "version": 0
          },
          {
            "type": "gmaps",
            "id": "payment"
          }
        ],
        "created": "2026-05-21",
        "updated": "2026-05-22",
        "hours": {
          "raw": "Mo-Sa 07:00-22:00"
        },
        "payment": {
          "cards": "no",
          "girocard": "yes",
          "contactless": "yes"
        }
      }
    },
    {
      "type": "Feature",
      "geometry": {
        "type": "Point",
        "coordinates": [
          6.5643083,
          49.8282785
        ]
      },
      "properties": {
        "id": "tk_tr_osm_n6915191202",
        "name": "TotalEnergies",
        "address": {
          "street": "Windmühle",
          "number": "12",
          "postalcode": "54298",
          "city": "Welschbillig"
        },
        "sources": [
          {
            "type": "osm",
            "id": "node/6915191202",
            "version": 0
          }
        ],
        "created": "2026-05-21",
        "updated": "2026-05-21",
        "payment": {
          "cash": "yes",
          "cards": "unknown",
          "contactless": "unknown",
          "girocard": "yes",
          "mobile": "unknown"
        },
        "tags": [
          "wc"
        ]
      }
    },
    {
      "type": "Feature",
      "geometry": {
        "type": "Point",
        "coordinates": [
          6.6397199,
          49.7592922
        ]
      },
      "properties": {
        "id": "tk_tr_osm_n9266385256",
        "name": "Kiosk Ziggi",
        "address": {},
        "sources": [
          {
            "type": "osm",
            "id": "node/9266385256",
            "version": 0
          }
        ],
        "created": "2026-05-21",
        "updated": "2026-05-21",
        "payment_attempted": "2026-05-22"
      }
    },
    {
      "type": "Feature",
      "geometry": {
        "type": "Point",
        "coordinates": [
          6.5135594,
          49.7599859
        ]
      },
      "properties": {
        "id": "tk_tr_osm_n9890646096",
        "name": "Ramborn",
        "address": {
          "street": "Duerfstrooss",
          "number": "23",
          "city": "Born"
        },
        "sources": [
          {
            "type": "osm",
            "id": "node/9890646096",
            "version": 0
          },
          {
            "type": "gmaps",
            "id": "payment"
          }
        ],
        "created": "2026-05-21",
        "updated": "2026-05-22",
        "hours": {
          "raw": "We-Su 14:00-18:00"
        },
        "payment": {
          "cards": "no",
          "girocard": "yes",
          "contactless": "yes"
        }
      }
    },
    {
      "type": "Feature",
      "geometry": {
        "type": "Point",
        "coordinates": [
          6.6245991,
          49.743203
        ]
      },
      "properties": {
        "id": "tk_tr_osm_w145689788",
        "name": "Campingplatz Treviris",
        "address": {},
        "sources": [
          {
            "type": "osm",
            "id": "way/145689788",
            "version": 0
          }
        ],
        "created": "2026-05-21",
        "updated": "2026-05-21",
        "hours": {
          "raw": "Mo-Su 08:00-22:00"
        },
        "payment_attempted": "2026-05-22"
      }
    },
    {
      "type": "Feature",
      "geometry": {
        "type": "Point",
        "coordinates": [
          6.7516567,
          49.8168003
        ]
      },
      "properties": {
        "id": "tk_tr_osm_w172436396",
        "name": "Getränkemarkt Edeka",
        "address": {},
        "sources": [
          {
            "type": "osm",
            "id": "way/172436396",
            "version": 0
          },
          {
            "type": "gmaps",
            "id": "payment"
          }
        ],
        "created": "2026-05-21",
        "updated": "2026-05-22",
        "hours": {
          "raw": "Mo-Sa 08:00-22:00"
        },
        "payment": {
          "cards": "yes",
          "girocard": "yes",
          "contactless": "yes"
        }
      }
    },
    {
      "type": "Feature",
      "geometry": {
        "type": "Point",
        "coordinates": [
          6.7635654,
          49.8094367
        ]
      },
      "properties": {
        "id": "tk_tr_osm_w289599020",
        "name": "Happy Getränkemarkt",
        "address": {
          "street": "Trierer Straße",
          "number": "28",
          "postalcode": "54340",
          "city": "Longuich"
        },
        "sources": [
          {
            "type": "osm",
            "id": "way/289599020",
            "version": 0
          },
          {
            "type": "gmaps",
            "id": "payment"
          }
        ],
        "created": "2026-05-21",
        "updated": "2026-05-22",
        "hours": {
          "raw": "Mo-Fr 09:00-19:00, Sa 09:00-16:00;PH off"
        },
        "payment": {
          "cards": "yes",
          "girocard": "yes",
          "contactless": "yes"
        }
      }
    },
    {
      "type": "Feature",
      "geometry": {
        "type": "Point",
        "coordinates": [
          6.7454994,
          49.8193399
        ]
      },
      "properties": {
        "id": "tk_tr_osm_w789313535",
        "name": "happy Getränkemarkt",
        "address": {},
        "sources": [
          {
            "type": "osm",
            "id": "way/789313535",
            "version": 0
          },
          {
            "type": "gmaps",
            "id": "payment"
          }
        ],
        "created": "2026-05-21",
        "updated": "2026-05-22",
        "payment": {
          "cards": "no",
          "girocard": "yes",
          "contactless": "yes"
        }
      }
    },
    {
      "type": "Feature",
      "geometry": {
        "type": "Point",
        "coordinates": [
          6.6830938,
          49.809101
        ]
      },
      "properties": {
        "id": "tk_tr_osm_w963188743",
        "name": "Getränkemarkt Pojanow",
        "address": {
          "street": "An der Ehranger Mühle",
          "number": "12",
          "postalcode": "54293",
          "city": "Trier"
        },
        "sources": [
          {
            "type": "osm",
            "id": "way/963188743",
            "version": 0
          }
        ],
        "created": "2026-05-21",
        "updated": "2026-05-21",
        "hours": {
          "raw": "Mo-Sa 07:00-20:00"
        },
        "payment_attempted": "2026-05-22"
      }
    }
  ]
}
