{
  "type": "FeatureCollection",
  "features": [
    {
      "type": "Feature",
      "geometry": {
        "type": "Point",
        "coordinates": [
          11.4969717,
          46.610542
        ]
      },
      "properties": {
        "id": "tk_itbz_osm_n10000629611",
        "name": "Kiosk",
        "address": {},
        "sources": [
          {
            "type": "osm",
            "id": "node/10000629611",
            "version": 0
          },
          {
            "type": "gmaps",
            "id": "ChIJ6chVq7YLeEcREiLUTYBcNhE"
          }
        ],
        "created": "2026-05-29",
        "updated": "2026-06-22",
        "sources_by_field": {
          "name": "osm"
        },
        "apple_id_attempted": "2026-06-29",
        "google_attempted": "2026-06-29",
        "payment": {}
      }
    },
    {
      "type": "Feature",
      "geometry": {
        "type": "Point",
        "coordinates": [
          11.5523433,
          46.5569781
        ]
      },
      "properties": {
        "id": "tk_itbz_osm_n10106621993",
        "name": "Gross",
        "address": {},
        "sources": [
          {
            "type": "osm",
            "id": "node/10106621993",
            "version": 0
          },
          {
            "type": "gmaps",
            "id": "ChIJrz8Qlc4MeEcRAQhv8LdrTPw"
          }
        ],
        "created": "2026-05-29",
        "updated": "2026-06-22",
        "tags": [
          "barrierefrei"
        ],
        "sources_by_field": {
          "name": "osm",
          "hours": "google",
          "payment.cards": "google",
          "payment.contactless": "google",
          "payment.girocard": "google"
        },
        "apple_id_attempted": "2026-06-29",
        "google_attempted": "2026-05-29",
        "hours": {
          "raw": "Tu 08:00-12:00,13:00-18:00; Th 08:00-12:00,13:00-18:00; Fr 08:00-12:00,13:00-18:00; We 08:00-12:00,13:00-18:00; Mo 08:00-12:00,13:00-18:00; Sa 08:00-12:00"
        },
        "payment": {
          "cards": "no",
          "contactless": "yes",
          "girocard": "yes"
        }
      }
    },
    {
      "type": "Feature",
      "geometry": {
        "type": "Point",
        "coordinates": [
          11.5731819,
          46.6453246
        ]
      },
      "properties": {
        "id": "tk_itbz_osm_n10309347245",
        "name": "Martin's",
        "address": {},
        "sources": [
          {
            "type": "osm",
            "id": "node/10309347245",
            "version": 0
          },
          {
            "type": "gmaps",
            "id": "ChIJm1IhmLgOeEcROOfWuapMp0s"
          }
        ],
        "created": "2026-05-29",
        "updated": "2026-06-22",
        "sources_by_field": {
          "name": "osm",
          "hours": "google",
          "payment.cards": "google",
          "payment.contactless": "google",
          "payment.girocard": "google"
        },
        "apple_id_attempted": "2026-06-29",
        "google_attempted": "2026-05-29",
        "hours": {
          "raw": "Tu 08:30-12:30,14:30-18:30; Th 08:30-12:30,14:30-18:30; Fr 08:30-12:30,14:30-18:30; We 08:30-12:30,14:30-18:30; Mo 08:30-12:30,14:30-18:30; Sa 08:30-12:30"
        },
        "payment": {
          "cards": "no",
          "contactless": "yes",
          "girocard": "yes"
        }
      }
    },
    {
      "type": "Feature",
      "geometry": {
        "type": "Point",
        "coordinates": [
          11.9422858,
          46.7974159
        ]
      },
      "properties": {
        "id": "tk_itbz_osm_n11708171099",
        "name": "Oberschmied",
        "address": {},
        "sources": [
          {
            "type": "osm",
            "id": "node/11708171099",
            "version": 0
          },
          {
            "type": "apple",
            "id": "1590723848584189689"
          }
        ],
        "created": "2026-05-29",
        "updated": "2026-06-22",
        "tags": [
          "barrierefrei"
        ],
        "sources_by_field": {
          "name": "osm",
          "payment.cards": "apple",
          "payment.contactless": "apple"
        },
        "apple_attempted": "2026-05-29",
        "google_attempted": "2026-06-29",
        "payment": {
          "cards": "yes",
          "contactless": "yes"
        }
      }
    },
    {
      "type": "Feature",
      "geometry": {
        "type": "Point",
        "coordinates": [
          11.169413,
          46.6091226
        ]
      },
      "properties": {
        "id": "tk_itbz_osm_n12123222550",
        "name": "Drinkfabrik",
        "address": {},
        "sources": [
          {
            "type": "osm",
            "id": "node/12123222550",
            "version": 0
          },
          {
            "type": "apple",
            "id": "17262039839446603810"
          },
          {
            "type": "gmaps",
            "id": "ChIJPVCrcDu9gkcREQBxW3uLwM8"
          }
        ],
        "created": "2026-05-29",
        "updated": "2026-06-22",
        "hours": {
          "raw": "Tu 08:00-12:30; Th 08:00-12:30; Fr 08:00-12:30; We 08:00-12:30"
        },
        "sources_by_field": {
          "name": "osm",
          "hours": "google",
          "payment.cards": "google",
          "payment.contactless": "google",
          "payment.girocard": "google"
        },
        "apple_attempted": "2026-05-29",
        "google_attempted": "2026-05-29",
        "payment": {
          "cards": "yes",
          "contactless": "yes",
          "girocard": "yes"
        }
      }
    },
    {
      "type": "Feature",
      "geometry": {
        "type": "Point",
        "coordinates": [
          11.5024351,
          46.5173942
        ]
      },
      "properties": {
        "id": "tk_itbz_osm_n1579603037",
        "name": "Kompatscher",
        "address": {},
        "sources": [
          {
            "type": "osm",
            "id": "node/1579603037",
            "version": 0
          },
          {
            "type": "gmaps",
            "id": "ChIJ8cmyB4B0eEcRU0ZLmr3neSk"
          }
        ],
        "created": "2026-05-29",
        "updated": "2026-06-22",
        "tags": [
          "barrierefrei"
        ],
        "sources_by_field": {
          "name": "osm",
          "hours": "google",
          "payment.cards": "google",
          "payment.contactless": "google",
          "payment.girocard": "google"
        },
        "apple_id_attempted": "2026-06-29",
        "google_attempted": "2026-05-29",
        "hours": {
          "raw": "Th 07:00-12:00,15:30-19:00; Fr 07:00-12:00,15:30-19:00; We 07:00-12:00,15:30-19:00; Mo 07:00-12:00,15:30-19:00; Sa 07:00-12:00"
        },
        "payment": {
          "cards": "no",
          "contactless": "yes",
          "girocard": "yes"
        }
      }
    },
    {
      "type": "Feature",
      "geometry": {
        "type": "Point",
        "coordinates": [
          11.5662104,
          46.6400427
        ]
      },
      "properties": {
        "id": "tk_itbz_osm_n2429578369",
        "name": "Klammsteiner",
        "address": {},
        "sources": [
          {
            "type": "osm",
            "id": "node/2429578369",
            "version": 0
          },
          {
            "type": "apple",
            "id": "3619720819564339188"
          }
        ],
        "created": "2026-05-29",
        "updated": "2026-06-22",
        "hours": {
          "raw": "Mo-Fr 08:00-12:00,15:00-18:00; Sa 08:00-12:00"
        },
        "tags": [
          "barrierefrei"
        ],
        "sources_by_field": {
          "name": "osm",
          "hours": "apple",
          "payment.cards": "apple",
          "payment.contactless": "apple"
        },
        "apple_attempted": "2026-05-29",
        "payment": {
          "cards": "yes",
          "contactless": "yes"
        }
      }
    },
    {
      "type": "Feature",
      "geometry": {
        "type": "Point",
        "coordinates": [
          11.6500064,
          46.7099225
        ]
      },
      "properties": {
        "id": "tk_itbz_osm_n2431398442",
        "name": "Bahnhof",
        "address": {
          "street": "Bahnhofplatz -Piazzale della Stazione",
          "number": "21",
          "postalcode": "39042",
          "city": "Brixen - Bressanone"
        },
        "sources": [
          {
            "type": "osm",
            "id": "node/2431398442",
            "version": 0
          },
          {
            "type": "gmaps",
            "id": "ChIJaypO4G4FeEcRPBjayYotU4U"
          }
        ],
        "created": "2026-05-29",
        "updated": "2026-06-22",
        "hours": {
          "raw": "Mo-Sa 06:00-19:00; Su 06:00-12:00"
        },
        "tags": [
          "barrierefrei"
        ],
        "sources_by_field": {
          "name": "osm",
          "address.street": "osm",
          "address.number": "osm",
          "address.postalcode": "osm",
          "address.city": "osm",
          "hours": "osm"
        },
        "apple_id_attempted": "2026-06-29",
        "google_attempted": "2026-06-29",
        "payment": {}
      }
    },
    {
      "type": "Feature",
      "geometry": {
        "type": "Point",
        "coordinates": [
          11.3394898,
          46.4863553
        ]
      },
      "properties": {
        "id": "tk_itbz_osm_n2432910964",
        "name": "Gastro Drink",
        "address": {
          "street": "Via Galileo Galilei - Galileo-Galilei-Straße",
          "number": "11",
          "postalcode": "39100",
          "city": "Bolzano - Bozen"
        },
        "sources": [
          {
            "type": "osm",
            "id": "node/2432910964",
            "version": 0
          },
          {
            "type": "apple",
            "id": "17858828036231049204"
          }
        ],
        "created": "2026-05-29",
        "updated": "2026-06-22",
        "hours": {
          "raw": "Mo-Fr 08:00-18:30; Sa 08:30-12:00"
        },
        "sources_by_field": {
          "name": "osm",
          "address.street": "osm",
          "address.number": "osm",
          "address.postalcode": "osm",
          "address.city": "osm",
          "hours": "apple",
          "payment.cards": "apple",
          "payment.contactless": "apple"
        },
        "apple_attempted": "2026-05-29",
        "payment": {
          "cards": "yes",
          "contactless": "yes"
        }
      }
    },
    {
      "type": "Feature",
      "geometry": {
        "type": "Point",
        "coordinates": [
          11.747942,
          46.5585595
        ]
      },
      "properties": {
        "id": "tk_itbz_osm_n2755979674",
        "name": "Vinotheque Riffeser otto",
        "address": {
          "street": "Streda Mëisules",
          "number": "49",
          "postalcode": "39048",
          "city": "Sëlva - Wolkenstein in Gröden - Selva di Val Gardena"
        },
        "sources": [
          {
            "type": "osm",
            "id": "node/2755979674",
            "version": 0
          },
          {
            "type": "gmaps",
            "id": "ChIJe0KWke4UeEcRVPnVHbBmAyg"
          }
        ],
        "created": "2026-05-29",
        "updated": "2026-06-22",
        "sources_by_field": {
          "name": "osm",
          "address.street": "osm",
          "address.number": "osm",
          "address.postalcode": "osm",
          "address.city": "osm",
          "hours": "google",
          "payment.cards": "google",
          "payment.contactless": "google",
          "payment.girocard": "google"
        },
        "apple_id_attempted": "2026-06-29",
        "google_attempted": "2026-05-29",
        "hours": {
          "raw": "Th 08:30-12:30,15:00-19:00; Fr 08:30-12:30,15:00-19:00; We 08:30-12:30,15:00-19:00; Mo 08:30-12:30,15:00-19:00; Sa 08:30-12:30,15:00-19:00"
        },
        "payment": {
          "cards": "no",
          "contactless": "yes",
          "girocard": "yes"
        }
      }
    },
    {
      "type": "Feature",
      "geometry": {
        "type": "Point",
        "coordinates": [
          11.2394102,
          46.3410397
        ]
      },
      "properties": {
        "id": "tk_itbz_osm_n2756026176",
        "name": "Bellutti",
        "address": {
          "street": "Rathausplatz - Piazza Municipio",
          "number": "1a",
          "postalcode": "39040",
          "city": "Tramin an der Weinstraße - Termeno sulla Strada del Vino"
        },
        "sources": [
          {
            "type": "osm",
            "id": "node/2756026176",
            "version": 0
          },
          {
            "type": "gmaps",
            "id": "ChIJrd86kVGBgkcRJMVivVEetuk"
          },
          {
            "type": "apple",
            "id": "2033327807796745692"
          }
        ],
        "created": "2026-05-29",
        "updated": "2026-06-29",
        "sources_by_field": {
          "name": "osm",
          "address.street": "osm",
          "address.number": "osm",
          "address.postalcode": "osm",
          "address.city": "osm",
          "hours": "google",
          "payment.cards": "apple",
          "payment.contactless": "apple"
        },
        "google_attempted": "2026-05-29",
        "hours": {
          "raw": "Tu 07:00-12:15,15:30-19:00; Th 07:00-12:15,15:30-19:00; Fr 07:00-12:15,15:30-19:00; We 07:00-12:15,15:30-19:00; Mo 07:00-12:15,15:30-19:00; Sa 07:00-12:15,15:00-18:00"
        },
        "payment": {
          "cards": "yes",
          "contactless": "yes"
        },
        "apple_attempted": "2026-06-29"
      }
    },
    {
      "type": "Feature",
      "geometry": {
        "type": "Point",
        "coordinates": [
          11.3658728,
          46.4978153
        ]
      },
      "properties": {
        "id": "tk_itbz_osm_n3685121326",
        "name": "Tabaccheria Piani",
        "address": {
          "street": "Via del Macello - Schlachthofstraße",
          "number": "6",
          "postalcode": "39100",
          "city": "Bolzano - Bozen"
        },
        "sources": [
          {
            "type": "osm",
            "id": "node/3685121326",
            "version": 0
          },
          {
            "type": "apple",
            "id": "6788908956589051056"
          }
        ],
        "created": "2026-05-29",
        "updated": "2026-06-22",
        "hours": {
          "raw": "Mo-Sa 06:00-12:30,15:30-20:00"
        },
        "sources_by_field": {
          "name": "osm",
          "address.street": "osm",
          "address.number": "osm",
          "address.postalcode": "osm",
          "address.city": "osm",
          "hours": "apple",
          "payment.cards": "apple",
          "payment.contactless": "apple"
        },
        "apple_attempted": "2026-05-29",
        "payment": {
          "cards": "yes",
          "contactless": "yes"
        }
      }
    },
    {
      "type": "Feature",
      "geometry": {
        "type": "Point",
        "coordinates": [
          11.2620172,
          46.471693
        ]
      },
      "properties": {
        "id": "tk_itbz_osm_n4171915669",
        "name": "Zeitungen Tabak Arenella",
        "address": {
          "street": "Schloss-Warth-Weg - Strada Castel Guardia",
          "number": "2",
          "postalcode": "39057",
          "city": "St. Pauls - San Paolo"
        },
        "sources": [
          {
            "type": "osm",
            "id": "node/4171915669",
            "version": 0
          },
          {
            "type": "gmaps",
            "id": "ChIJ67-pX5qbgkcRcnty6AoDPUE"
          }
        ],
        "created": "2026-05-29",
        "updated": "2026-06-22",
        "hours": {
          "raw": "Th 07:00-12:00,15:30-19:00; Fr 07:00-12:00,15:30-19:00; We 07:00-12:00,15:30-19:00; Mo 07:00-12:00,15:30-19:00; Sa 07:30-12:00"
        },
        "sources_by_field": {
          "name": "osm",
          "address.street": "osm",
          "address.number": "osm",
          "address.postalcode": "osm",
          "address.city": "osm",
          "hours": "google",
          "payment.cards": "google",
          "payment.contactless": "google",
          "payment.girocard": "google"
        },
        "apple_id_attempted": "2026-06-29",
        "google_attempted": "2026-05-29",
        "payment": {
          "cards": "no",
          "contactless": "yes",
          "girocard": "yes"
        }
      }
    },
    {
      "type": "Feature",
      "geometry": {
        "type": "Point",
        "coordinates": [
          10.7753234,
          46.6245002
        ]
      },
      "properties": {
        "id": "tk_itbz_osm_n4237711091",
        "name": "Walzl",
        "address": {},
        "sources": [
          {
            "type": "osm",
            "id": "node/4237711091",
            "version": 0
          },
          {
            "type": "gmaps",
            "id": "ChIJM3Fj52HngkcRM8Hunbc1Xsw"
          }
        ],
        "created": "2026-05-29",
        "updated": "2026-06-22",
        "sources_by_field": {
          "name": "osm",
          "hours": "google",
          "payment.cards": "google",
          "payment.contactless": "google",
          "payment.girocard": "google"
        },
        "apple_id_attempted": "2026-06-29",
        "google_attempted": "2026-05-29",
        "hours": {
          "raw": "Th 08:00-12:00,14:30-18:30; Fr 08:00-12:00,14:30-18:30; We 08:00-12:00,14:30-18:30; Mo 08:00-12:00,14:30-18:30; Sa 08:00-12:00"
        },
        "payment": {
          "cards": "no",
          "contactless": "yes",
          "girocard": "yes"
        }
      }
    },
    {
      "type": "Feature",
      "geometry": {
        "type": "Point",
        "coordinates": [
          11.3522891,
          46.4957646
        ]
      },
      "properties": {
        "id": "tk_itbz_osm_n4265862446",
        "name": "Tabaccheria Calabrese Antonio",
        "address": {},
        "sources": [
          {
            "type": "osm",
            "id": "node/4265862446",
            "version": 0
          },
          {
            "type": "gmaps",
            "id": "ChIJUTywbwifgkcRGJx-TbFgQ5A"
          }
        ],
        "created": "2026-05-29",
        "updated": "2026-06-22",
        "sources_by_field": {
          "name": "osm",
          "hours": "google"
        },
        "apple_id_attempted": "2026-06-29",
        "google_attempted": "2026-06-29",
        "hours": {
          "raw": "Tu 05:20-19:00; Th 05:20-19:00; Fr 05:20-19:00; We 05:20-19:00; Mo 05:20-19:00; Sa 05:20-19:00; Su 06:30-12:00"
        },
        "payment": {}
      }
    },
    {
      "type": "Feature",
      "geometry": {
        "type": "Point",
        "coordinates": [
          11.3583459,
          46.496755
        ]
      },
      "properties": {
        "id": "tk_itbz_osm_n4361657615",
        "name": "Edicola Stazione F.S.",
        "address": {},
        "sources": [
          {
            "type": "osm",
            "id": "node/4361657615",
            "version": 0
          },
          {
            "type": "gmaps",
            "id": "ChIJvbdPQXeegkcRCbe5sSzHkKQ"
          }
        ],
        "created": "2026-05-29",
        "updated": "2026-06-22",
        "hours": {
          "raw": "Tu 06:00-14:00; Th 06:00-18:00; Fr 06:00-18:00; We 06:00-18:00; Mo 06:00-18:00; Sa 06:00-18:00"
        },
        "tags": [
          "barrierefrei"
        ],
        "sources_by_field": {
          "name": "osm",
          "hours": "google",
          "payment.cards": "google",
          "payment.contactless": "google",
          "payment.girocard": "google"
        },
        "apple_id_attempted": "2026-06-29",
        "google_attempted": "2026-05-29",
        "payment": {
          "cards": "no",
          "contactless": "yes",
          "girocard": "yes"
        }
      }
    },
    {
      "type": "Feature",
      "geometry": {
        "type": "Point",
        "coordinates": [
          11.2987297,
          46.3488828
        ]
      },
      "properties": {
        "id": "tk_itbz_osm_n4490990489",
        "name": "NewDrinkShop",
        "address": {},
        "sources": [
          {
            "type": "osm",
            "id": "node/4490990489",
            "version": 0
          },
          {
            "type": "gmaps",
            "id": "ChIJZaFd6SWCgkcR2yXctxENpkg"
          }
        ],
        "created": "2026-05-29",
        "updated": "2026-06-22",
        "sources_by_field": {
          "name": "osm",
          "payment.cards": "google",
          "payment.contactless": "google",
          "payment.girocard": "google"
        },
        "apple_id_attempted": "2026-06-29",
        "google_attempted": "2026-06-29",
        "payment": {
          "cards": "no",
          "contactless": "yes",
          "girocard": "yes"
        }
      }
    },
    {
      "type": "Feature",
      "geometry": {
        "type": "Point",
        "coordinates": [
          11.4299618,
          46.9034784
        ]
      },
      "properties": {
        "id": "tk_itbz_osm_n4589331369",
        "name": "Martins Getränke",
        "address": {},
        "sources": [
          {
            "type": "osm",
            "id": "node/4589331369",
            "version": 0
          },
          {
            "type": "gmaps",
            "id": "ChIJqwDzBxNTnUcRGIyMJKIJ2dI"
          }
        ],
        "created": "2026-05-29",
        "updated": "2026-06-22",
        "sources_by_field": {
          "name": "osm",
          "hours": "google",
          "payment.cards": "google",
          "payment.contactless": "google",
          "payment.girocard": "google"
        },
        "apple_id_attempted": "2026-06-29",
        "google_attempted": "2026-05-29",
        "hours": {
          "raw": "Tu 08:30-12:30,15:00-19:00; Th 08:30-12:30,15:00-19:00; Fr 08:30-12:30,15:00-19:00; We 08:30-12:30,15:00-19:00; Mo 08:30-12:30,15:00-19:00; Sa 08:30-12:30,15:00-18:00"
        },
        "payment": {
          "cards": "no",
          "contactless": "yes",
          "girocard": "yes"
        }
      }
    },
    {
      "type": "Feature",
      "geometry": {
        "type": "Point",
        "coordinates": [
          11.8358995,
          46.8070174
        ]
      },
      "properties": {
        "id": "tk_itbz_osm_n4630770289",
        "name": "Harrasser",
        "address": {},
        "sources": [
          {
            "type": "osm",
            "id": "node/4630770289",
            "version": 0
          },
          {
            "type": "gmaps",
            "id": "ChIJLRkpSHAeeEcRgFb2IYPWebc"
          }
        ],
        "created": "2026-05-29",
        "updated": "2026-06-22",
        "sources_by_field": {
          "name": "osm",
          "hours": "google",
          "payment.cards": "google",
          "payment.girocard": "google"
        },
        "apple_id_attempted": "2026-06-29",
        "google_attempted": "2026-05-29",
        "hours": {
          "raw": "Tu 08:00-12:00,15:00-18:30; Th 08:00-12:00,15:00-18:30; Fr 08:00-12:00,15:00-18:30; We 08:00-12:00,15:00-18:30; Mo 08:00-12:00,15:00-18:30; Sa 08:00-12:00"
        },
        "payment": {
          "cards": "no",
          "girocard": "yes"
        }
      }
    },
    {
      "type": "Feature",
      "geometry": {
        "type": "Point",
        "coordinates": [
          10.6435267,
          46.6298577
        ]
      },
      "properties": {
        "id": "tk_itbz_osm_n4635823489",
        "name": "Pronto",
        "address": {
          "postalcode": "39023"
        },
        "sources": [
          {
            "type": "osm",
            "id": "node/4635823489",
            "version": 0
          },
          {
            "type": "gmaps",
            "id": "ChIJoUHRSOMfg0cRGIccFwqsDRM"
          }
        ],
        "created": "2026-05-29",
        "updated": "2026-06-22",
        "sources_by_field": {
          "name": "osm",
          "address.postalcode": "osm",
          "hours": "google",
          "payment.cards": "google",
          "payment.contactless": "google",
          "payment.girocard": "google"
        },
        "apple_id_attempted": "2026-06-29",
        "google_attempted": "2026-05-29",
        "hours": {
          "raw": "Tu 09:00-19:00; Th 09:00-19:00; Fr 09:00-19:00; We 09:00-19:00; Mo 09:00-19:00; Sa 09:00-18:00; Su 10:00-18:00"
        },
        "payment": {
          "cards": "yes",
          "contactless": "yes",
          "girocard": "yes"
        }
      }
    },
    {
      "type": "Feature",
      "geometry": {
        "type": "Point",
        "coordinates": [
          11.6658468,
          46.7137728
        ]
      },
      "properties": {
        "id": "tk_itbz_osm_n767946697",
        "name": "Vonklausner",
        "address": {},
        "sources": [
          {
            "type": "osm",
            "id": "node/767946697",
            "version": 0
          },
          {
            "type": "apple",
            "id": "9029962366871396466"
          }
        ],
        "created": "2026-05-29",
        "updated": "2026-06-22",
        "sources_by_field": {
          "name": "osm",
          "hours": "apple",
          "payment.cards": "apple",
          "payment.contactless": "apple"
        },
        "apple_attempted": "2026-05-29",
        "hours": {
          "raw": "Mo-Fr 13:30-18:00; Mo-Sa 08:00-12:00"
        },
        "payment": {
          "cards": "yes",
          "contactless": "yes"
        }
      }
    },
    {
      "type": "Feature",
      "geometry": {
        "type": "Point",
        "coordinates": [
          11.1543014,
          46.6136838
        ]
      },
      "properties": {
        "id": "tk_itbz_osm_n7726096162",
        "name": "Lana Drink",
        "address": {},
        "sources": [
          {
            "type": "osm",
            "id": "node/7726096162",
            "version": 0
          },
          {
            "type": "apple",
            "id": "4119459617544235976"
          }
        ],
        "created": "2026-05-29",
        "updated": "2026-06-22",
        "hours": {
          "raw": "Mo-Fr 08:00-12:00,15:00-18:30; Sa 08:00-12:00"
        },
        "sources_by_field": {
          "name": "osm",
          "hours": "apple",
          "payment.cards": "apple",
          "payment.contactless": "apple"
        },
        "apple_attempted": "2026-05-29",
        "payment": {
          "cards": "yes",
          "contactless": "yes"
        }
      }
    },
    {
      "type": "Feature",
      "geometry": {
        "type": "Point",
        "coordinates": [
          11.5047578,
          46.5175244
        ]
      },
      "properties": {
        "id": "tk_itbz_osm_n7738043551",
        "name": "Gross",
        "address": {},
        "sources": [
          {
            "type": "osm",
            "id": "node/7738043551",
            "version": 0
          },
          {
            "type": "gmaps",
            "id": "ChIJuQTkBlFzeEcRHUJ9HaHM9wE"
          }
        ],
        "created": "2026-05-29",
        "updated": "2026-06-22",
        "sources_by_field": {
          "name": "osm",
          "hours": "google",
          "payment.cards": "google",
          "payment.contactless": "google",
          "payment.girocard": "google"
        },
        "apple_id_attempted": "2026-06-29",
        "google_attempted": "2026-05-29",
        "hours": {
          "raw": "Tu 09:00-12:00,15:30-18:30; Th 09:00-12:00,15:30-18:30; Fr 09:00-12:00,15:30-18:30; We 09:00-12:00,15:30-18:30; Sa 09:00-12:00,15:30-18:30"
        },
        "payment": {
          "cards": "yes",
          "contactless": "yes",
          "girocard": "yes"
        }
      }
    },
    {
      "type": "Feature",
      "geometry": {
        "type": "Point",
        "coordinates": [
          11.66844,
          46.7983298
        ]
      },
      "properties": {
        "id": "tk_itbz_osm_n8790295288",
        "name": "Weinpunkt Kammerer",
        "address": {},
        "sources": [
          {
            "type": "osm",
            "id": "node/8790295288",
            "version": 0
          },
          {
            "type": "apple",
            "id": "9534079579664786686"
          },
          {
            "type": "gmaps",
            "id": "ChIJ00OHC6cDeEcRXoV7EEMgvIU"
          }
        ],
        "created": "2026-05-29",
        "updated": "2026-06-22",
        "sources_by_field": {
          "name": "osm",
          "hours": "google",
          "payment.cards": "google",
          "payment.contactless": "google",
          "payment.girocard": "google"
        },
        "apple_attempted": "2026-05-29",
        "google_attempted": "2026-05-29",
        "hours": {
          "raw": "Tu 08:30-12:00,14:00-18:00; Th 08:30-12:00,14:00-18:00; Fr 08:30-12:00,14:00-18:00; We 08:30-12:00,14:00-18:00; Mo 08:30-12:00,14:00-18:00; Sa 08:30-12:00"
        },
        "payment": {
          "cards": "no",
          "contactless": "yes",
          "girocard": "yes"
        }
      }
    },
    {
      "type": "Feature",
      "geometry": {
        "type": "Point",
        "coordinates": [
          11.9173563,
          46.7870228
        ]
      },
      "properties": {
        "id": "tk_itbz_osm_n8796319258",
        "name": "Scheibers",
        "address": {},
        "sources": [
          {
            "type": "osm",
            "id": "node/8796319258",
            "version": 0
          },
          {
            "type": "gmaps",
            "id": "ChIJxy3kcX8feEcR47Yx2bsM2aM"
          }
        ],
        "created": "2026-05-29",
        "updated": "2026-06-22",
        "hours": {
          "raw": "Tu 08:30-12:00,14:30-18:30; Th 08:30-12:00,14:30-18:30; Fr 08:30-12:00,14:30-18:30; We 08:30-12:00,14:30-18:30; Mo 08:30-12:00,14:30-18:30; Sa 08:30-12:00"
        },
        "sources_by_field": {
          "name": "osm",
          "hours": "google",
          "payment.cards": "google",
          "payment.contactless": "google",
          "payment.girocard": "google"
        },
        "apple_id_attempted": "2026-06-29",
        "google_attempted": "2026-05-29",
        "payment": {
          "cards": "no",
          "contactless": "yes",
          "girocard": "yes"
        }
      }
    },
    {
      "type": "Feature",
      "geometry": {
        "type": "Point",
        "coordinates": [
          11.6613222,
          46.7102744
        ]
      },
      "properties": {
        "id": "tk_itbz_osm_n927290573",
        "name": "Martin's",
        "address": {},
        "sources": [
          {
            "type": "osm",
            "id": "node/927290573",
            "version": 0
          },
          {
            "type": "gmaps",
            "id": "ChIJBYI3X2oFeEcRWpMIeX_BP3A"
          }
        ],
        "created": "2026-05-29",
        "updated": "2026-06-22",
        "sources_by_field": {
          "name": "osm"
        },
        "apple_id_attempted": "2026-06-29",
        "google_attempted": "2026-06-29",
        "payment": {}
      }
    },
    {
      "type": "Feature",
      "geometry": {
        "type": "Point",
        "coordinates": [
          10.5625044,
          46.6708832
        ]
      },
      "properties": {
        "id": "tk_itbz_osm_w100463362",
        "name": "Walzl Getränke GmbH",
        "address": {
          "street": "Max-Valier-Straße - Via Max Valier",
          "number": "5",
          "postalcode": "39020",
          "city": "Glurns - Glorenza"
        },
        "sources": [
          {
            "type": "osm",
            "id": "way/100463362",
            "version": 0
          },
          {
            "type": "apple",
            "id": "12587956180762024"
          }
        ],
        "created": "2026-05-29",
        "updated": "2026-06-22",
        "hours": {
          "raw": "Mo-Fr 08:00-12:00,14:30-18:30; Sa 08:00-12:00"
        },
        "sources_by_field": {
          "name": "osm",
          "address.street": "osm",
          "address.number": "osm",
          "address.postalcode": "osm",
          "address.city": "osm",
          "hours": "apple",
          "payment.cards": "apple",
          "payment.contactless": "apple"
        },
        "apple_attempted": "2026-05-29",
        "payment": {
          "cards": "yes",
          "contactless": "yes"
        }
      }
    },
    {
      "type": "Feature",
      "geometry": {
        "type": "Point",
        "coordinates": [
          11.2278599,
          46.2413569
        ]
      },
      "properties": {
        "id": "tk_itbz_osm_w115377791",
        "name": "Ansitz Dornach Tenuta",
        "address": {
          "street": "Via Dorna - Dornachstraße",
          "number": "12",
          "postalcode": "39040",
          "city": "Salorno - Salurn"
        },
        "sources": [
          {
            "type": "osm",
            "id": "way/115377791",
            "version": 0
          },
          {
            "type": "apple",
            "id": "7748587750589543652"
          }
        ],
        "created": "2026-05-29",
        "updated": "2026-06-22",
        "sources_by_field": {
          "name": "osm",
          "address.street": "osm",
          "address.number": "osm",
          "address.postalcode": "osm",
          "address.city": "osm",
          "hours": "apple",
          "payment.cards": "apple",
          "payment.contactless": "apple"
        },
        "apple_attempted": "2026-05-29",
        "hours": {
          "raw": "Su 12:00-16:00; Mo 09:00-12:00,14:00-17:30; Tu-Th 09:00-17:30; Fr 11:00-17:30; Sa 11:00-21:30"
        },
        "payment": {
          "cards": "yes",
          "contactless": "yes"
        }
      }
    },
    {
      "type": "Feature",
      "geometry": {
        "type": "Point",
        "coordinates": [
          11.3298286,
          46.4923639
        ]
      },
      "properties": {
        "id": "tk_itbz_osm_w124051997",
        "name": "da Pino e Lella",
        "address": {},
        "sources": [
          {
            "type": "osm",
            "id": "way/124051997",
            "version": 0
          },
          {
            "type": "apple",
            "id": "1722561805095586773"
          }
        ],
        "created": "2026-05-29",
        "updated": "2026-06-22",
        "sources_by_field": {
          "name": "osm",
          "hours": "apple",
          "payment.cards": "apple",
          "payment.contactless": "apple"
        },
        "apple_attempted": "2026-05-29",
        "hours": {
          "raw": "Mo-Tu 15:30-20:00; We 07:30-20:00; Th-Fr 07:30-19:00"
        },
        "payment": {
          "cards": "yes",
          "contactless": "yes"
        }
      }
    },
    {
      "type": "Feature",
      "geometry": {
        "type": "Point",
        "coordinates": [
          11.8954245,
          46.8141966
        ]
      },
      "properties": {
        "id": "tk_itbz_osm_w146405146",
        "name": "Happler",
        "address": {},
        "sources": [
          {
            "type": "osm",
            "id": "way/146405146",
            "version": 0
          },
          {
            "type": "gmaps",
            "id": "ChIJ9V6LgsYfeEcR9ka9HMr5qmY"
          }
        ],
        "created": "2026-05-29",
        "updated": "2026-06-22",
        "sources_by_field": {
          "name": "osm",
          "payment.cards": "google",
          "payment.girocard": "google"
        },
        "apple_id_attempted": "2026-06-29",
        "google_attempted": "2026-06-29",
        "payment": {
          "cards": "yes",
          "girocard": "yes"
        }
      }
    },
    {
      "type": "Feature",
      "geometry": {
        "type": "Point",
        "coordinates": [
          11.5405596,
          46.429366
        ]
      },
      "properties": {
        "id": "tk_itbz_osm_w208620065",
        "name": "Getränke Holzknecht",
        "address": {},
        "sources": [
          {
            "type": "osm",
            "id": "way/208620065",
            "version": 0
          },
          {
            "type": "apple",
            "id": "5981516199021319621"
          }
        ],
        "created": "2026-05-29",
        "updated": "2026-06-22",
        "sources_by_field": {
          "name": "osm",
          "hours": "apple",
          "payment.cards": "apple",
          "payment.contactless": "apple"
        },
        "apple_attempted": "2026-05-29",
        "hours": {
          "raw": "Mo-We,Fr 08:00-12:00,15:30-19:00; Th,Sa 08:00-12:00"
        },
        "payment": {
          "cards": "yes",
          "contactless": "yes"
        }
      }
    },
    {
      "type": "Feature",
      "geometry": {
        "type": "Point",
        "coordinates": [
          11.2403983,
          46.2945835
        ]
      },
      "properties": {
        "id": "tk_itbz_osm_w217477106",
        "name": "New Drink GmbH",
        "address": {},
        "sources": [
          {
            "type": "osm",
            "id": "way/217477106",
            "version": 0
          },
          {
            "type": "gmaps",
            "id": "ChIJFR_rGMCAgkcRfbmzTPoHc1I"
          }
        ],
        "created": "2026-05-29",
        "updated": "2026-06-22",
        "sources_by_field": {
          "name": "osm",
          "hours": "google",
          "payment.cards": "google",
          "payment.contactless": "google",
          "payment.girocard": "google"
        },
        "apple_id_attempted": "2026-06-29",
        "google_attempted": "2026-05-29",
        "hours": {
          "raw": "Tu 08:00-12:00,13:00-17:00; Th 08:00-12:00,13:00-17:00; Fr 08:00-12:00,13:00-17:00; We 08:00-12:00,13:00-17:00; Mo 08:00-12:00,13:00-17:00"
        },
        "payment": {
          "cards": "no",
          "contactless": "yes",
          "girocard": "yes"
        }
      }
    },
    {
      "type": "Feature",
      "geometry": {
        "type": "Point",
        "coordinates": [
          12.0869896,
          46.7050307
        ]
      },
      "properties": {
        "id": "tk_itbz_osm_w839945117",
        "name": "kiosk parking Pragser Wildsee - Lago di Braies",
        "address": {
          "street": "Sankt Veit - Via San Vito",
          "number": "38",
          "postalcode": "39030",
          "city": "Prags - Braies"
        },
        "sources": [
          {
            "type": "osm",
            "id": "way/839945117",
            "version": 0
          },
          {
            "type": "apple",
            "id": "4071712340908328950"
          }
        ],
        "created": "2026-05-29",
        "updated": "2026-06-22",
        "hours": {
          "raw": "Mo-Su 08:00-20:00"
        },
        "tags": [
          "draussen"
        ],
        "sources_by_field": {
          "name": "osm",
          "address.street": "osm",
          "address.number": "osm",
          "address.postalcode": "osm",
          "address.city": "osm",
          "hours": "osm",
          "payment.cards": "apple",
          "payment.contactless": "apple"
        },
        "apple_attempted": "2026-05-29",
        "payment": {
          "cards": "yes",
          "contactless": "yes"
        }
      }
    },
    {
      "type": "Feature",
      "geometry": {
        "type": "Point",
        "coordinates": [
          11.1596035,
          46.6681525
        ]
      },
      "properties": {
        "id": "tk_itbz_osm_n12001149771",
        "name": "Bistro Therme Meran",
        "address": {},
        "sources": [
          {
            "type": "osm",
            "id": "node/12001149771",
            "version": 0
          },
          {
            "type": "apple",
            "id": "14660545744373478100"
          }
        ],
        "created": "2026-05-29",
        "updated": "2026-06-29",
        "sources_by_field": {
          "name": "osm",
          "payment.cards": "apple",
          "payment.contactless": "apple",
          "hours": "apple"
        },
        "google_attempted": "2026-05-29",
        "payment": {
          "cards": "yes",
          "contactless": "yes"
        },
        "hours": {
          "raw": "Mo-Su 09:00-21:00"
        },
        "apple_attempted": "2026-06-29"
      }
    },
    {
      "type": "Feature",
      "geometry": {
        "type": "Point",
        "coordinates": [
          11.210042,
          46.2404624
        ]
      },
      "properties": {
        "id": "tk_itbz_osm_n1250591393",
        "name": "Edicola / tabacchi -Tabakwaren / Kiosk",
        "address": {
          "street": "Via Roma - Romstraße",
          "number": "5",
          "postalcode": "39040",
          "city": "Salorno"
        },
        "sources": [
          {
            "type": "osm",
            "id": "node/1250591393",
            "version": 0
          }
        ],
        "created": "2026-05-29",
        "updated": "2026-06-22",
        "sources_by_field": {
          "name": "osm",
          "address.street": "osm",
          "address.number": "osm",
          "address.postalcode": "osm",
          "address.city": "osm"
        },
        "apple_id_attempted": "2026-06-29",
        "google_attempted": "2026-06-29",
        "payment": {}
      }
    },
    {
      "type": "Feature",
      "geometry": {
        "type": "Point",
        "coordinates": [
          10.8529346,
          46.6186936
        ]
      },
      "properties": {
        "id": "tk_itbz_osm_n1801573740",
        "name": "Pronto",
        "address": {},
        "sources": [
          {
            "type": "osm",
            "id": "node/1801573740",
            "version": 0
          }
        ],
        "created": "2026-05-29",
        "updated": "2026-06-22",
        "sources_by_field": {
          "name": "osm"
        },
        "apple_id_attempted": "2026-06-29",
        "google_attempted": "2026-06-29",
        "payment": {}
      }
    },
    {
      "type": "Feature",
      "geometry": {
        "type": "Point",
        "coordinates": [
          11.655382,
          46.7161735
        ]
      },
      "properties": {
        "id": "tk_itbz_osm_n1929372414",
        "name": "Unterkofler",
        "address": {},
        "sources": [
          {
            "type": "osm",
            "id": "node/1929372414",
            "version": 0
          },
          {
            "type": "gmaps",
            "id": "ChIJidnySGsFeEcRuWh_f_pewiM"
          }
        ],
        "created": "2026-05-29",
        "updated": "2026-06-29",
        "sources_by_field": {
          "name": "osm",
          "payment.cards": "google",
          "payment.contactless": "google",
          "payment.girocard": "google",
          "hours": "google"
        },
        "apple_id_attempted": "2026-06-29",
        "google_attempted": "2026-06-29",
        "payment": {
          "cards": "yes",
          "contactless": "yes",
          "girocard": "yes"
        },
        "hours": {
          "raw": "Tu 06:30-13:00,14:45-18:30; Th 06:30-13:00,14:45-18:30; Fr 06:30-13:00,14:45-18:30; We 06:30-13:00,14:45-18:30; Mo 06:30-13:00,14:45-18:30; Sa 07:30-13:00; Su 07:30-10:30"
        }
      }
    },
    {
      "type": "Feature",
      "geometry": {
        "type": "Point",
        "coordinates": [
          11.6521478,
          46.7134254
        ]
      },
      "properties": {
        "id": "tk_itbz_osm_n1929381361",
        "name": "Alberti Newspapers",
        "address": {},
        "sources": [
          {
            "type": "osm",
            "id": "node/1929381361",
            "version": 0
          }
        ],
        "created": "2026-05-29",
        "updated": "2026-06-22",
        "sources_by_field": {
          "name": "osm"
        },
        "apple_id_attempted": "2026-06-29",
        "google_attempted": "2026-06-29",
        "payment": {}
      }
    },
    {
      "type": "Feature",
      "geometry": {
        "type": "Point",
        "coordinates": [
          11.1582641,
          46.6662525
        ]
      },
      "properties": {
        "id": "tk_itbz_osm_n227022233",
        "name": "Eni",
        "address": {},
        "sources": [
          {
            "type": "osm",
            "id": "node/227022233",
            "version": 0
          }
        ],
        "created": "2026-05-29",
        "updated": "2026-06-22",
        "sources_by_field": {
          "name": "osm"
        },
        "apple_id_attempted": "2026-06-29",
        "google_attempted": "2026-06-29",
        "payment": {}
      }
    },
    {
      "type": "Feature",
      "geometry": {
        "type": "Point",
        "coordinates": [
          12.2812623,
          46.7328186
        ]
      },
      "properties": {
        "id": "tk_itbz_osm_n2333491051",
        "name": "Tabak- Trafik",
        "address": {},
        "sources": [
          {
            "type": "osm",
            "id": "node/2333491051",
            "version": 0
          }
        ],
        "created": "2026-05-29",
        "updated": "2026-06-22",
        "sources_by_field": {
          "name": "osm"
        },
        "apple_id_attempted": "2026-06-29",
        "google_attempted": "2026-06-29",
        "payment": {}
      }
    },
    {
      "type": "Feature",
      "geometry": {
        "type": "Point",
        "coordinates": [
          11.6500706,
          46.7071612
        ]
      },
      "properties": {
        "id": "tk_itbz_osm_n2453441246",
        "name": "Eurodrink",
        "address": {},
        "sources": [
          {
            "type": "osm",
            "id": "node/2453441246",
            "version": 0
          }
        ],
        "created": "2026-05-29",
        "updated": "2026-06-22",
        "sources_by_field": {
          "name": "osm"
        },
        "apple_id_attempted": "2026-06-29",
        "google_attempted": "2026-06-29",
        "payment": {}
      }
    },
    {
      "type": "Feature",
      "geometry": {
        "type": "Point",
        "coordinates": [
          12.2793184,
          46.7346621
        ]
      },
      "properties": {
        "id": "tk_itbz_osm_n2466559955",
        "name": "Drink Market",
        "address": {
          "street": "Ignaz-Mantinger-Straße - Via Ignaz Mantinger",
          "number": "1a",
          "postalcode": "39038",
          "city": "Innichen - San Candido"
        },
        "sources": [
          {
            "type": "osm",
            "id": "node/2466559955",
            "version": 0
          }
        ],
        "created": "2026-05-29",
        "updated": "2026-06-22",
        "hours": {
          "raw": "Mo-Sa 08:30-12:15,15:00-18:15"
        },
        "payment": {
          "cash": "unknown",
          "cards": "unknown",
          "contactless": "yes",
          "girocard": "unknown"
        },
        "sources_by_field": {
          "name": "osm",
          "address.street": "osm",
          "address.number": "osm",
          "address.postalcode": "osm",
          "address.city": "osm",
          "hours": "osm",
          "payment.cash": "osm",
          "payment.cards": "osm",
          "payment.contactless": "osm",
          "payment.girocard": "osm"
        },
        "apple_id_attempted": "2026-06-29"
      }
    },
    {
      "type": "Feature",
      "geometry": {
        "type": "Point",
        "coordinates": [
          11.6535918,
          46.7266786
        ]
      },
      "properties": {
        "id": "tk_itbz_osm_n2469143929",
        "name": "Martin's",
        "address": {},
        "sources": [
          {
            "type": "osm",
            "id": "node/2469143929",
            "version": 0
          }
        ],
        "created": "2026-05-29",
        "updated": "2026-06-22",
        "hours": {
          "raw": "Mo-Sa 08:30-12:30, Mo-Fr 14:00-19:00"
        },
        "tags": [
          "barrierefrei"
        ],
        "sources_by_field": {
          "name": "osm",
          "hours": "osm"
        },
        "apple_id_attempted": "2026-06-29",
        "google_attempted": "2026-06-29",
        "payment": {}
      }
    },
    {
      "type": "Feature",
      "geometry": {
        "type": "Point",
        "coordinates": [
          11.2269209,
          46.7818019
        ]
      },
      "properties": {
        "id": "tk_itbz_osm_n3235511131",
        "name": "Tabacchi",
        "address": {},
        "sources": [
          {
            "type": "osm",
            "id": "node/3235511131",
            "version": 0
          }
        ],
        "created": "2026-05-29",
        "updated": "2026-06-22",
        "sources_by_field": {
          "name": "osm"
        },
        "apple_id_attempted": "2026-06-29",
        "google_attempted": "2026-07-05",
        "payment": {}
      }
    },
    {
      "type": "Feature",
      "geometry": {
        "type": "Point",
        "coordinates": [
          11.1466515,
          46.6513718
        ]
      },
      "properties": {
        "id": "tk_itbz_osm_n4437102196",
        "name": "Market Conad",
        "address": {},
        "sources": [
          {
            "type": "osm",
            "id": "node/4437102196",
            "version": 0
          }
        ],
        "created": "2026-05-29",
        "updated": "2026-06-22",
        "sources_by_field": {
          "name": "osm"
        },
        "apple_id_attempted": "2026-06-29",
        "google_attempted": "2026-07-05",
        "payment": {}
      }
    },
    {
      "type": "Feature",
      "geometry": {
        "type": "Point",
        "coordinates": [
          11.2594589,
          46.3847935
        ]
      },
      "properties": {
        "id": "tk_itbz_osm_n5089093546",
        "name": "Lido Kiosk",
        "address": {},
        "sources": [
          {
            "type": "osm",
            "id": "node/5089093546",
            "version": 0
          }
        ],
        "created": "2026-05-29",
        "updated": "2026-06-22",
        "sources_by_field": {
          "name": "osm"
        },
        "apple_id_attempted": "2026-06-29",
        "google_attempted": "2026-07-05",
        "payment": {}
      }
    },
    {
      "type": "Feature",
      "geometry": {
        "type": "Point",
        "coordinates": [
          11.3252466,
          46.4960336
        ]
      },
      "properties": {
        "id": "tk_itbz_osm_n5150486400",
        "name": "Tabaccheria",
        "address": {},
        "sources": [
          {
            "type": "osm",
            "id": "node/5150486400",
            "version": 0
          }
        ],
        "created": "2026-05-29",
        "updated": "2026-06-22",
        "sources_by_field": {
          "name": "osm"
        },
        "apple_id_attempted": "2026-06-29",
        "google_attempted": "2026-07-05",
        "payment": {}
      }
    },
    {
      "type": "Feature",
      "geometry": {
        "type": "Point",
        "coordinates": [
          11.3419427,
          46.4820832
        ]
      },
      "properties": {
        "id": "tk_itbz_osm_n538835828",
        "name": "Stazione rlilevamento situazione aria - Luftmessstation BZ4",
        "address": {},
        "sources": [
          {
            "type": "osm",
            "id": "node/538835828",
            "version": 0
          }
        ],
        "created": "2026-05-29",
        "updated": "2026-06-22",
        "sources_by_field": {
          "name": "osm"
        },
        "apple_id_attempted": "2026-06-29",
        "google_attempted": "2026-07-05",
        "payment": {}
      }
    },
    {
      "type": "Feature",
      "geometry": {
        "type": "Point",
        "coordinates": [
          11.6853954,
          46.5679391
        ]
      },
      "properties": {
        "id": "tk_itbz_osm_n5953395596",
        "name": "Eni Insam",
        "address": {
          "street": "Streda Tresval",
          "number": "82",
          "postalcode": "39046",
          "city": "Urtijëi - St.Ulrich - Ortisei"
        },
        "sources": [
          {
            "type": "osm",
            "id": "node/5953395596",
            "version": 0
          }
        ],
        "created": "2026-05-29",
        "updated": "2026-06-22",
        "sources_by_field": {
          "name": "osm",
          "address.street": "osm",
          "address.number": "osm",
          "address.postalcode": "osm",
          "address.city": "osm"
        },
        "apple_id_attempted": "2026-06-29",
        "google_attempted": "2026-07-05",
        "payment": {}
      }
    },
    {
      "type": "Feature",
      "geometry": {
        "type": "Point",
        "coordinates": [
          11.1606386,
          46.6690541
        ]
      },
      "properties": {
        "id": "tk_itbz_osm_n651347376",
        "name": "Bistro",
        "address": {},
        "sources": [
          {
            "type": "osm",
            "id": "node/651347376",
            "version": 0
          }
        ],
        "created": "2026-05-29",
        "updated": "2026-06-22",
        "tags": [
          "barrierefrei",
          "draussen",
          "raucherbereich",
          "sitzgelegenheiten"
        ],
        "sources_by_field": {
          "name": "osm"
        },
        "apple_id_attempted": "2026-06-29",
        "google_attempted": "2026-07-05",
        "payment": {}
      }
    },
    {
      "type": "Feature",
      "geometry": {
        "type": "Point",
        "coordinates": [
          11.9273801,
          46.7982533
        ]
      },
      "properties": {
        "id": "tk_itbz_osm_n8796331370",
        "name": "Harpf",
        "address": {
          "street": "Nordring",
          "number": "15"
        },
        "sources": [
          {
            "type": "osm",
            "id": "node/8796331370",
            "version": 0
          }
        ],
        "created": "2026-05-29",
        "updated": "2026-06-22",
        "sources_by_field": {
          "name": "osm",
          "address.street": "osm",
          "address.number": "osm"
        },
        "apple_id_attempted": "2026-06-29",
        "google_attempted": "2026-07-05",
        "payment": {}
      }
    },
    {
      "type": "Feature",
      "geometry": {
        "type": "Point",
        "coordinates": [
          11.4326074,
          46.8970406
        ]
      },
      "properties": {
        "id": "tk_itbz_osm_n931740684",
        "name": "Sterzinger Keller",
        "address": {},
        "sources": [
          {
            "type": "osm",
            "id": "node/931740684",
            "version": 0
          }
        ],
        "created": "2026-05-29",
        "updated": "2026-06-22",
        "sources_by_field": {
          "name": "osm"
        },
        "apple_id_attempted": "2026-06-29",
        "google_attempted": "2026-07-05",
        "payment": {}
      }
    },
    {
      "type": "Feature",
      "geometry": {
        "type": "Point",
        "coordinates": [
          11.1773418,
          46.5624692
        ]
      },
      "properties": {
        "id": "tk_itbz_osm_n9927791843",
        "name": "Shop camping Tisens",
        "address": {},
        "sources": [
          {
            "type": "osm",
            "id": "node/9927791843",
            "version": 0
          }
        ],
        "created": "2026-05-29",
        "updated": "2026-06-22",
        "hours": {
          "raw": "08:00+; Mo off"
        },
        "payment": {
          "cash": "unknown",
          "cards": "yes",
          "contactless": "unknown",
          "girocard": "unknown"
        },
        "tags": [
          "barrierefrei"
        ],
        "sources_by_field": {
          "name": "osm",
          "hours": "osm",
          "payment.cash": "osm",
          "payment.cards": "osm",
          "payment.contactless": "osm",
          "payment.girocard": "osm"
        },
        "apple_id_attempted": "2026-06-29"
      }
    },
    {
      "type": "Feature",
      "geometry": {
        "type": "Point",
        "coordinates": [
          11.120307,
          46.8933139
        ]
      },
      "properties": {
        "id": "tk_itbz_osm_w1071643114",
        "name": "Plauser Speckladele",
        "address": {},
        "sources": [
          {
            "type": "osm",
            "id": "way/1071643114",
            "version": 0
          }
        ],
        "created": "2026-05-29",
        "updated": "2026-06-22",
        "sources_by_field": {
          "name": "osm"
        },
        "apple_id_attempted": "2026-06-29",
        "google_attempted": "2026-07-05",
        "payment": {}
      }
    },
    {
      "type": "Feature",
      "geometry": {
        "type": "Point",
        "coordinates": [
          10.5448983,
          46.6854778
        ]
      },
      "properties": {
        "id": "tk_itbz_osm_w126127499",
        "name": "Getränke I. M. Weissenhorn",
        "address": {
          "street": "Pardellesweg - Via Pardelles",
          "number": "26",
          "postalcode": "39024",
          "city": "Mals - Malles Venosta"
        },
        "sources": [
          {
            "type": "osm",
            "id": "way/126127499",
            "version": 0
          }
        ],
        "created": "2026-05-29",
        "updated": "2026-06-22",
        "hours": {
          "raw": "Mo-Fr 08:00-12:00,13:00-18:00; Sa 08:00-12:00; Su off"
        },
        "sources_by_field": {
          "name": "osm",
          "address.street": "osm",
          "address.number": "osm",
          "address.postalcode": "osm",
          "address.city": "osm",
          "hours": "osm"
        },
        "apple_id_attempted": "2026-06-29",
        "google_attempted": "2026-07-05",
        "payment": {}
      }
    },
    {
      "type": "Feature",
      "geometry": {
        "type": "Point",
        "coordinates": [
          11.5005126,
          46.5194017
        ]
      },
      "properties": {
        "id": "tk_itbz_osm_w338023223",
        "name": "Spögler",
        "address": {},
        "sources": [
          {
            "type": "osm",
            "id": "way/338023223",
            "version": 0
          }
        ],
        "created": "2026-05-29",
        "updated": "2026-06-22",
        "sources_by_field": {
          "name": "osm"
        },
        "apple_id_attempted": "2026-06-29",
        "google_attempted": "2026-07-05",
        "payment": {}
      }
    }
  ]
}
