{
  "type": "FeatureCollection",
  "features": [
    {
      "type": "Feature",
      "geometry": {
        "type": "Point",
        "coordinates": [
          9.6823816,
          47.1827596
        ]
      },
      "properties": {
        "id": "tk_at8r_osm_n10300301157",
        "name": "Alpladen",
        "address": {},
        "sources": [
          {
            "type": "osm",
            "id": "node/10300301157",
            "version": 0
          }
        ],
        "created": "2026-05-29",
        "updated": "2026-05-29",
        "hours": {
          "raw": "Mo-Su 08:00-11:00,15:00-18:00"
        },
        "payment": {
          "cash": "unknown",
          "cards": "yes",
          "contactless": "unknown",
          "girocard": "unknown"
        },
        "tags": [
          "barrierefrei"
        ],
        "sources_by_field": {
          "name": "osm",
          "hours": "osm",
          "payment.cash": "osm",
          "payment.cards": "osm",
          "payment.contactless": "osm",
          "payment.girocard": "osm"
        }
      }
    },
    {
      "type": "Feature",
      "geometry": {
        "type": "Point",
        "coordinates": [
          9.9276005,
          47.529336
        ]
      },
      "properties": {
        "id": "tk_at8r_osm_n10681428489",
        "name": "Zehrer´s Stadel",
        "address": {},
        "sources": [
          {
            "type": "osm",
            "id": "node/10681428489",
            "version": 0
          }
        ],
        "created": "2026-05-29",
        "updated": "2026-05-29",
        "hours": {
          "raw": "Mo-Su 13:00-17:00"
        },
        "tags": [
          "draussen"
        ],
        "sources_by_field": {
          "name": "osm",
          "hours": "osm"
        }
      }
    },
    {
      "type": "Feature",
      "geometry": {
        "type": "Point",
        "coordinates": [
          9.5791592,
          47.298319
        ]
      },
      "properties": {
        "id": "tk_at8r_osm_n10720159662",
        "name": "Sternbräu",
        "address": {
          "street": "Schweizer Straße",
          "number": "56",
          "city": "Meiningen"
        },
        "sources": [
          {
            "type": "osm",
            "id": "node/10720159662",
            "version": 0
          }
        ],
        "created": "2026-05-29",
        "updated": "2026-05-29",
        "sources_by_field": {
          "name": "osm",
          "address.street": "osm",
          "address.number": "osm",
          "address.city": "osm"
        }
      }
    },
    {
      "type": "Feature",
      "geometry": {
        "type": "Point",
        "coordinates": [
          10.093006,
          46.917361
        ]
      },
      "properties": {
        "id": "tk_at8r_osm_n1149338435",
        "name": "Lädle",
        "address": {},
        "sources": [
          {
            "type": "osm",
            "id": "node/1149338435",
            "version": 0
          }
        ],
        "created": "2026-05-29",
        "updated": "2026-05-29",
        "sources_by_field": {
          "name": "osm"
        }
      }
    },
    {
      "type": "Feature",
      "geometry": {
        "type": "Point",
        "coordinates": [
          9.6268294,
          47.2232599
        ]
      },
      "properties": {
        "id": "tk_at8r_osm_n12657185243",
        "name": "Tabak Trafik",
        "address": {
          "street": "Feldkircher Straße",
          "number": "9",
          "city": "Frastanz"
        },
        "sources": [
          {
            "type": "osm",
            "id": "node/12657185243",
            "version": 0
          }
        ],
        "created": "2026-05-29",
        "updated": "2026-05-29",
        "sources_by_field": {
          "name": "osm",
          "address.street": "osm",
          "address.number": "osm",
          "address.city": "osm"
        }
      }
    },
    {
      "type": "Feature",
      "geometry": {
        "type": "Point",
        "coordinates": [
          9.6347821,
          47.2230427
        ]
      },
      "properties": {
        "id": "tk_at8r_osm_n12847543390",
        "name": "WUAU",
        "address": {
          "street": "Satteinser Straße",
          "number": "9",
          "city": "Frastanz"
        },
        "sources": [
          {
            "type": "osm",
            "id": "node/12847543390",
            "version": 0
          }
        ],
        "created": "2026-05-29",
        "updated": "2026-05-29",
        "sources_by_field": {
          "name": "osm",
          "address.street": "osm",
          "address.number": "osm",
          "address.city": "osm"
        }
      }
    },
    {
      "type": "Feature",
      "geometry": {
        "type": "Point",
        "coordinates": [
          9.735154,
          47.5046567
        ]
      },
      "properties": {
        "id": "tk_at8r_osm_n12877642012",
        "name": "Oase im Seebad",
        "address": {},
        "sources": [
          {
            "type": "osm",
            "id": "node/12877642012",
            "version": 0
          }
        ],
        "created": "2026-05-29",
        "updated": "2026-05-29",
        "payment": {
          "cash": "yes",
          "cards": "unknown",
          "contactless": "unknown",
          "girocard": "unknown"
        },
        "sources_by_field": {
          "name": "osm",
          "payment.cash": "osm",
          "payment.cards": "osm",
          "payment.contactless": "osm",
          "payment.girocard": "osm"
        }
      }
    },
    {
      "type": "Feature",
      "geometry": {
        "type": "Point",
        "coordinates": [
          9.6598062,
          47.4291125
        ]
      },
      "properties": {
        "id": "tk_at8r_osm_n1631767882",
        "name": "Trafik Sinz",
        "address": {
          "street": "Maria-Theresien-Straße",
          "number": "32",
          "city": "Lustenau"
        },
        "sources": [
          {
            "type": "osm",
            "id": "node/1631767882",
            "version": 0
          }
        ],
        "created": "2026-05-29",
        "updated": "2026-05-29",
        "sources_by_field": {
          "name": "osm",
          "address.street": "osm",
          "address.number": "osm",
          "address.city": "osm"
        }
      }
    },
    {
      "type": "Feature",
      "geometry": {
        "type": "Point",
        "coordinates": [
          9.7198153,
          47.4833157
        ]
      },
      "properties": {
        "id": "tk_at8r_osm_n1665746786",
        "name": "Trafik Agva",
        "address": {
          "street": "Harderstraße",
          "number": "54",
          "city": "Lauterach"
        },
        "sources": [
          {
            "type": "osm",
            "id": "node/1665746786",
            "version": 0
          }
        ],
        "created": "2026-05-29",
        "updated": "2026-05-29",
        "hours": {
          "raw": "Mo-Fr 07:30-18:15; Sa 08:00-17:00"
        },
        "sources_by_field": {
          "name": "osm",
          "address.street": "osm",
          "address.number": "osm",
          "address.city": "osm",
          "hours": "osm"
        }
      }
    },
    {
      "type": "Feature",
      "geometry": {
        "type": "Point",
        "coordinates": [
          9.6476569,
          47.3043391
        ]
      },
      "properties": {
        "id": "tk_at8r_osm_n1685757309",
        "name": "M3 Energy",
        "address": {
          "street": "Treietstraße",
          "number": "25",
          "city": "Klaus"
        },
        "sources": [
          {
            "type": "osm",
            "id": "node/1685757309",
            "version": 0
          }
        ],
        "created": "2026-05-29",
        "updated": "2026-05-29",
        "hours": {
          "raw": "Mo-Fr 06:30-20:00; Sa,Su,PH 07:00-19:00"
        },
        "payment": {
          "cash": "unknown",
          "cards": "yes",
          "contactless": "yes",
          "girocard": "yes"
        },
        "tags": [
          "wc",
          "barrierefrei"
        ],
        "sources_by_field": {
          "name": "osm",
          "address.street": "osm",
          "address.number": "osm",
          "address.city": "osm",
          "hours": "osm",
          "payment.cash": "osm",
          "payment.cards": "osm",
          "payment.contactless": "osm",
          "payment.girocard": "osm"
        }
      }
    },
    {
      "type": "Feature",
      "geometry": {
        "type": "Point",
        "coordinates": [
          9.5969706,
          47.2359748
        ]
      },
      "properties": {
        "id": "tk_at8r_osm_n1695954351",
        "name": "Trafik Pinggera",
        "address": {
          "street": "Johannitergasse",
          "number": "8",
          "city": "Feldkirch"
        },
        "sources": [
          {
            "type": "osm",
            "id": "node/1695954351",
            "version": 0
          }
        ],
        "created": "2026-05-29",
        "updated": "2026-05-29",
        "sources_by_field": {
          "name": "osm",
          "address.street": "osm",
          "address.number": "osm",
          "address.city": "osm"
        }
      }
    },
    {
      "type": "Feature",
      "geometry": {
        "type": "Point",
        "coordinates": [
          9.6807961,
          47.3642761
        ]
      },
      "properties": {
        "id": "tk_at8r_osm_n1928703380",
        "name": "Bahnhofstrafik Barfus",
        "address": {
          "street": "Angelika-Kauffmann-Straße",
          "number": "5",
          "city": "Hohenems"
        },
        "sources": [
          {
            "type": "osm",
            "id": "node/1928703380",
            "version": 0
          }
        ],
        "created": "2026-05-29",
        "updated": "2026-05-29",
        "hours": {
          "raw": "Mo-Fr 06:30-18:30; Sa 07:30-13:00; Su,PH 09:00-13:00"
        },
        "tags": [
          "barrierefrei"
        ],
        "sources_by_field": {
          "name": "osm",
          "address.street": "osm",
          "address.number": "osm",
          "address.city": "osm",
          "hours": "osm"
        }
      }
    },
    {
      "type": "Feature",
      "geometry": {
        "type": "Point",
        "coordinates": [
          9.7779182,
          47.1875973
        ]
      },
      "properties": {
        "id": "tk_at8r_osm_n2195185168",
        "name": "Traffic",
        "address": {},
        "sources": [
          {
            "type": "osm",
            "id": "node/2195185168",
            "version": 0
          }
        ],
        "created": "2026-05-29",
        "updated": "2026-05-29",
        "sources_by_field": {
          "name": "osm"
        }
      }
    },
    {
      "type": "Feature",
      "geometry": {
        "type": "Point",
        "coordinates": [
          9.5802694,
          47.2287138
        ]
      },
      "properties": {
        "id": "tk_at8r_osm_n2411787804",
        "name": "Süßmost-Automat;Hofladen",
        "address": {},
        "sources": [
          {
            "type": "osm",
            "id": "node/2411787804",
            "version": 0
          }
        ],
        "created": "2026-05-29",
        "updated": "2026-05-29",
        "hours": {
          "raw": "24/7"
        },
        "tags": [
          "automat"
        ],
        "kind": "vending_machine",
        "sources_by_field": {
          "name": "osm",
          "hours": "osm"
        }
      }
    },
    {
      "type": "Feature",
      "geometry": {
        "type": "Point",
        "coordinates": [
          9.7424515,
          47.412216
        ]
      },
      "properties": {
        "id": "tk_at8r_osm_n2653456295",
        "name": "Moses",
        "address": {},
        "sources": [
          {
            "type": "osm",
            "id": "node/2653456295",
            "version": 0
          }
        ],
        "created": "2026-05-29",
        "updated": "2026-05-29",
        "hours": {
          "raw": "Mo-We,Fr 09:00-12:15,14:00-18:00; Th 09:00-12:15; Sa 09:00-13:00"
        },
        "tags": [
          "barrierefrei"
        ],
        "sources_by_field": {
          "name": "osm",
          "hours": "osm"
        }
      }
    },
    {
      "type": "Feature",
      "geometry": {
        "type": "Point",
        "coordinates": [
          9.7520125,
          47.5346718
        ]
      },
      "properties": {
        "id": "tk_at8r_osm_n292218509",
        "name": "OMV",
        "address": {
          "street": "Hofriedenstraße",
          "number": "17",
          "city": "Lochau"
        },
        "sources": [
          {
            "type": "osm",
            "id": "node/292218509",
            "version": 0
          }
        ],
        "created": "2026-05-29",
        "updated": "2026-05-29",
        "hours": {
          "raw": "Mo-Su,PH 06:00 - 22:00"
        },
        "sources_by_field": {
          "name": "osm",
          "address.street": "osm",
          "address.number": "osm",
          "address.city": "osm",
          "hours": "osm"
        }
      }
    },
    {
      "type": "Feature",
      "geometry": {
        "type": "Point",
        "coordinates": [
          9.6710835,
          47.4450117
        ]
      },
      "properties": {
        "id": "tk_at8r_osm_n3047034931",
        "name": "Trinkfest",
        "address": {},
        "sources": [
          {
            "type": "osm",
            "id": "node/3047034931",
            "version": 0
          }
        ],
        "created": "2026-05-29",
        "updated": "2026-05-29",
        "hours": {
          "raw": "Mo-Fr 08:00-12:00, 13:00-18:00; Sa 08:00-12:00; PH off"
        },
        "sources_by_field": {
          "name": "osm",
          "hours": "osm"
        }
      }
    },
    {
      "type": "Feature",
      "geometry": {
        "type": "Point",
        "coordinates": [
          9.7381816,
          47.5353864
        ]
      },
      "properties": {
        "id": "tk_at8r_osm_n316015151",
        "name": "Deuring",
        "address": {},
        "sources": [
          {
            "type": "osm",
            "id": "node/316015151",
            "version": 0
          }
        ],
        "created": "2026-05-29",
        "updated": "2026-05-29",
        "hours": {
          "raw": "24/7"
        },
        "tags": [
          "barrierefrei"
        ],
        "sources_by_field": {
          "name": "osm",
          "hours": "osm"
        }
      }
    },
    {
      "type": "Feature",
      "geometry": {
        "type": "Point",
        "coordinates": [
          9.6578745,
          47.426939
        ]
      },
      "properties": {
        "id": "tk_at8r_osm_n333675447",
        "name": "Trafik am Platz",
        "address": {},
        "sources": [
          {
            "type": "osm",
            "id": "node/333675447",
            "version": 0
          }
        ],
        "created": "2026-05-29",
        "updated": "2026-05-29",
        "hours": {
          "raw": "Mo-Fr 08:00-12:15,14:00-18:00; Sa 08:00-12:15"
        },
        "tags": [
          "barrierefrei"
        ],
        "sources_by_field": {
          "name": "osm",
          "hours": "osm"
        }
      }
    },
    {
      "type": "Feature",
      "geometry": {
        "type": "Point",
        "coordinates": [
          9.6348498,
          47.3529331
        ]
      },
      "properties": {
        "id": "tk_at8r_osm_n3418267854",
        "name": "eni shop",
        "address": {},
        "sources": [
          {
            "type": "osm",
            "id": "node/3418267854",
            "version": 0
          }
        ],
        "created": "2026-05-29",
        "updated": "2026-05-29",
        "hours": {
          "raw": "Mo-Fr 07:00-21:00; Sa, Su, PH 08:00-20:00"
        },
        "sources_by_field": {
          "name": "osm",
          "hours": "osm"
        }
      }
    },
    {
      "type": "Feature",
      "geometry": {
        "type": "Point",
        "coordinates": [
          9.6159515,
          47.2727576
        ]
      },
      "properties": {
        "id": "tk_at8r_osm_n3710943752",
        "name": "Trafik Egger",
        "address": {
          "street": "Bundesstraße",
          "number": "22",
          "city": "Rankweil"
        },
        "sources": [
          {
            "type": "osm",
            "id": "node/3710943752",
            "version": 0
          }
        ],
        "created": "2026-05-29",
        "updated": "2026-05-29",
        "hours": {
          "raw": "Mo-Th 08:00-18:30; Fr 08:00-19:00; Sa 07:30-17:30"
        },
        "sources_by_field": {
          "name": "osm",
          "address.street": "osm",
          "address.number": "osm",
          "address.city": "osm",
          "hours": "osm"
        }
      }
    },
    {
      "type": "Feature",
      "geometry": {
        "type": "Point",
        "coordinates": [
          9.7293324,
          47.4725742
        ]
      },
      "properties": {
        "id": "tk_at8r_osm_n3788946057",
        "name": "Trafik Monz",
        "address": {},
        "sources": [
          {
            "type": "osm",
            "id": "node/3788946057",
            "version": 0
          }
        ],
        "created": "2026-05-29",
        "updated": "2026-05-29",
        "sources_by_field": {
          "name": "osm"
        }
      }
    },
    {
      "type": "Feature",
      "geometry": {
        "type": "Point",
        "coordinates": [
          9.7409797,
          47.426881
        ]
      },
      "properties": {
        "id": "tk_at8r_osm_n3815120607",
        "name": "Schwefel-Trafik Hannig",
        "address": {
          "street": "Schwefel",
          "number": "46",
          "city": "Dornbirn"
        },
        "sources": [
          {
            "type": "osm",
            "id": "node/3815120607",
            "version": 0
          }
        ],
        "created": "2026-05-29",
        "updated": "2026-05-29",
        "tags": [
          "barrierefrei"
        ],
        "sources_by_field": {
          "name": "osm",
          "address.street": "osm",
          "address.number": "osm",
          "address.city": "osm"
        }
      }
    },
    {
      "type": "Feature",
      "geometry": {
        "type": "Point",
        "coordinates": [
          9.7449292,
          47.4978541
        ]
      },
      "properties": {
        "id": "tk_at8r_osm_n3891097768",
        "name": "Kiosk im Dorf",
        "address": {
          "street": "Im Dorf",
          "number": "1a",
          "city": "Bregenz"
        },
        "sources": [
          {
            "type": "osm",
            "id": "node/3891097768",
            "version": 0
          }
        ],
        "created": "2026-05-29",
        "updated": "2026-05-29",
        "hours": {
          "raw": "Mo 09:00-13:30; Tu-Fr 09:00-18:00; Sa 10:30-15:00; Su,PH 11:00-18:00"
        },
        "sources_by_field": {
          "name": "osm",
          "address.street": "osm",
          "address.number": "osm",
          "address.city": "osm",
          "hours": "osm"
        }
      }
    },
    {
      "type": "Feature",
      "geometry": {
        "type": "Point",
        "coordinates": [
          9.7115655,
          47.4117198
        ]
      },
      "properties": {
        "id": "tk_at8r_osm_n3914991622",
        "name": "Trafik Interspar",
        "address": {},
        "sources": [
          {
            "type": "osm",
            "id": "node/3914991622",
            "version": 0
          }
        ],
        "created": "2026-05-29",
        "updated": "2026-05-29",
        "sources_by_field": {
          "name": "osm"
        }
      }
    },
    {
      "type": "Feature",
      "geometry": {
        "type": "Point",
        "coordinates": [
          9.9052036,
          47.3474727
        ]
      },
      "properties": {
        "id": "tk_at8r_osm_n3937465566",
        "name": "Veres Tank Stop",
        "address": {
          "street": "Hirschau",
          "number": "35",
          "city": "Schnepfau"
        },
        "sources": [
          {
            "type": "osm",
            "id": "node/3937465566",
            "version": 0
          }
        ],
        "created": "2026-05-29",
        "updated": "2026-05-29",
        "hours": {
          "raw": "24/7"
        },
        "sources_by_field": {
          "name": "osm",
          "address.street": "osm",
          "address.number": "osm",
          "address.city": "osm",
          "hours": "osm"
        }
      }
    },
    {
      "type": "Feature",
      "geometry": {
        "type": "Point",
        "coordinates": [
          9.8878565,
          47.4074868
        ]
      },
      "properties": {
        "id": "tk_at8r_osm_n3964334152",
        "name": "Tabak Trafik",
        "address": {},
        "sources": [
          {
            "type": "osm",
            "id": "node/3964334152",
            "version": 0
          }
        ],
        "created": "2026-05-29",
        "updated": "2026-05-29",
        "sources_by_field": {
          "name": "osm"
        }
      }
    },
    {
      "type": "Feature",
      "geometry": {
        "type": "Point",
        "coordinates": [
          9.8317036,
          47.4501669
        ]
      },
      "properties": {
        "id": "tk_at8r_osm_n4003401991",
        "name": "Trafik Bereuter",
        "address": {},
        "sources": [
          {
            "type": "osm",
            "id": "node/4003401991",
            "version": 0
          }
        ],
        "created": "2026-05-29",
        "updated": "2026-05-29",
        "sources_by_field": {
          "name": "osm"
        }
      }
    },
    {
      "type": "Feature",
      "geometry": {
        "type": "Point",
        "coordinates": [
          9.7275139,
          47.4733663
        ]
      },
      "properties": {
        "id": "tk_at8r_osm_n4017858358",
        "name": "Pfanner",
        "address": {
          "street": "Lerchenauerstraße",
          "number": "9",
          "city": "Lauterach"
        },
        "sources": [
          {
            "type": "osm",
            "id": "node/4017858358",
            "version": 0
          }
        ],
        "created": "2026-05-29",
        "updated": "2026-05-29",
        "hours": {
          "raw": "Tu-Fr 09:00-12:15,14:00-18:15; Sa 08:30-12:15"
        },
        "sources_by_field": {
          "name": "osm",
          "address.street": "osm",
          "address.number": "osm",
          "address.city": "osm",
          "hours": "osm"
        }
      }
    },
    {
      "type": "Feature",
      "geometry": {
        "type": "Point",
        "coordinates": [
          9.9068985,
          47.347651
        ]
      },
      "properties": {
        "id": "tk_at8r_osm_n4094936437",
        "name": "Wälder Getränkeblitz",
        "address": {
          "number": "62",
          "city": "Schnepfau"
        },
        "sources": [
          {
            "type": "osm",
            "id": "node/4094936437",
            "version": 0
          }
        ],
        "created": "2026-05-29",
        "updated": "2026-05-29",
        "sources_by_field": {
          "name": "osm",
          "address.number": "osm",
          "address.city": "osm"
        }
      }
    },
    {
      "type": "Feature",
      "geometry": {
        "type": "Point",
        "coordinates": [
          9.7514193,
          47.5433444
        ]
      },
      "properties": {
        "id": "tk_at8r_osm_n434624858",
        "name": "Scheier Tankstelle Hörbranz",
        "address": {
          "street": "Ziegelbachstraße",
          "number": "101",
          "city": "Hörbranz"
        },
        "sources": [
          {
            "type": "osm",
            "id": "node/434624858",
            "version": 0
          }
        ],
        "created": "2026-05-29",
        "updated": "2026-05-29",
        "hours": {
          "raw": "24/7"
        },
        "payment": {
          "cash": "unknown",
          "cards": "yes",
          "contactless": "unknown",
          "girocard": "unknown"
        },
        "tags": [
          "wc"
        ],
        "sources_by_field": {
          "name": "osm",
          "address.street": "osm",
          "address.number": "osm",
          "address.city": "osm",
          "hours": "osm",
          "payment.cash": "osm",
          "payment.cards": "osm",
          "payment.contactless": "osm",
          "payment.girocard": "osm"
        }
      }
    },
    {
      "type": "Feature",
      "geometry": {
        "type": "Point",
        "coordinates": [
          9.7279245,
          47.4935743
        ]
      },
      "properties": {
        "id": "tk_at8r_osm_n4825724922",
        "name": "Trafik Silva Leon",
        "address": {
          "street": "Brielgasse",
          "number": "13",
          "city": "Bregenz"
        },
        "sources": [
          {
            "type": "osm",
            "id": "node/4825724922",
            "version": 0
          }
        ],
        "created": "2026-05-29",
        "updated": "2026-05-29",
        "hours": {
          "raw": "Mo-Fr 07:30-18:30,Sa 08:00-17:00"
        },
        "sources_by_field": {
          "name": "osm",
          "address.street": "osm",
          "address.number": "osm",
          "address.city": "osm",
          "hours": "osm"
        }
      }
    },
    {
      "type": "Feature",
      "geometry": {
        "type": "Point",
        "coordinates": [
          9.5774629,
          47.2539532
        ]
      },
      "properties": {
        "id": "tk_at8r_osm_n4934160721",
        "name": "Tabak Trafik",
        "address": {},
        "sources": [
          {
            "type": "osm",
            "id": "node/4934160721",
            "version": 0
          }
        ],
        "created": "2026-05-29",
        "updated": "2026-05-29",
        "sources_by_field": {
          "name": "osm"
        }
      }
    },
    {
      "type": "Feature",
      "geometry": {
        "type": "Point",
        "coordinates": [
          9.6742263,
          47.3708278
        ]
      },
      "properties": {
        "id": "tk_at8r_osm_n5128943152",
        "name": "Trafik Haselwanner",
        "address": {
          "street": "Lustenauer Straße",
          "number": "107a",
          "city": "Hohenems"
        },
        "sources": [
          {
            "type": "osm",
            "id": "node/5128943152",
            "version": 0
          }
        ],
        "created": "2026-05-29",
        "updated": "2026-05-29",
        "hours": {
          "raw": "Mo-Fr 07:30-18:30; Sa 07:30-18:00"
        },
        "tags": [
          "barrierefrei"
        ],
        "sources_by_field": {
          "name": "osm",
          "address.street": "osm",
          "address.number": "osm",
          "address.city": "osm",
          "hours": "osm"
        }
      }
    },
    {
      "type": "Feature",
      "geometry": {
        "type": "Point",
        "coordinates": [
          9.7738624,
          47.4582692
        ]
      },
      "properties": {
        "id": "tk_at8r_osm_n5303278320",
        "name": "Oxa Lädele",
        "address": {},
        "sources": [
          {
            "type": "osm",
            "id": "node/5303278320",
            "version": 0
          }
        ],
        "created": "2026-05-29",
        "updated": "2026-05-29",
        "hours": {
          "raw": "Mo-Sa 08:00-12:30;PH off"
        },
        "sources_by_field": {
          "name": "osm",
          "hours": "osm"
        }
      }
    },
    {
      "type": "Feature",
      "geometry": {
        "type": "Point",
        "coordinates": [
          9.6531376,
          47.3326081
        ]
      },
      "properties": {
        "id": "tk_at8r_osm_n6523898904",
        "name": "Kiosk im Schwimmbad Riebe",
        "address": {},
        "sources": [
          {
            "type": "osm",
            "id": "node/6523898904",
            "version": 0
          }
        ],
        "created": "2026-05-29",
        "updated": "2026-05-29",
        "payment": {
          "cash": "unknown",
          "cards": "no",
          "contactless": "unknown",
          "girocard": "unknown"
        },
        "tags": [
          "barrierefrei"
        ],
        "sources_by_field": {
          "name": "osm",
          "payment.cash": "osm",
          "payment.cards": "osm",
          "payment.contactless": "osm",
          "payment.girocard": "osm"
        }
      }
    },
    {
      "type": "Feature",
      "geometry": {
        "type": "Point",
        "coordinates": [
          9.6377758,
          47.2718424
        ]
      },
      "properties": {
        "id": "tk_at8r_osm_n6635221197",
        "name": "Tabak-Trafik Längle",
        "address": {},
        "sources": [
          {
            "type": "osm",
            "id": "node/6635221197",
            "version": 0
          }
        ],
        "created": "2026-05-29",
        "updated": "2026-05-29",
        "payment": {
          "cash": "unknown",
          "cards": "yes",
          "contactless": "unknown",
          "girocard": "unknown"
        },
        "tags": [
          "barrierefrei"
        ],
        "sources_by_field": {
          "name": "osm",
          "payment.cash": "osm",
          "payment.cards": "osm",
          "payment.contactless": "osm",
          "payment.girocard": "osm"
        }
      }
    },
    {
      "type": "Feature",
      "geometry": {
        "type": "Point",
        "coordinates": [
          10.1902567,
          47.3587988
        ]
      },
      "properties": {
        "id": "tk_at8r_osm_n685169517",
        "name": "Kiosk am Casino Helmut Morche",
        "address": {},
        "sources": [
          {
            "type": "osm",
            "id": "node/685169517",
            "version": 0
          }
        ],
        "created": "2026-05-29",
        "updated": "2026-05-29",
        "sources_by_field": {
          "name": "osm"
        }
      }
    },
    {
      "type": "Feature",
      "geometry": {
        "type": "Point",
        "coordinates": [
          9.6634087,
          47.418248
        ]
      },
      "properties": {
        "id": "tk_at8r_osm_n7021852972",
        "name": "Krammel",
        "address": {
          "street": "Dornbirner Straße",
          "number": "16a",
          "city": "Lustenau"
        },
        "sources": [
          {
            "type": "osm",
            "id": "node/7021852972",
            "version": 0
          }
        ],
        "created": "2026-05-29",
        "updated": "2026-05-29",
        "hours": {
          "raw": "Mo-Fr 09:00-12:00, Mo-We 14:00-17:30, Fr 14:00-17:30, Sa 08:00-12:00; PH off"
        },
        "sources_by_field": {
          "name": "osm",
          "address.street": "osm",
          "address.number": "osm",
          "address.city": "osm",
          "hours": "osm"
        }
      }
    },
    {
      "type": "Feature",
      "geometry": {
        "type": "Point",
        "coordinates": [
          9.655677,
          47.4274572
        ]
      },
      "properties": {
        "id": "tk_at8r_osm_n762830952",
        "name": "WEIN & MEHR",
        "address": {
          "street": "Gärtnerstraße",
          "number": "12",
          "city": "Lustenau"
        },
        "sources": [
          {
            "type": "osm",
            "id": "node/762830952",
            "version": 0
          }
        ],
        "created": "2026-05-29",
        "updated": "2026-05-29",
        "hours": {
          "raw": "Tu,We,Fr 09:00-12:00,15:00-18:00; Th,Sa 09:00-12:00"
        },
        "sources_by_field": {
          "name": "osm",
          "address.street": "osm",
          "address.number": "osm",
          "address.city": "osm",
          "hours": "osm"
        }
      }
    },
    {
      "type": "Feature",
      "geometry": {
        "type": "Point",
        "coordinates": [
          9.7154756,
          47.4947716
        ]
      },
      "properties": {
        "id": "tk_at8r_osm_n7777724706",
        "name": "Trafik Kiene Kiosk",
        "address": {
          "street": "Holzackergasse",
          "number": "1"
        },
        "sources": [
          {
            "type": "osm",
            "id": "node/7777724706",
            "version": 0
          }
        ],
        "created": "2026-05-29",
        "updated": "2026-05-29",
        "hours": {
          "raw": "Mo-Fr 07:30-18:30; Sa 08:00-16:00"
        },
        "sources_by_field": {
          "name": "osm",
          "address.street": "osm",
          "address.number": "osm",
          "hours": "osm"
        }
      }
    },
    {
      "type": "Feature",
      "geometry": {
        "type": "Point",
        "coordinates": [
          9.6502353,
          47.2743515
        ]
      },
      "properties": {
        "id": "tk_at8r_osm_n897787106",
        "name": "Tabak Friedrich",
        "address": {
          "street": "Alemannenstraße",
          "city": "Rankweil"
        },
        "sources": [
          {
            "type": "osm",
            "id": "node/897787106",
            "version": 0
          }
        ],
        "created": "2026-05-29",
        "updated": "2026-05-29",
        "hours": {
          "raw": "Mo-Fr 06:45-12:00,13:30-18:30; Sa 07:00-12:30"
        },
        "tags": [
          "barrierefrei"
        ],
        "sources_by_field": {
          "name": "osm",
          "address.street": "osm",
          "address.city": "osm",
          "hours": "osm"
        }
      }
    },
    {
      "type": "Feature",
      "geometry": {
        "type": "Point",
        "coordinates": [
          9.7113393,
          47.412458
        ]
      },
      "properties": {
        "id": "tk_at8r_osm_n9461088330",
        "name": "Fruchtpunkt",
        "address": {
          "street": "Messestraße",
          "number": "2"
        },
        "sources": [
          {
            "type": "osm",
            "id": "node/9461088330",
            "version": 0
          }
        ],
        "created": "2026-05-29",
        "updated": "2026-05-29",
        "sources_by_field": {
          "name": "osm",
          "address.street": "osm",
          "address.number": "osm"
        }
      }
    },
    {
      "type": "Feature",
      "geometry": {
        "type": "Point",
        "coordinates": [
          9.9842588,
          47.4175403
        ]
      },
      "properties": {
        "id": "tk_at8r_osm_w1047101709",
        "name": "Kiosk im Kinderland",
        "address": {},
        "sources": [
          {
            "type": "osm",
            "id": "way/1047101709",
            "version": 0
          }
        ],
        "created": "2026-05-29",
        "updated": "2026-05-29",
        "sources_by_field": {
          "name": "osm"
        }
      }
    },
    {
      "type": "Feature",
      "geometry": {
        "type": "Point",
        "coordinates": [
          9.7522151,
          47.5099984
        ]
      },
      "properties": {
        "id": "tk_at8r_osm_w118991897",
        "name": "SK 1 - Strandkiosk",
        "address": {},
        "sources": [
          {
            "type": "osm",
            "id": "way/118991897",
            "version": 0
          }
        ],
        "created": "2026-05-29",
        "updated": "2026-05-29",
        "sources_by_field": {
          "name": "osm"
        }
      }
    },
    {
      "type": "Feature",
      "geometry": {
        "type": "Point",
        "coordinates": [
          9.7482528,
          47.5059049
        ]
      },
      "properties": {
        "id": "tk_at8r_osm_w119137673",
        "name": "Tabak Trafik",
        "address": {},
        "sources": [
          {
            "type": "osm",
            "id": "way/119137673",
            "version": 0
          }
        ],
        "created": "2026-05-29",
        "updated": "2026-05-29",
        "hours": {
          "raw": "Mo-Fr 07:00-18:00; Sa 08:00-17:00; Su 09:00-17:00"
        },
        "payment": {
          "cash": "unknown",
          "cards": "yes",
          "contactless": "unknown",
          "girocard": "unknown"
        },
        "tags": [
          "barrierefrei"
        ],
        "sources_by_field": {
          "name": "osm",
          "hours": "osm",
          "payment.cash": "osm",
          "payment.cards": "osm",
          "payment.contactless": "osm",
          "payment.girocard": "osm"
        }
      }
    },
    {
      "type": "Feature",
      "geometry": {
        "type": "Point",
        "coordinates": [
          10.1559599,
          47.3262414
        ]
      },
      "properties": {
        "id": "tk_at8r_osm_w121553106",
        "name": "Talstation Zaferna Kiosk",
        "address": {
          "street": "Walserstraße",
          "number": "376a",
          "city": "Mittelberg"
        },
        "sources": [
          {
            "type": "osm",
            "id": "way/121553106",
            "version": 0
          }
        ],
        "created": "2026-05-29",
        "updated": "2026-05-29",
        "sources_by_field": {
          "name": "osm",
          "address.street": "osm",
          "address.number": "osm",
          "address.city": "osm"
        }
      }
    },
    {
      "type": "Feature",
      "geometry": {
        "type": "Point",
        "coordinates": [
          9.6487752,
          47.3092344
        ]
      },
      "properties": {
        "id": "tk_at8r_osm_w123272198",
        "name": "Bayram Coskun Trafik Klaus",
        "address": {
          "street": "Walgaustraße",
          "number": "12a",
          "city": "Klaus"
        },
        "sources": [
          {
            "type": "osm",
            "id": "way/123272198",
            "version": 0
          }
        ],
        "created": "2026-05-29",
        "updated": "2026-05-29",
        "hours": {
          "raw": "Mo-Th 07:00-12:30,14:00-18:00; Fr 07:00-18:00; Sa 08:00-13:00; Su off"
        },
        "payment": {
          "cash": "unknown",
          "cards": "yes",
          "contactless": "unknown",
          "girocard": "unknown"
        },
        "sources_by_field": {
          "name": "osm",
          "address.street": "osm",
          "address.number": "osm",
          "address.city": "osm",
          "hours": "osm",
          "payment.cash": "osm",
          "payment.cards": "osm",
          "payment.contactless": "osm",
          "payment.girocard": "osm"
        }
      }
    },
    {
      "type": "Feature",
      "geometry": {
        "type": "Point",
        "coordinates": [
          9.6604819,
          47.419003
        ]
      },
      "properties": {
        "id": "tk_at8r_osm_w1372177214",
        "name": "Tabak-Trafik Glatzl",
        "address": {
          "street": "Hohenemser Straße",
          "number": "3a"
        },
        "sources": [
          {
            "type": "osm",
            "id": "way/1372177214",
            "version": 0
          }
        ],
        "created": "2026-05-29",
        "updated": "2026-05-29",
        "sources_by_field": {
          "name": "osm",
          "address.street": "osm",
          "address.number": "osm"
        }
      }
    },
    {
      "type": "Feature",
      "geometry": {
        "type": "Point",
        "coordinates": [
          10.1592649,
          47.3283705
        ]
      },
      "properties": {
        "id": "tk_at8r_osm_w158289750",
        "name": "Fritz Getränke",
        "address": {
          "street": "Walserstraße",
          "number": "345",
          "city": "Mittelberg"
        },
        "sources": [
          {
            "type": "osm",
            "id": "way/158289750",
            "version": 0
          }
        ],
        "created": "2026-05-29",
        "updated": "2026-05-29",
        "tags": [
          "barrierefrei"
        ],
        "sources_by_field": {
          "name": "osm",
          "address.street": "osm",
          "address.number": "osm",
          "address.city": "osm"
        }
      }
    },
    {
      "type": "Feature",
      "geometry": {
        "type": "Point",
        "coordinates": [
          9.6318107,
          47.235801
        ]
      },
      "properties": {
        "id": "tk_at8r_osm_w161308812",
        "name": "Konsumsaal",
        "address": {
          "street": "Kirchstraße",
          "number": "4",
          "city": "Göfis"
        },
        "sources": [
          {
            "type": "osm",
            "id": "way/161308812",
            "version": 0
          }
        ],
        "created": "2026-05-29",
        "updated": "2026-05-29",
        "sources_by_field": {
          "name": "osm",
          "address.street": "osm",
          "address.number": "osm",
          "address.city": "osm"
        }
      }
    },
    {
      "type": "Feature",
      "geometry": {
        "type": "Point",
        "coordinates": [
          9.7209209,
          47.4937125
        ]
      },
      "properties": {
        "id": "tk_at8r_osm_w220773633",
        "name": "Trafik Fuchsberger",
        "address": {
          "street": "Schendlingerstraße",
          "number": "21",
          "city": "Bregenz"
        },
        "sources": [
          {
            "type": "osm",
            "id": "way/220773633",
            "version": 0
          }
        ],
        "created": "2026-05-29",
        "updated": "2026-05-29",
        "hours": {
          "raw": "Mo-Fr 07:00-18:30; Tu 07:00-13:00; Sa 07:00-12:30"
        },
        "sources_by_field": {
          "name": "osm",
          "address.street": "osm",
          "address.number": "osm",
          "address.city": "osm",
          "hours": "osm"
        }
      }
    },
    {
      "type": "Feature",
      "geometry": {
        "type": "Point",
        "coordinates": [
          9.7310794,
          47.4077387
        ]
      },
      "properties": {
        "id": "tk_at8r_osm_w231652499",
        "name": "Trafik Hämmerle",
        "address": {
          "street": "Lustenauerstraße",
          "number": "36a",
          "city": "Dornbirn"
        },
        "sources": [
          {
            "type": "osm",
            "id": "way/231652499",
            "version": 0
          }
        ],
        "created": "2026-05-29",
        "updated": "2026-05-29",
        "hours": {
          "raw": "Mo-Fr 07:30-18:30; Sa 07:30-17:00; Su off"
        },
        "tags": [
          "barrierefrei"
        ],
        "sources_by_field": {
          "name": "osm",
          "address.street": "osm",
          "address.number": "osm",
          "address.city": "osm",
          "hours": "osm"
        }
      }
    },
    {
      "type": "Feature",
      "geometry": {
        "type": "Point",
        "coordinates": [
          9.7383143,
          47.402332
        ]
      },
      "properties": {
        "id": "tk_at8r_osm_w235372249",
        "name": "Trafik Köb",
        "address": {
          "street": "Hatlerstraße",
          "number": "25b",
          "city": "Dornbirn"
        },
        "sources": [
          {
            "type": "osm",
            "id": "way/235372249",
            "version": 0
          }
        ],
        "created": "2026-05-29",
        "updated": "2026-05-29",
        "tags": [
          "barrierefrei"
        ],
        "sources_by_field": {
          "name": "osm",
          "address.street": "osm",
          "address.number": "osm",
          "address.city": "osm"
        }
      }
    },
    {
      "type": "Feature",
      "geometry": {
        "type": "Point",
        "coordinates": [
          9.7330041,
          47.4982596
        ]
      },
      "properties": {
        "id": "tk_at8r_osm_w294029621",
        "name": "Trafik KOVB",
        "address": {
          "street": "Rheinstraße",
          "number": "9a",
          "city": "Bregenz"
        },
        "sources": [
          {
            "type": "osm",
            "id": "way/294029621",
            "version": 0
          }
        ],
        "created": "2026-05-29",
        "updated": "2026-05-29",
        "hours": {
          "raw": "Mo-Fr 07:00-18:00,Sa 08:00-14:00"
        },
        "sources_by_field": {
          "name": "osm",
          "address.street": "osm",
          "address.number": "osm",
          "address.city": "osm",
          "hours": "osm"
        }
      }
    },
    {
      "type": "Feature",
      "geometry": {
        "type": "Point",
        "coordinates": [
          10.0052676,
          47.1232945
        ]
      },
      "properties": {
        "id": "tk_at8r_osm_w294263072",
        "name": "DISK Tankstelle",
        "address": {},
        "sources": [
          {
            "type": "osm",
            "id": "way/294263072",
            "version": 0
          }
        ],
        "created": "2026-05-29",
        "updated": "2026-05-29",
        "hours": {
          "raw": "24/7"
        },
        "sources_by_field": {
          "name": "osm",
          "hours": "osm"
        }
      }
    },
    {
      "type": "Feature",
      "geometry": {
        "type": "Point",
        "coordinates": [
          9.6534173,
          47.3410569
        ]
      },
      "properties": {
        "id": "tk_at8r_osm_w296919615",
        "name": "eni",
        "address": {},
        "sources": [
          {
            "type": "osm",
            "id": "way/296919615",
            "version": 0
          }
        ],
        "created": "2026-05-29",
        "updated": "2026-05-29",
        "hours": {
          "raw": "Mo-Sa 06:30-22:00; Su 08:00-20:00; PH 08:00-20:00"
        },
        "tags": [
          "barrierefrei"
        ],
        "sources_by_field": {
          "name": "osm",
          "hours": "osm"
        }
      }
    },
    {
      "type": "Feature",
      "geometry": {
        "type": "Point",
        "coordinates": [
          9.6148348,
          47.2677888
        ]
      },
      "properties": {
        "id": "tk_at8r_osm_w326413594",
        "name": "OMV",
        "address": {
          "street": "Königshofstraße",
          "number": "61",
          "city": "Feldkirch"
        },
        "sources": [
          {
            "type": "osm",
            "id": "way/326413594",
            "version": 0
          }
        ],
        "created": "2026-05-29",
        "updated": "2026-05-29",
        "hours": {
          "raw": "24/7"
        },
        "tags": [
          "barrierefrei"
        ],
        "sources_by_field": {
          "name": "osm",
          "address.street": "osm",
          "address.number": "osm",
          "address.city": "osm",
          "hours": "osm"
        }
      }
    },
    {
      "type": "Feature",
      "geometry": {
        "type": "Point",
        "coordinates": [
          9.6150584,
          47.2669775
        ]
      },
      "properties": {
        "id": "tk_at8r_osm_w332668786",
        "name": "Tabak Trafik Benzer",
        "address": {
          "street": "Königshofstraße",
          "number": "57"
        },
        "sources": [
          {
            "type": "osm",
            "id": "way/332668786",
            "version": 0
          }
        ],
        "created": "2026-05-29",
        "updated": "2026-05-29",
        "sources_by_field": {
          "name": "osm",
          "address.street": "osm",
          "address.number": "osm"
        }
      }
    },
    {
      "type": "Feature",
      "geometry": {
        "type": "Point",
        "coordinates": [
          9.639104,
          47.457375
        ]
      },
      "properties": {
        "id": "tk_at8r_osm_w332880829",
        "name": "Grenzkiosk, Trafik Fink",
        "address": {
          "street": "Rheinauweg",
          "number": "31",
          "city": "Höchst"
        },
        "sources": [
          {
            "type": "osm",
            "id": "way/332880829",
            "version": 0
          }
        ],
        "created": "2026-05-29",
        "updated": "2026-05-29",
        "hours": {
          "raw": "Mo-Fr 08:00-19:00; Sa 08:00-17:00; Su 10:00-14:00"
        },
        "sources_by_field": {
          "name": "osm",
          "address.street": "osm",
          "address.number": "osm",
          "address.city": "osm",
          "hours": "osm"
        }
      }
    },
    {
      "type": "Feature",
      "geometry": {
        "type": "Point",
        "coordinates": [
          9.7518196,
          47.4585437
        ]
      },
      "properties": {
        "id": "tk_at8r_osm_w398546878",
        "name": "Trafik Graf",
        "address": {
          "street": "Hofsteigstraße",
          "number": "58",
          "city": "Wolfurt"
        },
        "sources": [
          {
            "type": "osm",
            "id": "way/398546878",
            "version": 0
          }
        ],
        "created": "2026-05-29",
        "updated": "2026-05-29",
        "sources_by_field": {
          "name": "osm",
          "address.street": "osm",
          "address.number": "osm",
          "address.city": "osm"
        }
      }
    },
    {
      "type": "Feature",
      "geometry": {
        "type": "Point",
        "coordinates": [
          9.7344684,
          47.5029772
        ]
      },
      "properties": {
        "id": "tk_at8r_osm_w473786869",
        "name": "Kiosk, Trafik am Stadion",
        "address": {
          "street": "Mehrerauer Straße",
          "number": "10"
        },
        "sources": [
          {
            "type": "osm",
            "id": "way/473786869",
            "version": 0
          }
        ],
        "created": "2026-05-29",
        "updated": "2026-05-29",
        "hours": {
          "raw": "Mo-Fr 07:00-19:00,Sa 07:00-18:00,Su 10:00-18:00"
        },
        "payment": {
          "cash": "yes",
          "cards": "yes",
          "contactless": "unknown",
          "girocard": "unknown"
        },
        "tags": [
          "barrierefrei"
        ],
        "sources_by_field": {
          "name": "osm",
          "address.street": "osm",
          "address.number": "osm",
          "hours": "osm",
          "payment.cash": "osm",
          "payment.cards": "osm",
          "payment.contactless": "osm",
          "payment.girocard": "osm"
        }
      }
    },
    {
      "type": "Feature",
      "geometry": {
        "type": "Point",
        "coordinates": [
          9.903452,
          47.0806653
        ]
      },
      "properties": {
        "id": "tk_at8r_osm_w612497839",
        "name": "Shell",
        "address": {
          "street": "Rätikonstraße",
          "number": "42",
          "city": "Schruns"
        },
        "sources": [
          {
            "type": "osm",
            "id": "way/612497839",
            "version": 0
          }
        ],
        "created": "2026-05-29",
        "updated": "2026-05-29",
        "hours": {
          "raw": "Mo-Su,PH 06:00-22:00"
        },
        "tags": [
          "wc"
        ],
        "sources_by_field": {
          "name": "osm",
          "address.street": "osm",
          "address.number": "osm",
          "address.city": "osm",
          "hours": "osm"
        }
      }
    },
    {
      "type": "Feature",
      "geometry": {
        "type": "Point",
        "coordinates": [
          9.6436789,
          47.2686289
        ]
      },
      "properties": {
        "id": "tk_at8r_osm_w78255605",
        "name": "M3 Energy",
        "address": {
          "street": "Walgaustraße",
          "number": "5a"
        },
        "sources": [
          {
            "type": "osm",
            "id": "way/78255605",
            "version": 0
          }
        ],
        "created": "2026-05-29",
        "updated": "2026-05-29",
        "hours": {
          "raw": "Mo-Sa 07:00-21:00; Su 08:00-21:00"
        },
        "tags": [
          "barrierefrei"
        ],
        "sources_by_field": {
          "name": "osm",
          "address.street": "osm",
          "address.number": "osm",
          "hours": "osm"
        }
      }
    },
    {
      "type": "Feature",
      "geometry": {
        "type": "Point",
        "coordinates": [
          9.6380165,
          47.2189559
        ]
      },
      "properties": {
        "id": "tk_at8r_osm_w789017955",
        "name": "Rampenverkauf Frastanzer",
        "address": {},
        "sources": [
          {
            "type": "osm",
            "id": "way/789017955",
            "version": 0
          }
        ],
        "created": "2026-05-29",
        "updated": "2026-05-29",
        "hours": {
          "raw": "Mo-Fr 08:30-18:00; Sa 08:30-12:00"
        },
        "sources_by_field": {
          "name": "osm",
          "hours": "osm"
        }
      }
    },
    {
      "type": "Feature",
      "geometry": {
        "type": "Point",
        "coordinates": [
          9.7795709,
          47.5060201
        ]
      },
      "properties": {
        "id": "tk_at8r_osm_w82507115",
        "name": "Kiosk am Pfänder",
        "address": {},
        "sources": [
          {
            "type": "osm",
            "id": "way/82507115",
            "version": 0
          }
        ],
        "created": "2026-05-29",
        "updated": "2026-05-29",
        "hours": {
          "raw": "Mo-Su 09:00-17:00"
        },
        "tags": [
          "barrierefrei"
        ],
        "sources_by_field": {
          "name": "osm",
          "hours": "osm"
        }
      }
    },
    {
      "type": "Feature",
      "geometry": {
        "type": "Point",
        "coordinates": [
          9.7410822,
          47.531694
        ]
      },
      "properties": {
        "id": "tk_at8r_osm_w835093833",
        "name": "Tabak Trafik",
        "address": {
          "street": "Lindauer Straße",
          "number": "23",
          "city": "Lochau"
        },
        "sources": [
          {
            "type": "osm",
            "id": "way/835093833",
            "version": 0
          }
        ],
        "created": "2026-05-29",
        "updated": "2026-05-29",
        "hours": {
          "raw": "Mo-Fr 08:00-19:00; Sa 08:00-18:00; Su off"
        },
        "sources_by_field": {
          "name": "osm",
          "address.street": "osm",
          "address.number": "osm",
          "address.city": "osm",
          "hours": "osm"
        }
      }
    }
  ]
}
