{
  "type": "FeatureCollection",
  "features": [
    {
      "type": "Feature",
      "geometry": {
        "type": "Point",
        "coordinates": [
          9.5507185,
          47.2155743
        ]
      },
      "properties": {
        "id": "tk_lir_osm_n11232523332",
        "name": "Vogelparadis kiosk",
        "address": {},
        "sources": [
          {
            "type": "osm",
            "id": "node/11232523332",
            "version": 0
          }
        ],
        "created": "2026-05-29",
        "updated": "2026-05-29",
        "hours": {
          "raw": "We-Fr 15:00+; Sa 14:00+; Su 10:00+; Mo off"
        },
        "payment": {
          "cash": "unknown",
          "cards": "yes",
          "contactless": "unknown",
          "girocard": "unknown"
        },
        "tags": [
          "barrierefrei"
        ],
        "sources_by_field": {
          "name": "osm",
          "hours": "osm",
          "payment.cash": "osm",
          "payment.cards": "osm",
          "payment.contactless": "osm",
          "payment.girocard": "osm"
        }
      }
    },
    {
      "type": "Feature",
      "geometry": {
        "type": "Point",
        "coordinates": [
          9.5091595,
          47.1741783
        ]
      },
      "properties": {
        "id": "tk_lir_osm_n1281681953",
        "name": "Risch Getränke AG",
        "address": {
          "street": "Im Rietacker",
          "number": "1"
        },
        "sources": [
          {
            "type": "osm",
            "id": "node/1281681953",
            "version": 0
          }
        ],
        "created": "2026-05-29",
        "updated": "2026-05-29",
        "sources_by_field": {
          "name": "osm",
          "address.street": "osm",
          "address.number": "osm"
        }
      }
    },
    {
      "type": "Feature",
      "geometry": {
        "type": "Point",
        "coordinates": [
          9.5466575,
          47.2193901
        ]
      },
      "properties": {
        "id": "tk_lir_osm_n2422738268",
        "name": "Elma Handels Est",
        "address": {},
        "sources": [
          {
            "type": "osm",
            "id": "node/2422738268",
            "version": 0
          }
        ],
        "created": "2026-05-29",
        "updated": "2026-05-29",
        "hours": {
          "raw": "Mo-Fr 08:00-18:00; Sa 08:00-16:00"
        },
        "sources_by_field": {
          "name": "osm",
          "hours": "osm"
        }
      }
    },
    {
      "type": "Feature",
      "geometry": {
        "type": "Point",
        "coordinates": [
          9.5174229,
          47.1207912
        ]
      },
      "properties": {
        "id": "tk_lir_osm_n2972597006",
        "name": "die getränkeoase",
        "address": {
          "street": "Industriestrasse",
          "number": "44",
          "city": "Triesen"
        },
        "sources": [
          {
            "type": "osm",
            "id": "node/2972597006",
            "version": 0
          }
        ],
        "created": "2026-05-29",
        "updated": "2026-05-29",
        "hours": {
          "raw": "Mo-Fr 08:00-12:00, 13:30-18:30; Sa 08:00-13:00"
        },
        "sources_by_field": {
          "name": "osm",
          "address.street": "osm",
          "address.number": "osm",
          "address.city": "osm",
          "hours": "osm"
        }
      }
    },
    {
      "type": "Feature",
      "geometry": {
        "type": "Point",
        "coordinates": [
          9.508471,
          47.1677979
        ]
      },
      "properties": {
        "id": "tk_lir_osm_n4759689340",
        "name": "K-Kiosk",
        "address": {},
        "sources": [
          {
            "type": "osm",
            "id": "node/4759689340",
            "version": 0
          }
        ],
        "created": "2026-05-29",
        "updated": "2026-05-29",
        "hours": {
          "raw": "Mo-Fr 06:30-19:00, Sa 07:30-16:00, Su 09:00-13:00"
        },
        "tags": [
          "barrierefrei"
        ],
        "sources_by_field": {
          "name": "osm",
          "hours": "osm"
        }
      }
    },
    {
      "type": "Feature",
      "geometry": {
        "type": "Point",
        "coordinates": [
          9.5163816,
          47.1773771
        ]
      },
      "properties": {
        "id": "tk_lir_osm_n9992406517",
        "name": "Braumarkt",
        "address": {
          "street": "Im alten Riet",
          "number": "156",
          "city": "Schaan"
        },
        "sources": [
          {
            "type": "osm",
            "id": "node/9992406517",
            "version": 0
          }
        ],
        "created": "2026-05-29",
        "updated": "2026-05-29",
        "sources_by_field": {
          "name": "osm",
          "address.street": "osm",
          "address.number": "osm",
          "address.city": "osm"
        }
      }
    }
  ]
}
