{
  "type": "FeatureCollection",
  "features": [
    {
      "type": "Feature",
      "geometry": {
        "type": "Point",
        "coordinates": [
          7.009411454200745,
          49.21675614428361
        ]
      },
      "properties": {
        "id": "tk_fr_0318",
        "name": "Daarler Büdchen",
        "description": "Alt eingesessenes Büdchen am Fuße der Dryandertreppe im Stadtteil Sankt Arnual mit Schiebefenster  Außentheke und begehbarem Innenraum mit kleinem Laden. Klassisches Büdchen Sortiment, Lotto, DPD Paketshop",
        "address": {
          "street": "Julius-Kiefer-Straße",
          "number": "69-71",
          "postalcode": "66119",
          "city": "Saarbrücken",
          "district": "Sankt Arnual"
        },
        "tags": [
          "innenraum",
          "lotto",
          "paketshop"
        ],
        "sources": [
          {
            "type": "hopfenstop",
            "id": "2434a142-5054-4206-8d82-41bd2ec9d01c"
          }
        ],
        "created": "2026-05-19",
        "updated": "2026-05-19"
      }
    },
    {
      "type": "Feature",
      "geometry": {
        "type": "Point",
        "coordinates": [
          6.971975862979889,
          49.24332971971094
        ]
      },
      "properties": {
        "id": "tk_fr_0348",
        "name": "Kiosk Schumann",
        "description": "Kleiner begehbarer Kiosk, direkt neben der Barbarossa Bäckerei. Tabakwaren, Getränke, Zeitschriften und mehr.",
        "address": {
          "street": "Lebacher Landstraße",
          "postalcode": "66113",
          "city": "Saarbrücken",
          "district": "Malstatt"
        },
        "tags": [
          "zeitschriften"
        ],
        "sources": [
          {
            "type": "hopfenstop",
            "id": "07134b24-8828-4682-a718-b61ffc149d08"
          }
        ],
        "created": "2026-05-19",
        "updated": "2026-05-19"
      }
    },
    {
      "type": "Feature",
      "geometry": {
        "type": "Point",
        "coordinates": [
          7.610061699999999,
          49.1990967
        ]
      },
      "properties": {
        "id": "tk_fr_1245",
        "name": "Kiosk Riedler",
        "description": "Kiosk ",
        "address": {
          "street": "Herzogstraße",
          "number": "77",
          "postalcode": "66953",
          "city": "Pirmasens"
        },
        "tags": [
          "fritz_kola"
        ],
        "sources": [
          {
            "type": "hopfenstop",
            "id": "7aaab24c-fdab-4a95-8f70-13f991337aac"
          }
        ],
        "created": "2026-05-19",
        "updated": "2026-05-19"
      }
    },
    {
      "type": "Feature",
      "geometry": {
        "type": "Point",
        "coordinates": [
          7.604674200000001,
          49.19173079999999
        ]
      },
      "properties": {
        "id": "tk_fr_1246",
        "name": "Baguetteria Kiosk",
        "description": "Kiosk ",
        "address": {
          "street": "Kirchbergstraße",
          "number": "25",
          "postalcode": "66955",
          "city": "Pirmasens"
        },
        "tags": [
          "fritz_kola"
        ],
        "sources": [
          {
            "type": "hopfenstop",
            "id": "10c05c41-8615-4b02-90af-a3dd2a2c16f4"
          }
        ],
        "created": "2026-05-19",
        "updated": "2026-05-19"
      }
    },
    {
      "type": "Feature",
      "geometry": {
        "type": "Point",
        "coordinates": [
          7.605541400000001,
          49.2004825
        ]
      },
      "properties": {
        "id": "tk_fr_1247",
        "name": "Lotto & More",
        "description": "Kiosk ",
        "address": {
          "street": "Schlossstraße",
          "number": "44",
          "postalcode": "66953",
          "city": "Pirmasens"
        },
        "tags": [
          "fritz_kola"
        ],
        "sources": [
          {
            "type": "hopfenstop",
            "id": "9417029d-c04b-482d-9f5c-007a03ecac03"
          }
        ],
        "created": "2026-05-19",
        "updated": "2026-05-19"
      }
    },
    {
      "type": "Feature",
      "geometry": {
        "type": "Point",
        "coordinates": [
          6.995638599999999,
          49.2366788
        ]
      },
      "properties": {
        "id": "tk_fr_1664",
        "name": "Telehouse",
        "description": "Gezici & Gezici Telekommunikation GbR",
        "address": {
          "street": "Kaiserstraße",
          "number": "7",
          "postalcode": "66111",
          "city": "Saarbrücken",
          "district": "Mitte"
        },
        "hours": {
          "raw": "Sa 10:00-22:00"
        },
        "sources": [
          {
            "type": "hopfenstop",
            "id": "027fc10d-0b3c-4c15-b124-4469db40b1bc"
          }
        ],
        "created": "2026-05-19",
        "updated": "2026-05-19"
      }
    },
    {
      "type": "Feature",
      "geometry": {
        "type": "Point",
        "coordinates": [
          6.9963104,
          49.2365268
        ]
      },
      "properties": {
        "id": "tk_fr_1665",
        "name": "Hotspot",
        "description": "Bistro + Kiosk + Lieferservice",
        "address": {
          "street": "Dudweilerstraße",
          "number": "26",
          "postalcode": "66111",
          "city": "Saarbrücken",
          "district": "Mitte"
        },
        "hours": {
          "raw": "Sa 22:00-22:00"
        },
        "sources": [
          {
            "type": "hopfenstop",
            "id": "e188769a-4aac-4594-910b-0af333951e85"
          }
        ],
        "created": "2026-05-19",
        "updated": "2026-05-19"
      }
    }
  ]
}
