{
  "type": "FeatureCollection",
  "features": [
    {
      "type": "Feature",
      "geometry": {
        "type": "Point",
        "coordinates": [
          14.33125,
          51.7587089
        ]
      },
      "properties": {
        "id": "tk_cb_osm_n11224309347",
        "name": "Da Capo",
        "address": {},
        "sources": [
          {
            "type": "osm",
            "id": "node/11224309347",
            "version": 0
          },
          {
            "type": "gmaps",
            "id": "payment"
          }
        ],
        "created": "2026-05-21",
        "updated": "2026-05-21",
        "payment": {
          "girocard": "yes",
          "cards": "no",
          "contactless": "yes"
        }
      }
    },
    {
      "type": "Feature",
      "geometry": {
        "type": "Point",
        "coordinates": [
          14.332335,
          51.7644403
        ]
      },
      "properties": {
        "id": "tk_cb_osm_n1205594462",
        "name": "Club-Mate",
        "address": {},
        "sources": [
          {
            "type": "osm",
            "id": "node/1205594462",
            "version": 0
          }
        ],
        "created": "2026-05-21",
        "updated": "2026-05-21",
        "hours": {
          "raw": "Tu-Sa 16:00-22:00; Su 09:00-20:00"
        },
        "payment_attempted": "2026-05-22"
      }
    },
    {
      "type": "Feature",
      "geometry": {
        "type": "Point",
        "coordinates": [
          14.3046684,
          51.7937101
        ]
      },
      "properties": {
        "id": "tk_cb_osm_n1761958372",
        "name": "bilgro",
        "address": {},
        "sources": [
          {
            "type": "osm",
            "id": "node/1761958372",
            "version": 0
          },
          {
            "type": "gmaps",
            "id": "payment"
          }
        ],
        "created": "2026-05-21",
        "updated": "2026-05-21",
        "hours": {
          "raw": "Mo-We 07:45-18:00; Th,Fr 07:45-18:30; Sa 07:45-12:00; Su,PH off"
        },
        "payment": {
          "cards": "no",
          "girocard": "yes",
          "contactless": "yes"
        }
      }
    },
    {
      "type": "Feature",
      "geometry": {
        "type": "Point",
        "coordinates": [
          14.3451641,
          51.7873494
        ]
      },
      "properties": {
        "id": "tk_cb_osm_n2368873869",
        "name": "M & W Getränkehandel",
        "address": {},
        "sources": [
          {
            "type": "osm",
            "id": "node/2368873869",
            "version": 0
          },
          {
            "type": "gmaps",
            "id": "payment"
          }
        ],
        "created": "2026-05-21",
        "updated": "2026-05-21",
        "payment": {
          "cards": "no",
          "girocard": "yes",
          "contactless": "yes"
        }
      }
    },
    {
      "type": "Feature",
      "geometry": {
        "type": "Point",
        "coordinates": [
          14.3116114,
          51.7440623
        ]
      },
      "properties": {
        "id": "tk_cb_osm_n370693024",
        "name": "REWE Getränkemarkt",
        "address": {},
        "sources": [
          {
            "type": "osm",
            "id": "node/370693024",
            "version": 0
          },
          {
            "type": "gmaps",
            "id": "payment"
          }
        ],
        "created": "2026-05-21",
        "updated": "2026-05-21",
        "hours": {
          "raw": "Mo-Sa 07:00-22:00; Su, PH off"
        },
        "payment": {
          "cards": "no",
          "girocard": "yes",
          "contactless": "yes"
        }
      }
    },
    {
      "type": "Feature",
      "geometry": {
        "type": "Point",
        "coordinates": [
          14.3432389,
          51.7724147
        ]
      },
      "properties": {
        "id": "tk_cb_osm_n4143462432",
        "name": "PWV Presse Shop",
        "address": {},
        "sources": [
          {
            "type": "osm",
            "id": "node/4143462432",
            "version": 0
          }
        ],
        "created": "2026-05-21",
        "updated": "2026-05-21",
        "hours": {
          "raw": "Mo-Sa 08:00-18:00"
        },
        "tags": [
          "barrierefrei"
        ],
        "payment_attempted": "2026-05-22"
      }
    },
    {
      "type": "Feature",
      "geometry": {
        "type": "Point",
        "coordinates": [
          14.3337903,
          51.7588969
        ]
      },
      "properties": {
        "id": "tk_cb_osm_n4723133592",
        "name": "Presse Shop",
        "address": {
          "street": "Schloßkirchplatz",
          "number": "6",
          "postalcode": "03046",
          "city": "Cottbus"
        },
        "sources": [
          {
            "type": "osm",
            "id": "node/4723133592",
            "version": 0
          }
        ],
        "created": "2026-05-21",
        "updated": "2026-05-21",
        "hours": {
          "raw": "Mo-Fr 08:00-18:30; Sa 08:00-14:00; Su off"
        },
        "payment_attempted": "2026-05-22"
      }
    },
    {
      "type": "Feature",
      "geometry": {
        "type": "Point",
        "coordinates": [
          14.3521614,
          51.716295
        ]
      },
      "properties": {
        "id": "tk_cb_osm_n5342139015",
        "name": "Getränke Hoffmann",
        "address": {},
        "sources": [
          {
            "type": "osm",
            "id": "node/5342139015",
            "version": 0
          },
          {
            "type": "gmaps",
            "id": "payment"
          }
        ],
        "created": "2026-05-21",
        "updated": "2026-05-21",
        "payment": {
          "cards": "no",
          "girocard": "yes",
          "contactless": "yes"
        }
      }
    },
    {
      "type": "Feature",
      "geometry": {
        "type": "Point",
        "coordinates": [
          14.3322164,
          51.7332356
        ]
      },
      "properties": {
        "id": "tk_cb_osm_n9759349854",
        "name": "Liefer-Bar",
        "address": {
          "street": "Ringstraße",
          "number": "23",
          "postalcode": "03050",
          "city": "Cottbus",
          "district": "Madlow"
        },
        "sources": [
          {
            "type": "osm",
            "id": "node/9759349854",
            "version": 0
          },
          {
            "type": "gmaps",
            "id": "payment"
          }
        ],
        "created": "2026-05-21",
        "updated": "2026-05-21",
        "payment": {
          "girocard": "yes",
          "cards": "no",
          "contactless": "yes"
        }
      }
    },
    {
      "type": "Feature",
      "geometry": {
        "type": "Point",
        "coordinates": [
          14.2629697,
          51.7494983
        ]
      },
      "properties": {
        "id": "tk_cb_osm_w122056355",
        "name": "Drews Spezialitäten und Getränkefachmarkt",
        "address": {
          "street": "Berliner Straße",
          "number": "71",
          "postalcode": "03099",
          "city": "Kolkwitz"
        },
        "sources": [
          {
            "type": "osm",
            "id": "way/122056355",
            "version": 0
          },
          {
            "type": "gmaps",
            "id": "payment"
          }
        ],
        "created": "2026-05-21",
        "updated": "2026-05-21",
        "payment": {
          "cards": "no",
          "girocard": "yes",
          "contactless": "yes"
        }
      }
    },
    {
      "type": "Feature",
      "geometry": {
        "type": "Point",
        "coordinates": [
          14.310223,
          51.7574729
        ]
      },
      "properties": {
        "id": "tk_cb_osm_w129643349",
        "name": "Netto Getränke-Discount",
        "address": {
          "street": "Ewald-Müller-Straße",
          "number": "2",
          "postalcode": "03046",
          "city": "Cottbus",
          "district": "Ströbitz"
        },
        "sources": [
          {
            "type": "osm",
            "id": "way/129643349",
            "version": 0
          }
        ],
        "created": "2026-05-21",
        "updated": "2026-05-21",
        "hours": {
          "raw": "Mo-Sa 07:00-20:00"
        },
        "payment_attempted": "2026-05-22"
      }
    },
    {
      "type": "Feature",
      "geometry": {
        "type": "Point",
        "coordinates": [
          14.3204972,
          51.716309
        ]
      },
      "properties": {
        "id": "tk_cb_osm_w1389115551",
        "name": "Marktkauf Getränkemarkt",
        "address": {
          "street": "Madlower Chaussee",
          "number": "4",
          "postalcode": "03051",
          "city": "Cottbus"
        },
        "sources": [
          {
            "type": "osm",
            "id": "way/1389115551",
            "version": 0
          }
        ],
        "created": "2026-05-21",
        "updated": "2026-05-21",
        "payment_attempted": "2026-05-22"
      }
    },
    {
      "type": "Feature",
      "geometry": {
        "type": "Point",
        "coordinates": [
          14.320032,
          51.7162738
        ]
      },
      "properties": {
        "id": "tk_cb_osm_w1389115555",
        "name": "Tabak & Journal",
        "address": {},
        "sources": [
          {
            "type": "osm",
            "id": "way/1389115555",
            "version": 0
          }
        ],
        "created": "2026-05-21",
        "updated": "2026-05-21",
        "payment_attempted": "2026-05-22"
      }
    },
    {
      "type": "Feature",
      "geometry": {
        "type": "Point",
        "coordinates": [
          14.331949,
          51.7338526
        ]
      },
      "properties": {
        "id": "tk_cb_osm_w139592653",
        "name": "Abhohl-Bar",
        "address": {
          "street": "Hardenbergstraße",
          "number": "12",
          "postalcode": "03050",
          "city": "Cottbus",
          "district": "Madlow"
        },
        "sources": [
          {
            "type": "osm",
            "id": "way/139592653",
            "version": 0
          },
          {
            "type": "gmaps",
            "id": "payment"
          }
        ],
        "created": "2026-05-21",
        "updated": "2026-05-21",
        "payment": {
          "cards": "no",
          "girocard": "yes",
          "contactless": "yes"
        }
      }
    },
    {
      "type": "Feature",
      "geometry": {
        "type": "Point",
        "coordinates": [
          14.2460637,
          51.7521462
        ]
      },
      "properties": {
        "id": "tk_cb_osm_w140902805",
        "name": "Getränke Partner",
        "address": {
          "street": "Bahnhofstraße",
          "number": "35",
          "postalcode": "03099",
          "city": "Kolkwitz"
        },
        "sources": [
          {
            "type": "osm",
            "id": "way/140902805",
            "version": 0
          },
          {
            "type": "gmaps",
            "id": "payment"
          }
        ],
        "created": "2026-05-21",
        "updated": "2026-05-21",
        "payment": {
          "girocard": "yes",
          "cards": "no",
          "contactless": "yes"
        }
      }
    },
    {
      "type": "Feature",
      "geometry": {
        "type": "Point",
        "coordinates": [
          14.3229331,
          51.7593959
        ]
      },
      "properties": {
        "id": "tk_cb_osm_w151395561",
        "name": "Getränke Hoffmann",
        "address": {
          "street": "August-Bebel-Straße",
          "number": "76",
          "postalcode": "03046",
          "city": "Cottbus"
        },
        "sources": [
          {
            "type": "osm",
            "id": "way/151395561",
            "version": 0
          },
          {
            "type": "gmaps",
            "id": "payment"
          }
        ],
        "created": "2026-05-21",
        "updated": "2026-05-21",
        "hours": {
          "raw": "Mo-Fr 09:30-18:30; Sa 09:30-16:00"
        },
        "payment": {
          "cards": "no",
          "girocard": "yes",
          "contactless": "yes"
        }
      }
    },
    {
      "type": "Feature",
      "geometry": {
        "type": "Point",
        "coordinates": [
          14.3081029,
          51.7609331
        ]
      },
      "properties": {
        "id": "tk_cb_osm_w246621176",
        "name": "Getränkemarkt Buchwahl",
        "address": {},
        "sources": [
          {
            "type": "osm",
            "id": "way/246621176",
            "version": 0
          }
        ],
        "created": "2026-05-21",
        "updated": "2026-05-21",
        "payment_attempted": "2026-05-22"
      }
    },
    {
      "type": "Feature",
      "geometry": {
        "type": "Point",
        "coordinates": [
          14.3253918,
          51.7503725
        ]
      },
      "properties": {
        "id": "tk_cb_osm_w449844360",
        "name": "ServiceStore DB",
        "address": {
          "street": "Vetschauer Straße",
          "number": "70",
          "postalcode": "03048",
          "city": "Cottbus"
        },
        "sources": [
          {
            "type": "osm",
            "id": "way/449844360",
            "version": 0
          }
        ],
        "created": "2026-05-21",
        "updated": "2026-05-21",
        "hours": {
          "raw": "Mo-Fr 05:45-21:00; Sa 07:00-20:00; Su 07:00-21:00"
        },
        "payment": {
          "cash": "yes",
          "cards": "yes",
          "contactless": "unknown",
          "girocard": "yes",
          "mobile": "unknown"
        },
        "tags": [
          "barrierefrei"
        ]
      }
    }
  ]
}
