{
  "type": "FeatureCollection",
  "features": [
    {
      "type": "Feature",
      "geometry": {
        "type": "Point",
        "coordinates": [
          13.0920387,
          52.3935122
        ]
      },
      "properties": {
        "id": "tk_p_osm_n1033547402",
        "name": "Lottoshop und Hermes Paket Shop",
        "address": {
          "street": "Karl-Liebknecht-Straße",
          "number": "127",
          "postalcode": "14482",
          "city": "Potsdam",
          "district": "Babelsberg Nord"
        },
        "sources": [
          {
            "type": "osm",
            "id": "node/1033547402",
            "version": 0
          }
        ],
        "created": "2026-05-20",
        "updated": "2026-05-23",
        "hours": {
          "raw": "Mo-Fr 07:00-18:00; Sa 07:00-11:00"
        },
        "payment": {
          "cash": "yes",
          "cards": "yes",
          "contactless": "unknown",
          "girocard": "unknown",
          "mobile": "unknown"
        },
        "apple_id_attempted": "2026-05-23"
      }
    },
    {
      "type": "Feature",
      "geometry": {
        "type": "Point",
        "coordinates": [
          13.10154,
          52.4700012
        ]
      },
      "properties": {
        "id": "tk_p_osm_n1038557893",
        "name": "ALTO Shop",
        "address": {
          "street": "Potsdamer Chaussee",
          "number": "112",
          "postalcode": "14476",
          "city": "Potsdam"
        },
        "sources": [
          {
            "type": "osm",
            "id": "node/1038557893",
            "version": 0
          },
          {
            "type": "gmaps",
            "id": "payment"
          }
        ],
        "created": "2026-05-20",
        "updated": "2026-05-21",
        "hours": {
          "raw": "Mo-Fr 08:00-18:00; Sa 08:00-13:00"
        },
        "tags": [
          "barrierefrei"
        ],
        "payment": {
          "cards": "yes",
          "girocard": "yes",
          "contactless": "yes"
        },
        "apple_id_attempted": "2026-05-23"
      }
    },
    {
      "type": "Feature",
      "geometry": {
        "type": "Point",
        "coordinates": [
          13.0296399,
          52.3899313
        ]
      },
      "properties": {
        "id": "tk_p_osm_n11280230188",
        "name": "Getränke Hoffmann",
        "address": {
          "street": "Zeppelinstraße",
          "number": "58",
          "postalcode": "14471",
          "city": "Potsdam"
        },
        "sources": [
          {
            "type": "osm",
            "id": "node/11280230188",
            "version": 0
          },
          {
            "type": "gmaps",
            "id": "payment"
          }
        ],
        "created": "2026-05-20",
        "updated": "2026-05-21",
        "hours": {
          "raw": "Mo-Fr 09:00-20:00; Sa 09:00-18:00; Su,PH off"
        },
        "payment": {
          "cards": "no",
          "girocard": "yes",
          "contactless": "yes"
        },
        "apple_id_attempted": "2026-05-23"
      }
    },
    {
      "type": "Feature",
      "geometry": {
        "type": "Point",
        "coordinates": [
          12.9751619,
          52.4123058
        ]
      },
      "properties": {
        "id": "tk_p_osm_n11330765436",
        "name": "Getränkemarkt Eingang",
        "address": {
          "street": "In der Feldmark",
          "number": "4",
          "postalcode": "14476",
          "city": "Potsdam",
          "district": "Golm"
        },
        "sources": [
          {
            "type": "osm",
            "id": "node/11330765436",
            "version": 0
          },
          {
            "type": "gmaps",
            "id": "payment"
          }
        ],
        "created": "2026-05-20",
        "updated": "2026-05-21",
        "hours": {
          "raw": "Mo-Sa 06:00-22:00"
        },
        "tags": [
          "barrierefrei"
        ],
        "payment": {
          "cards": "yes",
          "girocard": "yes",
          "contactless": "yes"
        },
        "apple_id_attempted": "2026-05-23"
      }
    },
    {
      "type": "Feature",
      "geometry": {
        "type": "Point",
        "coordinates": [
          12.9368942,
          52.345506
        ]
      },
      "properties": {
        "id": "tk_p_osm_n1298366793",
        "name": "Inselshop",
        "address": {
          "street": "Grelle",
          "number": "12-15",
          "postalcode": "14542",
          "city": "Werder (Havel)",
          "district": "Petzow"
        },
        "sources": [
          {
            "type": "osm",
            "id": "node/1298366793",
            "version": 0
          }
        ],
        "created": "2026-05-20",
        "updated": "2026-05-23",
        "payment_attempted": "2026-05-22",
        "apple_id_attempted": "2026-05-23",
        "google_attempted": "2026-05-23"
      }
    },
    {
      "type": "Feature",
      "geometry": {
        "type": "Point",
        "coordinates": [
          13.1171593,
          52.3926504
        ]
      },
      "properties": {
        "id": "tk_p_osm_n13275095701",
        "name": "Waldcafé",
        "address": {
          "street": "Stahnsdorfer Straße",
          "number": "76-78",
          "postalcode": "14482",
          "city": "Potsdam",
          "district": "Babelsberg Süd"
        },
        "sources": [
          {
            "type": "osm",
            "id": "node/13275095701",
            "version": 0
          }
        ],
        "created": "2026-05-20",
        "updated": "2026-05-23",
        "hours": {
          "raw": "Mo-Fr 15:00-18:00; Sa-Su 14:00-18:00; PH off"
        },
        "payment": {
          "cash": "unknown",
          "cards": "yes",
          "contactless": "unknown",
          "girocard": "unknown",
          "mobile": "unknown"
        },
        "apple_id_attempted": "2026-05-23"
      }
    },
    {
      "type": "Feature",
      "geometry": {
        "type": "Point",
        "coordinates": [
          13.092082,
          52.3647486
        ]
      },
      "properties": {
        "id": "tk_p_osm_n13684703402",
        "name": "Postfiliale 515 - Kiosk",
        "address": {
          "street": "Zum Jagenstein",
          "number": "32",
          "postalcode": "14478",
          "city": "Potsdam",
          "district": "Waldstadt II"
        },
        "sources": [
          {
            "type": "osm",
            "id": "node/13684703402",
            "version": 0
          },
          {
            "type": "gmaps",
            "id": "payment"
          }
        ],
        "created": "2026-05-20",
        "updated": "2026-05-21",
        "hours": {
          "raw": "Mo-Fr 10:00-18:00; Sa 09:00-15:00; PH,Su off"
        },
        "tags": [
          "barrierefrei"
        ],
        "payment": {
          "cards": "yes",
          "girocard": "yes",
          "contactless": "yes"
        },
        "apple_id_attempted": "2026-05-23"
      }
    },
    {
      "type": "Feature",
      "geometry": {
        "type": "Point",
        "coordinates": [
          13.0301436,
          52.3890942
        ]
      },
      "properties": {
        "id": "tk_p_osm_n1412188815",
        "name": "Geco",
        "address": {
          "street": "Zeppelinstraße",
          "number": "132",
          "postalcode": "14471",
          "city": "Potsdam",
          "district": "Potsdam West"
        },
        "sources": [
          {
            "type": "osm",
            "id": "node/1412188815",
            "version": 0
          },
          {
            "type": "gmaps",
            "id": "payment"
          }
        ],
        "created": "2026-05-20",
        "updated": "2026-05-23",
        "hours": {
          "raw": "Mo-Sa 08:00-20:00; Su,PH off"
        },
        "tags": [
          "barrierefrei"
        ],
        "payment": {
          "cards": "no",
          "girocard": "yes",
          "contactless": "yes"
        },
        "apple_id_attempted": "2026-05-23"
      }
    },
    {
      "type": "Feature",
      "geometry": {
        "type": "Point",
        "coordinates": [
          13.0624378,
          52.3989845
        ]
      },
      "properties": {
        "id": "tk_p_osm_n1626996025",
        "name": "Getränke Lehmann",
        "address": {
          "street": "Französische Straße",
          "number": "14 A",
          "postalcode": "14467",
          "city": "Potsdam"
        },
        "sources": [
          {
            "type": "osm",
            "id": "node/1626996025",
            "version": 0
          },
          {
            "type": "gmaps",
            "id": "payment"
          }
        ],
        "created": "2026-05-20",
        "updated": "2026-05-21",
        "hours": {
          "raw": "Mo-Fr 09:00-18:00; Sa 09:00-16:00; PH off"
        },
        "payment": {
          "cards": "no",
          "girocard": "yes",
          "contactless": "yes"
        },
        "apple_id_attempted": "2026-05-23"
      }
    },
    {
      "type": "Feature",
      "geometry": {
        "type": "Point",
        "coordinates": [
          13.1412456,
          52.3695016
        ]
      },
      "properties": {
        "id": "tk_p_osm_n1930743985",
        "name": "Presse im HNC",
        "address": {
          "street": "Konrad-Wolf-Allee",
          "number": "1-3",
          "postalcode": "14480",
          "city": "Potsdam",
          "district": "Drewitz"
        },
        "sources": [
          {
            "type": "osm",
            "id": "node/1930743985",
            "version": 0
          },
          {
            "type": "apple",
            "id": "5209340974093374958"
          }
        ],
        "created": "2026-05-20",
        "updated": "2026-05-23",
        "hours": {
          "raw": "Mo-Fr 07:00-19:00; Sa 07:00-15:00; Su,PH off"
        },
        "tags": [
          "barrierefrei"
        ],
        "payment_attempted": "2026-05-22",
        "payment": {
          "cards": "yes",
          "contactless": "yes",
          "mobile": "yes"
        }
      }
    },
    {
      "type": "Feature",
      "geometry": {
        "type": "Point",
        "coordinates": [
          13.0369495,
          52.413311
        ]
      },
      "properties": {
        "id": "tk_p_osm_n2471892382",
        "name": "Rewe Getränke",
        "address": {
          "street": "Ludwig-Boltzmann-Straße",
          "number": "10",
          "postalcode": "14469",
          "city": "Potsdam",
          "district": "Bornstedt"
        },
        "sources": [
          {
            "type": "osm",
            "id": "node/2471892382",
            "version": 0
          }
        ],
        "created": "2026-05-20",
        "updated": "2026-05-23",
        "hours": {
          "raw": "Mo-Sa 07:00-22:00; Su,PH off"
        },
        "payment": {
          "cash": "unknown",
          "cards": "yes",
          "contactless": "unknown",
          "girocard": "unknown",
          "mobile": "unknown"
        },
        "tags": [
          "barrierefrei"
        ],
        "apple_id_attempted": "2026-05-23"
      }
    },
    {
      "type": "Feature",
      "geometry": {
        "type": "Point",
        "coordinates": [
          13.115474,
          52.3861951
        ]
      },
      "properties": {
        "id": "tk_p_osm_n2520990417",
        "name": "Horrorshop",
        "address": {
          "street": "Großbeerenstraße",
          "number": "200",
          "postalcode": "14482",
          "city": "Potsdam",
          "district": "Babelsberg Süd"
        },
        "sources": [
          {
            "type": "osm",
            "id": "node/2520990417",
            "version": 0
          }
        ],
        "created": "2026-05-20",
        "updated": "2026-05-23",
        "tags": [
          "barrierefrei"
        ],
        "payment_attempted": "2026-05-22",
        "apple_id_attempted": "2026-05-23",
        "google_attempted": "2026-05-23"
      }
    },
    {
      "type": "Feature",
      "geometry": {
        "type": "Point",
        "coordinates": [
          13.0985066,
          52.390922
        ]
      },
      "properties": {
        "id": "tk_p_osm_n2896061665",
        "name": "Netto Getränke-Discount",
        "address": {
          "street": "Stephensonstraße",
          "number": "11",
          "postalcode": "14482",
          "city": "Potsdam",
          "district": "Babelsberg Süd"
        },
        "sources": [
          {
            "type": "osm",
            "id": "node/2896061665",
            "version": 0
          }
        ],
        "created": "2026-05-20",
        "updated": "2026-05-23",
        "hours": {
          "raw": "Mo-Sa 07:00-21:00; Su, PH off"
        },
        "payment": {
          "cash": "yes",
          "cards": "yes",
          "contactless": "unknown",
          "girocard": "unknown",
          "mobile": "unknown"
        },
        "apple_id_attempted": "2026-05-23"
      }
    },
    {
      "type": "Feature",
      "geometry": {
        "type": "Point",
        "coordinates": [
          13.0912453,
          52.3912287
        ]
      },
      "properties": {
        "id": "tk_p_osm_n290287133",
        "name": "Gleis 6",
        "address": {
          "street": "Karl-Liebknecht-Straße",
          "number": "4",
          "postalcode": "14482",
          "city": "Potsdam",
          "district": "Babelsberg Nord"
        },
        "sources": [
          {
            "type": "osm",
            "id": "node/290287133",
            "version": 0
          },
          {
            "type": "gmaps",
            "id": "ChIJ743D8UlfqEcRr1_WHWb96pA"
          }
        ],
        "created": "2026-05-20",
        "updated": "2026-05-23",
        "tags": [
          "barrierefrei"
        ],
        "payment": {
          "cards": "no",
          "girocard": "yes",
          "contactless": "yes"
        },
        "apple_id_attempted": "2026-05-23",
        "google_attempted": "2026-05-23"
      }
    },
    {
      "type": "Feature",
      "geometry": {
        "type": "Point",
        "coordinates": [
          13.0351885,
          52.3937971
        ]
      },
      "properties": {
        "id": "tk_p_osm_n312807506",
        "name": "Getränke Markt Schrödter",
        "address": {
          "street": "Geschwister-Scholl-Straße",
          "number": "12",
          "postalcode": "14471",
          "city": "Potsdam"
        },
        "sources": [
          {
            "type": "osm",
            "id": "node/312807506",
            "version": 0
          }
        ],
        "created": "2026-05-20",
        "updated": "2026-05-21",
        "hours": {
          "raw": "Mo-Fr 09:00-18:30; Sa 09:00-13:00"
        },
        "payment_attempted": "2026-05-22",
        "apple_id_attempted": "2026-05-23",
        "google_attempted": "2026-05-23"
      }
    },
    {
      "type": "Feature",
      "geometry": {
        "type": "Point",
        "coordinates": [
          12.9888006,
          52.4748105
        ]
      },
      "properties": {
        "id": "tk_p_osm_n387849079",
        "name": "Kobs",
        "address": {
          "street": "Dorfstraße",
          "number": "6",
          "postalcode": "14476",
          "city": "Potsdam",
          "district": "Satzkorn"
        },
        "sources": [
          {
            "type": "osm",
            "id": "node/387849079",
            "version": 0
          }
        ],
        "created": "2026-05-20",
        "updated": "2026-05-23",
        "payment_attempted": "2026-05-22",
        "apple_id_attempted": "2026-05-23",
        "google_attempted": "2026-05-23"
      }
    },
    {
      "type": "Feature",
      "geometry": {
        "type": "Point",
        "coordinates": [
          12.9399167,
          52.3650948
        ]
      },
      "properties": {
        "id": "tk_p_osm_n4221363396",
        "name": "Gaube",
        "address": {
          "street": "Potsdamer Straße",
          "number": "80",
          "postalcode": "14542",
          "city": "Werder (Havel)"
        },
        "sources": [
          {
            "type": "osm",
            "id": "node/4221363396",
            "version": 0
          },
          {
            "type": "gmaps",
            "id": "payment"
          }
        ],
        "created": "2026-05-20",
        "updated": "2026-05-21",
        "hours": {
          "raw": "Tu-Fr 10:00-19:00; Sa unknown"
        },
        "payment": {
          "girocard": "yes",
          "cards": "no",
          "contactless": "yes"
        },
        "apple_id_attempted": "2026-05-23"
      }
    },
    {
      "type": "Feature",
      "geometry": {
        "type": "Point",
        "coordinates": [
          13.0258987,
          52.3901628
        ]
      },
      "properties": {
        "id": "tk_p_osm_n445323127",
        "name": "REWE Getränkemarkt",
        "address": {
          "street": "Haeckelstraße",
          "number": "30",
          "postalcode": "14471",
          "city": "Potsdam",
          "district": "Potsdam West"
        },
        "sources": [
          {
            "type": "osm",
            "id": "node/445323127",
            "version": 0
          },
          {
            "type": "gmaps",
            "id": "payment"
          }
        ],
        "created": "2026-05-20",
        "updated": "2026-05-23",
        "hours": {
          "raw": "Mo-Sa 06:00-22:00"
        },
        "tags": [
          "barrierefrei"
        ],
        "payment": {
          "cards": "no",
          "girocard": "yes",
          "contactless": "yes"
        },
        "apple_id_attempted": "2026-05-23"
      }
    },
    {
      "type": "Feature",
      "geometry": {
        "type": "Point",
        "coordinates": [
          12.9823134,
          52.4028906
        ]
      },
      "properties": {
        "id": "tk_p_osm_n7909116943",
        "name": "Getränkevertrieb Gorgs",
        "address": {
          "street": "Kaiser-Friedrich-Straße",
          "number": "67",
          "postalcode": "14469",
          "city": "Potsdam",
          "district": "Eiche"
        },
        "sources": [
          {
            "type": "osm",
            "id": "node/7909116943",
            "version": 0
          },
          {
            "type": "gmaps",
            "id": "ChIJWXLQPbg7ZUERDXFZdz89L3w"
          }
        ],
        "created": "2026-05-20",
        "updated": "2026-05-21",
        "hours": {
          "raw": "Mo-Fr 09:00-19:00; Sa 09:00-15:00"
        },
        "payment_attempted": "2026-05-22",
        "apple_id_attempted": "2026-05-23",
        "google_attempted": "2026-05-23"
      }
    },
    {
      "type": "Feature",
      "geometry": {
        "type": "Point",
        "coordinates": [
          13.0663792,
          52.389099
        ]
      },
      "properties": {
        "id": "tk_p_osm_n7984054936",
        "name": "Getränke Hoffmann",
        "address": {
          "street": "Heinrich-Mann-Allee",
          "number": "3a",
          "postalcode": "14473",
          "city": "Potsdam"
        },
        "sources": [
          {
            "type": "osm",
            "id": "node/7984054936",
            "version": 0
          },
          {
            "type": "gmaps",
            "id": "ChIJ9V80OLD1qEcRivsrbh7wwqw"
          }
        ],
        "created": "2026-05-20",
        "updated": "2026-05-21",
        "hours": {
          "raw": "Mo-Sa 09:00-20:00; PH off"
        },
        "tags": [
          "barrierefrei"
        ],
        "payment_attempted": "2026-05-22",
        "apple_id_attempted": "2026-05-23",
        "google_attempted": "2026-05-23"
      }
    },
    {
      "type": "Feature",
      "geometry": {
        "type": "Point",
        "coordinates": [
          13.0261237,
          52.3128132
        ]
      },
      "properties": {
        "id": "tk_p_osm_n8095473092",
        "name": "Rössler Getränkemarkt",
        "address": {
          "street": "Michendorfer Gartenstraße",
          "number": "10",
          "postalcode": "14552",
          "city": "Michendorf",
          "district": "Michendorf"
        },
        "sources": [
          {
            "type": "osm",
            "id": "node/8095473092",
            "version": 0
          },
          {
            "type": "gmaps",
            "id": "payment"
          },
          {
            "type": "apple",
            "id": "12591836753517624259"
          }
        ],
        "created": "2026-05-20",
        "updated": "2026-05-23",
        "payment": {
          "cards": "no",
          "girocard": "yes",
          "contactless": "yes"
        },
        "hours": {
          "raw": "Mo-Fr 09:00-18:00; Sa 08:00-13:00"
        }
      }
    },
    {
      "type": "Feature",
      "geometry": {
        "type": "Point",
        "coordinates": [
          12.9199983,
          52.3697532
        ]
      },
      "properties": {
        "id": "tk_p_osm_n915254760",
        "name": "Getränke Hoffmann",
        "address": {
          "street": "Berliner Straße",
          "number": "111",
          "postalcode": "14542",
          "city": "Werder (Havel)",
          "district": "Werder (Havel)"
        },
        "sources": [
          {
            "type": "osm",
            "id": "node/915254760",
            "version": 0
          },
          {
            "type": "gmaps",
            "id": "payment"
          }
        ],
        "created": "2026-05-20",
        "updated": "2026-05-23",
        "hours": {
          "raw": "Mo-Fr 09:00-20:00; Sa 08:00-18:00"
        },
        "tags": [
          "barrierefrei"
        ],
        "payment": {
          "cards": "no",
          "girocard": "yes",
          "contactless": "yes"
        },
        "apple_id_attempted": "2026-05-23"
      }
    },
    {
      "type": "Feature",
      "geometry": {
        "type": "Point",
        "coordinates": [
          13.1581833,
          52.419729
        ]
      },
      "properties": {
        "id": "tk_p_osm_n937700202",
        "name": "Getränke Hoffmann",
        "address": {
          "street": "Königstraße",
          "number": "17",
          "postalcode": "14109",
          "city": "Berlin",
          "district": "Wannsee"
        },
        "sources": [
          {
            "type": "osm",
            "id": "node/937700202",
            "version": 0
          },
          {
            "type": "gmaps",
            "id": "payment"
          }
        ],
        "created": "2026-05-20",
        "updated": "2026-05-23",
        "hours": {
          "raw": "Mo-Fr 09:00-20:00; Sa 08:00-18:00"
        },
        "tags": [
          "barrierefrei"
        ],
        "payment": {
          "cards": "no",
          "girocard": "yes",
          "contactless": "yes"
        },
        "apple_id_attempted": "2026-05-23"
      }
    },
    {
      "type": "Feature",
      "geometry": {
        "type": "Point",
        "coordinates": [
          12.9171089,
          52.3970898
        ]
      },
      "properties": {
        "id": "tk_p_osm_n9747443950",
        "name": "Getränke Hoffmann",
        "address": {
          "street": "Zum Großen Zernsee",
          "number": "1",
          "postalcode": "14542",
          "city": "Werder (Havel)",
          "district": "Werder (Havel)"
        },
        "sources": [
          {
            "type": "osm",
            "id": "node/9747443950",
            "version": 0
          },
          {
            "type": "gmaps",
            "id": "payment"
          }
        ],
        "created": "2026-05-20",
        "updated": "2026-05-23",
        "payment": {
          "cards": "no",
          "girocard": "yes",
          "contactless": "yes"
        },
        "apple_id_attempted": "2026-05-23",
        "google_attempted": "2026-05-23"
      }
    },
    {
      "type": "Feature",
      "geometry": {
        "type": "Point",
        "coordinates": [
          12.9378565,
          52.3467854
        ]
      },
      "properties": {
        "id": "tk_p_osm_w114670191",
        "name": "Inselclub",
        "address": {
          "street": "Grelle",
          "number": "12-15",
          "postalcode": "14542",
          "city": "Werder (Havel)",
          "district": "Petzow"
        },
        "sources": [
          {
            "type": "osm",
            "id": "way/114670191",
            "version": 0
          }
        ],
        "created": "2026-05-20",
        "updated": "2026-05-23",
        "payment_attempted": "2026-05-22",
        "apple_id_attempted": "2026-05-23",
        "google_attempted": "2026-05-23"
      }
    },
    {
      "type": "Feature",
      "geometry": {
        "type": "Point",
        "coordinates": [
          13.0998413,
          52.3817902
        ]
      },
      "properties": {
        "id": "tk_p_osm_w128311602",
        "name": "Shell",
        "address": {
          "street": "Fritz-Zubeil-Straße",
          "number": "53",
          "postalcode": "14482",
          "city": "Potsdam",
          "district": "Babelsberg Süd"
        },
        "sources": [
          {
            "type": "osm",
            "id": "way/128311602",
            "version": 0
          },
          {
            "type": "gmaps",
            "id": "payment"
          }
        ],
        "created": "2026-05-20",
        "updated": "2026-05-21",
        "hours": {
          "raw": "24/7"
        },
        "tags": [
          "barrierefrei"
        ],
        "payment": {
          "cards": "no",
          "girocard": "yes",
          "contactless": "yes"
        },
        "apple_id_attempted": "2026-05-23"
      }
    },
    {
      "type": "Feature",
      "geometry": {
        "type": "Point",
        "coordinates": [
          13.1068249,
          52.3860636
        ]
      },
      "properties": {
        "id": "tk_p_osm_w129433240",
        "name": "Aral",
        "address": {
          "street": "Großbeerenstraße",
          "number": "121",
          "postalcode": "14482",
          "city": "Potsdam",
          "district": "Babelsberg Süd"
        },
        "sources": [
          {
            "type": "osm",
            "id": "way/129433240",
            "version": 0
          },
          {
            "type": "gmaps",
            "id": "payment"
          }
        ],
        "created": "2026-05-20",
        "updated": "2026-05-21",
        "hours": {
          "raw": "24/7"
        },
        "payment": {
          "cards": "no",
          "girocard": "yes",
          "contactless": "yes"
        },
        "apple_id_attempted": "2026-05-23"
      }
    },
    {
      "type": "Feature",
      "geometry": {
        "type": "Point",
        "coordinates": [
          13.0126959,
          52.4197684
        ]
      },
      "properties": {
        "id": "tk_p_osm_w129524919",
        "name": "Aral",
        "address": {
          "street": "Potsdamer Straße",
          "number": "55",
          "postalcode": "14469",
          "city": "Potsdam",
          "district": "Bornim"
        },
        "sources": [
          {
            "type": "osm",
            "id": "way/129524919",
            "version": 0
          },
          {
            "type": "gmaps",
            "id": "payment"
          }
        ],
        "created": "2026-05-20",
        "updated": "2026-05-21",
        "hours": {
          "raw": "24/7"
        },
        "payment": {
          "cards": "no",
          "girocard": "yes",
          "contactless": "yes"
        },
        "apple_id_attempted": "2026-05-23"
      }
    },
    {
      "type": "Feature",
      "geometry": {
        "type": "Point",
        "coordinates": [
          13.0543723,
          52.4228135
        ]
      },
      "properties": {
        "id": "tk_p_osm_w1450296245",
        "name": "JET",
        "address": {
          "street": "Nedlitzer Straße",
          "number": "20",
          "postalcode": "14469",
          "city": "Potsdam"
        },
        "sources": [
          {
            "type": "osm",
            "id": "way/1450296245",
            "version": 0
          }
        ],
        "created": "2026-05-20",
        "updated": "2026-05-21",
        "hours": {
          "raw": "24/7"
        },
        "payment": {
          "cash": "unknown",
          "cards": "yes",
          "contactless": "unknown",
          "girocard": "unknown",
          "mobile": "yes"
        },
        "apple_id_attempted": "2026-05-23"
      }
    },
    {
      "type": "Feature",
      "geometry": {
        "type": "Point",
        "coordinates": [
          12.9321108,
          52.3768008
        ]
      },
      "properties": {
        "id": "tk_p_osm_w150516385",
        "name": "Getränke Hoffmann",
        "address": {
          "street": "Kemnitzer Straße",
          "number": "122",
          "postalcode": "14542",
          "city": "Werder (Havel)"
        },
        "sources": [
          {
            "type": "osm",
            "id": "way/150516385",
            "version": 0
          },
          {
            "type": "gmaps",
            "id": "payment"
          }
        ],
        "created": "2026-05-20",
        "updated": "2026-05-21",
        "payment": {
          "cards": "no",
          "girocard": "yes",
          "contactless": "yes"
        },
        "apple_id_attempted": "2026-05-23",
        "google_attempted": "2026-05-23"
      }
    },
    {
      "type": "Feature",
      "geometry": {
        "type": "Point",
        "coordinates": [
          13.1094909,
          52.3853443
        ]
      },
      "properties": {
        "id": "tk_p_osm_w178208611",
        "name": "Total",
        "address": {
          "street": "Großbeerenstraße",
          "number": "137",
          "postalcode": "14482",
          "city": "Potsdam",
          "district": "Babelsberg Süd"
        },
        "sources": [
          {
            "type": "osm",
            "id": "way/178208611",
            "version": 0
          }
        ],
        "created": "2026-05-20",
        "updated": "2026-05-21",
        "hours": {
          "raw": "24/7"
        },
        "payment": {
          "cash": "unknown",
          "cards": "unknown",
          "contactless": "yes",
          "girocard": "yes",
          "mobile": "yes"
        },
        "tags": [
          "barrierefrei"
        ],
        "apple_id_attempted": "2026-05-23"
      }
    },
    {
      "type": "Feature",
      "geometry": {
        "type": "Point",
        "coordinates": [
          13.1164363,
          52.3855458
        ]
      },
      "properties": {
        "id": "tk_p_osm_w244830041",
        "name": "Filmparkshop",
        "address": {
          "street": "Großbeerenstraße",
          "number": "200",
          "postalcode": "14482",
          "city": "Potsdam",
          "district": "Babelsberg Süd"
        },
        "sources": [
          {
            "type": "osm",
            "id": "way/244830041",
            "version": 0
          }
        ],
        "created": "2026-05-20",
        "updated": "2026-05-23",
        "payment_attempted": "2026-05-22",
        "apple_id_attempted": "2026-05-23",
        "google_attempted": "2026-05-23"
      }
    },
    {
      "type": "Feature",
      "geometry": {
        "type": "Point",
        "coordinates": [
          13.019885,
          52.3023353
        ]
      },
      "properties": {
        "id": "tk_p_osm_w24628816",
        "name": "Michendorf Nord",
        "address": {
          "street": "An der A10 (Nord)",
          "postalcode": "14552",
          "city": "Michendorf",
          "district": "Michendorf"
        },
        "sources": [
          {
            "type": "osm",
            "id": "way/24628816",
            "version": 0
          }
        ],
        "created": "2026-05-20",
        "updated": "2026-05-23",
        "hours": {
          "raw": "24/7"
        },
        "tags": [
          "barrierefrei"
        ],
        "payment_attempted": "2026-05-22",
        "apple_id_attempted": "2026-05-23",
        "google_attempted": "2026-05-23"
      }
    },
    {
      "type": "Feature",
      "geometry": {
        "type": "Point",
        "coordinates": [
          12.9401455,
          52.3139567
        ]
      },
      "properties": {
        "id": "tk_p_osm_w302565271",
        "name": "Strand Ferch - Pavillon/Seeterrasse",
        "address": {
          "street": "Dorfstraße",
          "number": "41A",
          "postalcode": "14548",
          "city": "Schwielowsee",
          "district": "Ferch"
        },
        "sources": [
          {
            "type": "osm",
            "id": "way/302565271",
            "version": 0
          },
          {
            "type": "gmaps",
            "id": "ChIJrWcerQKLqEcR4dWuTLA-a90"
          }
        ],
        "created": "2026-05-20",
        "updated": "2026-05-21",
        "hours": {
          "raw": "12:00-21:00"
        },
        "tags": [
          "draussen"
        ],
        "payment_attempted": "2026-05-22",
        "apple_id_attempted": "2026-05-23",
        "google_attempted": "2026-05-23"
      }
    },
    {
      "type": "Feature",
      "geometry": {
        "type": "Point",
        "coordinates": [
          13.1032517,
          52.4703985
        ]
      },
      "properties": {
        "id": "tk_p_osm_w325709109",
        "name": "Getränke Hoffmann",
        "address": {
          "street": "Potsdamer Chaussee",
          "number": "98",
          "postalcode": "14476",
          "city": "Potsdam",
          "district": "Groß Glienicke"
        },
        "sources": [
          {
            "type": "osm",
            "id": "way/325709109",
            "version": 0
          },
          {
            "type": "gmaps",
            "id": "payment"
          }
        ],
        "created": "2026-05-20",
        "updated": "2026-05-21",
        "hours": {
          "raw": "Mo-Fr 09:00-20:00; Sa 09:00-18:00"
        },
        "tags": [
          "barrierefrei"
        ],
        "payment": {
          "cards": "no",
          "girocard": "yes",
          "contactless": "yes"
        },
        "apple_id_attempted": "2026-05-23"
      }
    },
    {
      "type": "Feature",
      "geometry": {
        "type": "Point",
        "coordinates": [
          13.1238495,
          52.3821408
        ]
      },
      "properties": {
        "id": "tk_p_osm_w395895352",
        "name": "Getränke Hoffmann",
        "address": {
          "street": "Großbeerenstraße",
          "number": "211",
          "postalcode": "14480",
          "city": "Potsdam"
        },
        "sources": [
          {
            "type": "osm",
            "id": "way/395895352",
            "version": 0
          },
          {
            "type": "gmaps",
            "id": "payment"
          }
        ],
        "created": "2026-05-20",
        "updated": "2026-05-21",
        "hours": {
          "raw": "Mo-Fr 09:00-20:00; Sa 09:00-18:00; Su,PH off"
        },
        "tags": [
          "barrierefrei"
        ],
        "payment": {
          "cards": "no",
          "girocard": "yes",
          "contactless": "yes"
        },
        "apple_id_attempted": "2026-05-23"
      }
    },
    {
      "type": "Feature",
      "geometry": {
        "type": "Point",
        "coordinates": [
          13.1285892,
          52.3677495
        ]
      },
      "properties": {
        "id": "tk_p_osm_w529670585",
        "name": "Aral",
        "address": {
          "street": "Gerlachstraße",
          "number": "8",
          "postalcode": "14480",
          "city": "Potsdam",
          "district": "Drewitz"
        },
        "sources": [
          {
            "type": "osm",
            "id": "way/529670585",
            "version": 0
          },
          {
            "type": "gmaps",
            "id": "payment"
          }
        ],
        "created": "2026-05-20",
        "updated": "2026-05-21",
        "hours": {
          "raw": "24/7"
        },
        "tags": [
          "barrierefrei"
        ],
        "payment": {
          "cards": "no",
          "girocard": "yes",
          "contactless": "yes"
        },
        "apple_id_attempted": "2026-05-23"
      }
    },
    {
      "type": "Feature",
      "geometry": {
        "type": "Point",
        "coordinates": [
          13.0665963,
          52.3920995
        ]
      },
      "properties": {
        "id": "tk_p_osm_w61649578",
        "name": "Tabak Lotto Post",
        "address": {
          "street": "Babelsberger Straße",
          "number": "16",
          "postalcode": "14473",
          "city": "Potsdam",
          "district": "Zentrum Ost und Nuthepark"
        },
        "sources": [
          {
            "type": "osm",
            "id": "way/61649578",
            "version": 0
          }
        ],
        "created": "2026-05-20",
        "updated": "2026-05-23",
        "hours": {
          "raw": "Mo-Sa 06:00-20:00"
        },
        "payment": {
          "cash": "yes",
          "cards": "yes",
          "contactless": "unknown",
          "girocard": "yes",
          "mobile": "unknown"
        },
        "tags": [
          "barrierefrei"
        ],
        "apple_id_attempted": "2026-05-23"
      }
    },
    {
      "type": "Feature",
      "geometry": {
        "type": "Point",
        "coordinates": [
          13.1034432,
          52.3509066
        ]
      },
      "properties": {
        "id": "tk_p_osm_w96600559",
        "name": "Aral",
        "address": {
          "street": "Arthur-Scheunert-Allee",
          "number": "73-75",
          "postalcode": "14558",
          "city": "Nuthetal",
          "district": "Bergholz-Rehbrücke"
        },
        "sources": [
          {
            "type": "osm",
            "id": "way/96600559",
            "version": 0
          },
          {
            "type": "gmaps",
            "id": "payment"
          }
        ],
        "created": "2026-05-20",
        "updated": "2026-05-21",
        "hours": {
          "raw": "24/7"
        },
        "tags": [
          "barrierefrei"
        ],
        "payment": {
          "cards": "yes",
          "girocard": "yes",
          "contactless": "yes"
        },
        "apple_id_attempted": "2026-05-23"
      }
    },
    {
      "type": "Feature",
      "geometry": {
        "type": "Point",
        "coordinates": [
          13.0848064,
          52.3921626
        ]
      },
      "properties": {
        "id": "tk_p_osm_w97424680",
        "name": "HEM",
        "address": {
          "street": "Friedrich-List-Straße",
          "number": "11",
          "postalcode": "14482",
          "city": "Potsdam",
          "district": "Babelsberg Nord"
        },
        "sources": [
          {
            "type": "osm",
            "id": "way/97424680",
            "version": 0
          },
          {
            "type": "gmaps",
            "id": "payment"
          }
        ],
        "created": "2026-05-20",
        "updated": "2026-05-21",
        "hours": {
          "raw": "24/7"
        },
        "payment": {
          "cards": "no",
          "girocard": "yes",
          "contactless": "yes"
        },
        "apple_id_attempted": "2026-05-23"
      }
    }
  ]
}
