{
  "type": "FeatureCollection",
  "features": [
    {
      "type": "Feature",
      "geometry": {
        "type": "Point",
        "coordinates": [
          11.9807173,
          51.4791627
        ]
      },
      "properties": {
        "id": "tk_fr_0621",
        "name": "Rudis Call shop",
        "description": "Viel Bier und toller Service und die haben super Bluetooth  Boxen ",
        "address": {
          "street": "Leipziger Straße",
          "number": "48",
          "postalcode": "06108",
          "city": "Halle (Saale)",
          "district": "Mitte"
        },
        "sources": [
          {
            "type": "hopfenstop",
            "id": "2953cfee-6b23-4be6-b8f5-2452c8e4de1a"
          },
          {
            "type": "apple",
            "id": "13446122657647198367"
          }
        ],
        "created": "2026-05-19",
        "updated": "2026-05-22",
        "payment_attempted": "2026-05-22",
        "payment": {
          "cards": "yes",
          "contactless": "yes"
        },
        "hours": {
          "raw": "Su 00:00-02:00,14:00-20:00; Mo-Fr 10:00-24:00; Sa 00:00-01:00,10:00-24:00"
        },
        "sources_by_field": {
          "name": "hopfenstop",
          "description": "hopfenstop",
          "address.street": "hopfenstop",
          "address.number": "hopfenstop",
          "address.postalcode": "hopfenstop",
          "address.city": "hopfenstop",
          "address.district": "hopfenstop"
        }
      }
    },
    {
      "type": "Feature",
      "geometry": {
        "type": "Point",
        "coordinates": [
          11.98168,
          51.47878
        ]
      },
      "properties": {
        "id": "tk_fr_0623",
        "name": "Tresor Kiosk ",
        "description": "viel bier und Chips ",
        "address": {
          "street": "Paul-Riebeck-Straße",
          "number": "9",
          "postalcode": "06110",
          "city": "Halle (Saale)",
          "district": "Stadtbezirk Süd"
        },
        "sources": [
          {
            "type": "hopfenstop",
            "id": "3d92e627-f7c3-4c9f-b29a-a10395f6a941"
          }
        ],
        "created": "2026-05-19",
        "updated": "2026-05-19",
        "payment_attempted": "2026-05-22",
        "apple_id_attempted": "2026-06-24",
        "google_attempted": "2026-06-24",
        "sources_by_field": {
          "name": "hopfenstop",
          "description": "hopfenstop",
          "address.street": "hopfenstop",
          "address.number": "hopfenstop",
          "address.postalcode": "hopfenstop",
          "address.city": "hopfenstop",
          "address.district": "hopfenstop"
        }
      }
    },
    {
      "type": "Feature",
      "geometry": {
        "type": "Point",
        "coordinates": [
          11.98168,
          51.47878
        ]
      },
      "properties": {
        "id": "tk_fr_0624",
        "name": "Cherie Minimarkt",
        "description": "viel bier und Chips und Bockwurst ",
        "address": {
          "street": "Paul-Riebeck-Straße",
          "number": "9",
          "postalcode": "06110",
          "city": "Halle (Saale)",
          "district": "Stadtbezirk Süd"
        },
        "sources": [
          {
            "type": "hopfenstop",
            "id": "199cb03a-8638-4617-b6ab-4cb8db109494"
          },
          {
            "type": "apple",
            "id": "29623728767270802"
          }
        ],
        "created": "2026-05-19",
        "updated": "2026-05-22",
        "payment_attempted": "2026-05-22",
        "hours": {
          "raw": "Su 14:00-20:00; Mo-Fr 06:00-22:00; Sa 08:00-20:00"
        },
        "google_attempted": "2026-06-24",
        "sources_by_field": {
          "name": "hopfenstop",
          "description": "hopfenstop",
          "address.street": "hopfenstop",
          "address.number": "hopfenstop",
          "address.postalcode": "hopfenstop",
          "address.city": "hopfenstop",
          "address.district": "hopfenstop",
          "hours": "apple"
        },
        "apple_attempted": "2026-06-24"
      }
    },
    {
      "type": "Feature",
      "geometry": {
        "type": "Point",
        "coordinates": [
          11.9769181,
          51.4801553
        ]
      },
      "properties": {
        "id": "tk_fr_0625",
        "name": "Vian Internetcafe ",
        "description": "jelal hat immer viel bier und coole Bluetooth Speaker und passionierte Tomaten ",
        "address": {
          "street": "Leipziger Straße",
          "number": "29",
          "postalcode": "06108",
          "city": "Halle (Saale)",
          "district": "Mitte"
        },
        "sources": [
          {
            "type": "hopfenstop",
            "id": "476b48a8-5051-4304-b2df-e65b001402cd"
          },
          {
            "type": "gmaps",
            "id": "ChIJ3yoooEVjpkcRJykvJxFqTHI"
          }
        ],
        "created": "2026-05-19",
        "updated": "2026-05-19",
        "payment_attempted": "2026-05-22",
        "apple_id_attempted": "2026-06-24",
        "google_attempted": "2026-06-24",
        "sources_by_field": {
          "name": "hopfenstop",
          "description": "hopfenstop",
          "address.street": "hopfenstop",
          "address.number": "hopfenstop",
          "address.postalcode": "hopfenstop",
          "address.city": "hopfenstop",
          "address.district": "hopfenstop"
        }
      }
    },
    {
      "type": "Feature",
      "geometry": {
        "type": "Point",
        "coordinates": [
          11.9675278,
          51.4826851
        ]
      },
      "properties": {
        "id": "tk_fr_0626",
        "name": "Raman Shop Internetcafe und A&V",
        "description": "Nicht so viel bier aber ist warm drin.",
        "address": {
          "street": "Talamtstraße",
          "number": "7",
          "postalcode": "06108",
          "city": "Halle (Saale)",
          "district": "Mitte"
        },
        "sources": [
          {
            "type": "hopfenstop",
            "id": "31f1ebc1-5d0c-419b-b0b3-a0acd4329c06"
          },
          {
            "type": "gmaps",
            "id": "ChIJzRyY601jpkcRMs6yXX9t2qM"
          }
        ],
        "created": "2026-05-19",
        "updated": "2026-06-24",
        "payment_attempted": "2026-05-22",
        "apple_id_attempted": "2026-06-24",
        "payment": {
          "cards": "yes",
          "contactless": "yes",
          "girocard": "yes"
        },
        "google_attempted": "2026-06-24",
        "sources_by_field": {
          "name": "hopfenstop",
          "description": "hopfenstop",
          "address.street": "hopfenstop",
          "address.number": "hopfenstop",
          "address.postalcode": "hopfenstop",
          "address.city": "hopfenstop",
          "address.district": "hopfenstop",
          "payment.cards": "google",
          "hours": "google"
        },
        "hours": {
          "raw": "Tu 09:00-20:00; Th 09:00-20:00; Fr 09:00-20:00; We 09:00-20:00; Mo 09:00-20:00; Sa 10:00-20:00; Su 12:00-18:00"
        }
      }
    },
    {
      "type": "Feature",
      "geometry": {
        "type": "Point",
        "coordinates": [
          11.9656353,
          51.4826089
        ]
      },
      "properties": {
        "id": "tk_fr_0627",
        "name": "Lebensmittel und Getränke ",
        "description": "ist der letzte spätverkauf vor der peißnitz Insel. also unbedingt hier Bier kaufen ",
        "address": {
          "street": "Hallorenring",
          "number": "1",
          "postalcode": "06108",
          "city": "Halle (Saale)",
          "district": "Mitte"
        },
        "sources": [
          {
            "type": "hopfenstop",
            "id": "bfdd67c2-db7e-4447-b8db-9fb368ac20ce"
          }
        ],
        "created": "2026-05-19",
        "updated": "2026-05-19",
        "payment_attempted": "2026-05-22",
        "apple_id_attempted": "2026-06-24",
        "google_attempted": "2026-06-24",
        "sources_by_field": {
          "name": "hopfenstop",
          "description": "hopfenstop",
          "address.street": "hopfenstop",
          "address.number": "hopfenstop",
          "address.postalcode": "hopfenstop",
          "address.city": "hopfenstop",
          "address.district": "hopfenstop"
        }
      }
    },
    {
      "type": "Feature",
      "geometry": {
        "type": "Point",
        "coordinates": [
          11.9673609,
          51.48644299999999
        ]
      },
      "properties": {
        "id": "tk_fr_0628",
        "name": "Evin Getränke und tabakwaren",
        "description": "hat sehr viel Bier und Chips und Wein. letzter späti vorm flowepower ohne von den Türstehern gesehen zu werden.",
        "address": {
          "street": "Große Ulrichstraße",
          "number": "40",
          "postalcode": "06108",
          "city": "Halle (Saale)",
          "district": "Mitte"
        },
        "tags": [
          "wein"
        ],
        "sources": [
          {
            "type": "hopfenstop",
            "id": "14906401-1bb8-4f51-ad27-3fa321f9b6f0"
          }
        ],
        "created": "2026-05-19",
        "updated": "2026-05-19",
        "payment_attempted": "2026-05-22",
        "apple_id_attempted": "2026-06-24",
        "google_attempted": "2026-06-24",
        "sources_by_field": {
          "name": "hopfenstop",
          "description": "hopfenstop",
          "address.street": "hopfenstop",
          "address.number": "hopfenstop",
          "address.postalcode": "hopfenstop",
          "address.city": "hopfenstop",
          "address.district": "hopfenstop"
        }
      }
    },
    {
      "type": "Feature",
      "geometry": {
        "type": "Point",
        "coordinates": [
          11.9677,
          51.4873
        ]
      },
      "properties": {
        "id": "tk_fr_0629",
        "name": "Halle teleshop A&V",
        "description": "letzter späti vor dem flowerpower. hat sehr  viel Bier und Bänke in der Nähe ",
        "address": {
          "street": "Universitätsring",
          "number": "8",
          "postalcode": "06108",
          "city": "Halle (Saale)",
          "district": "Mitte"
        },
        "sources": [
          {
            "type": "hopfenstop",
            "id": "c1baa9d6-1928-41e0-a9a9-781e5f3c15ea"
          }
        ],
        "created": "2026-05-19",
        "updated": "2026-05-19",
        "payment_attempted": "2026-05-22",
        "apple_id_attempted": "2026-06-24",
        "google_attempted": "2026-06-24",
        "sources_by_field": {
          "name": "hopfenstop",
          "description": "hopfenstop",
          "address.street": "hopfenstop",
          "address.number": "hopfenstop",
          "address.postalcode": "hopfenstop",
          "address.city": "hopfenstop",
          "address.district": "hopfenstop"
        }
      }
    },
    {
      "type": "Feature",
      "geometry": {
        "type": "Point",
        "coordinates": [
          11.9702581,
          51.4798336
        ]
      },
      "properties": {
        "id": "tk_fr_0630",
        "name": "Internetcafe Jolin",
        "description": "hat sehr viel Bier und Chips und Wein.  geöffnet jetzt und sonst Mo bis Fr 9-23uhr. Sa 9-20 Uhr. So 11-17uhr ",
        "address": {
          "street": "Rannische Straße",
          "number": "20",
          "postalcode": "06108",
          "city": "Halle (Saale)",
          "district": "Mitte"
        },
        "tags": [
          "wein"
        ],
        "sources": [
          {
            "type": "hopfenstop",
            "id": "5f78fe70-74a6-4e4d-b40a-bbb33b68813c"
          },
          {
            "type": "gmaps",
            "id": "ChIJ4WqVFk9jpkcRU6cq-LK96pY"
          }
        ],
        "created": "2026-05-19",
        "updated": "2026-05-19",
        "payment_attempted": "2026-05-22",
        "apple_id_attempted": "2026-06-24",
        "google_attempted": "2026-06-24",
        "sources_by_field": {
          "name": "hopfenstop",
          "description": "hopfenstop",
          "address.street": "hopfenstop",
          "address.number": "hopfenstop",
          "address.postalcode": "hopfenstop",
          "address.city": "hopfenstop",
          "address.district": "hopfenstop"
        }
      }
    },
    {
      "type": "Feature",
      "geometry": {
        "type": "Point",
        "coordinates": [
          11.9698523,
          51.4774884
        ]
      },
      "properties": {
        "id": "tk_fr_0631",
        "name": "Bistro Antalya ",
        "description": "hat neben Bier auch Döner und Chips und Spirituosen. und hat Sterni Bier ",
        "address": {
          "street": "Steinweg",
          "number": "52",
          "postalcode": "06110",
          "city": "Halle (Saale)",
          "district": "Mitte"
        },
        "sources": [
          {
            "type": "hopfenstop",
            "id": "e4e8e456-a88b-452d-b4b6-f65f48d4c8bc"
          },
          {
            "type": "gmaps",
            "id": "ChIJoze9J0ljpkcRncGmKd1a_Us"
          }
        ],
        "created": "2026-05-19",
        "updated": "2026-06-24",
        "payment_attempted": "2026-05-22",
        "apple_id_attempted": "2026-06-24",
        "google_attempted": "2026-06-24",
        "sources_by_field": {
          "name": "hopfenstop",
          "description": "hopfenstop",
          "address.street": "hopfenstop",
          "address.number": "hopfenstop",
          "address.postalcode": "hopfenstop",
          "address.city": "hopfenstop",
          "address.district": "hopfenstop",
          "hours": "google"
        },
        "hours": {
          "raw": "Tu 11:00-22:00; Th 11:00-22:00; Fr 11:00-22:00; We 11:00-22:00; Mo 11:00-22:00; Sa 12:00-22:00; Su 12:00-22:00"
        }
      }
    },
    {
      "type": "Feature",
      "geometry": {
        "type": "Point",
        "coordinates": [
          11.96541,
          51.47579
        ]
      },
      "properties": {
        "id": "tk_fr_0632",
        "name": "Babylon Bistro ",
        "description": "hat viel bier und Döner. desweiteren gibt es viele Spirituosen, Wein und eine spielothek",
        "address": {
          "street": "Jacobstraße",
          "number": "46",
          "postalcode": "06110",
          "city": "Halle (Saale)",
          "district": "Mitte"
        },
        "tags": [
          "wein"
        ],
        "sources": [
          {
            "type": "hopfenstop",
            "id": "66db9c78-4da8-498f-bd68-f243f5ed4b6a"
          }
        ],
        "created": "2026-05-19",
        "updated": "2026-05-19",
        "payment_attempted": "2026-05-22",
        "apple_id_attempted": "2026-06-24",
        "google_attempted": "2026-06-24",
        "sources_by_field": {
          "name": "hopfenstop",
          "description": "hopfenstop",
          "address.street": "hopfenstop",
          "address.number": "hopfenstop",
          "address.postalcode": "hopfenstop",
          "address.city": "hopfenstop",
          "address.district": "hopfenstop"
        }
      }
    },
    {
      "type": "Feature",
      "geometry": {
        "type": "Point",
        "coordinates": [
          11.9695664,
          51.474126
        ]
      },
      "properties": {
        "id": "tk_fr_0633",
        "name": "aktiv spätkauf",
        "description": "viel bier",
        "address": {
          "street": "Steinweg",
          "number": "30",
          "postalcode": "06110",
          "city": "Halle (Saale)",
          "district": "Mitte"
        },
        "sources": [
          {
            "type": "hopfenstop",
            "id": "07722a2c-3b12-42c0-8e76-f9633059af1d"
          },
          {
            "type": "osm",
            "id": "node/5698531621",
            "version": 0
          },
          {
            "type": "apple",
            "id": "6445054529042539246"
          }
        ],
        "created": "2026-05-19",
        "updated": "2026-05-22",
        "hours": {
          "raw": "Mo-Fr 11:00-22:00; Sa 10:00-22:00; Su 13:00-20:00"
        },
        "payment_attempted": "2026-05-22",
        "payment": {
          "cards": "yes",
          "contactless": "yes"
        },
        "sources_by_field": {
          "name": "hopfenstop",
          "description": "hopfenstop",
          "address.street": "hopfenstop",
          "address.number": "hopfenstop",
          "address.postalcode": "hopfenstop",
          "address.city": "hopfenstop",
          "address.district": "hopfenstop"
        }
      }
    },
    {
      "type": "Feature",
      "geometry": {
        "type": "Point",
        "coordinates": [
          11.9798648,
          51.475823
        ]
      },
      "properties": {
        "id": "tk_fr_0634",
        "name": "Ibo's Grill ",
        "description": "bester Döner in Halle. viel bier ",
        "address": {
          "street": "Ernst-Toller-Straße",
          "number": "11",
          "postalcode": "06110",
          "city": "Halle (Saale)",
          "district": "Mitte"
        },
        "sources": [
          {
            "type": "hopfenstop",
            "id": "c6722e4c-f8a8-4702-9c0f-598bcd5ff385"
          },
          {
            "type": "gmaps",
            "id": "ChIJw6O2xUZjpkcRuBI16k2YajY"
          }
        ],
        "created": "2026-05-19",
        "updated": "2026-06-24",
        "payment_attempted": "2026-05-22",
        "apple_id_attempted": "2026-06-24",
        "google_attempted": "2026-06-24",
        "sources_by_field": {
          "name": "hopfenstop",
          "description": "hopfenstop",
          "address.street": "hopfenstop",
          "address.number": "hopfenstop",
          "address.postalcode": "hopfenstop",
          "address.city": "hopfenstop",
          "address.district": "hopfenstop",
          "hours": "google"
        },
        "hours": {
          "raw": "Tu 10:30-00:00; Th 10:30-00:00; Fr 10:30-00:00; We 10:30-00:00; Mo 10:30-00:00; Sa 11:00-00:00; Su 11:00-00:00"
        }
      }
    },
    {
      "type": "Feature",
      "geometry": {
        "type": "Point",
        "coordinates": [
          11.96587,
          51.49596
        ]
      },
      "properties": {
        "id": "tk_fr_0670",
        "name": "Yasmin Internetshop ",
        "description": "viel bier und Schnaps ",
        "address": {
          "street": "Reilstraße",
          "number": "3",
          "postalcode": "06114",
          "city": "Halle (Saale)",
          "district": "Stadtbezirk Nord"
        },
        "tags": [
          "schnaps"
        ],
        "sources": [
          {
            "type": "hopfenstop",
            "id": "655b2bde-55de-4752-9dcc-0f52d0260b94"
          }
        ],
        "created": "2026-05-19",
        "updated": "2026-05-19",
        "payment_attempted": "2026-05-22",
        "apple_id_attempted": "2026-06-24",
        "google_attempted": "2026-06-24",
        "sources_by_field": {
          "name": "hopfenstop",
          "description": "hopfenstop",
          "address.street": "hopfenstop",
          "address.number": "hopfenstop",
          "address.postalcode": "hopfenstop",
          "address.city": "hopfenstop",
          "address.district": "hopfenstop"
        }
      }
    },
    {
      "type": "Feature",
      "geometry": {
        "type": "Point",
        "coordinates": [
          11.97204,
          51.48558
        ]
      },
      "properties": {
        "id": "tk_fr_0730",
        "name": "Kian Internet cafe",
        "description": "Hat Bier und kippen",
        "address": {
          "street": "Joliot-Curie-Platz",
          "number": "1",
          "postalcode": "06108",
          "city": "Halle (Saale)",
          "district": "Mitte"
        },
        "sources": [
          {
            "type": "hopfenstop",
            "id": "0966ce0c-79d6-4deb-bd5d-83e2f717d1db"
          }
        ],
        "created": "2026-05-19",
        "updated": "2026-05-19",
        "payment_attempted": "2026-05-22",
        "apple_id_attempted": "2026-06-24",
        "google_attempted": "2026-06-24",
        "sources_by_field": {
          "name": "hopfenstop",
          "description": "hopfenstop",
          "address.street": "hopfenstop",
          "address.number": "hopfenstop",
          "address.postalcode": "hopfenstop",
          "address.city": "hopfenstop",
          "address.district": "hopfenstop"
        }
      }
    },
    {
      "type": "Feature",
      "geometry": {
        "type": "Point",
        "coordinates": [
          11.9708384,
          51.488284
        ]
      },
      "properties": {
        "id": "tk_fr_0731",
        "name": "Lady eda",
        "description": "Bier und so",
        "address": {
          "street": "Weidenplan",
          "number": "22",
          "postalcode": "06108",
          "city": "Halle (Saale)",
          "district": "Mitte"
        },
        "sources": [
          {
            "type": "hopfenstop",
            "id": "036a5884-075b-4fa4-8745-d5ee10176367"
          }
        ],
        "created": "2026-05-19",
        "updated": "2026-05-19",
        "payment_attempted": "2026-05-22",
        "apple_id_attempted": "2026-06-24",
        "google_attempted": "2026-06-24",
        "sources_by_field": {
          "name": "hopfenstop",
          "description": "hopfenstop",
          "address.street": "hopfenstop",
          "address.number": "hopfenstop",
          "address.postalcode": "hopfenstop",
          "address.city": "hopfenstop",
          "address.district": "hopfenstop"
        }
      }
    },
    {
      "type": "Feature",
      "geometry": {
        "type": "Point",
        "coordinates": [
          11.96134,
          51.49868
        ]
      },
      "properties": {
        "id": "tk_fr_0732",
        "name": "Lady eda (der dritte)",
        "description": "Bier und chipse und so und noch mehr bier ",
        "address": {
          "street": "Triftstraße",
          "number": "35",
          "postalcode": "06114",
          "city": "Halle (Saale)",
          "district": "Stadtbezirk Nord"
        },
        "sources": [
          {
            "type": "hopfenstop",
            "id": "e8c814d5-6154-4918-8034-d350bf85e485"
          }
        ],
        "created": "2026-05-19",
        "updated": "2026-05-19",
        "payment_attempted": "2026-05-22",
        "apple_id_attempted": "2026-06-24",
        "google_attempted": "2026-06-24",
        "sources_by_field": {
          "name": "hopfenstop",
          "description": "hopfenstop",
          "address.street": "hopfenstop",
          "address.number": "hopfenstop",
          "address.postalcode": "hopfenstop",
          "address.city": "hopfenstop",
          "address.district": "hopfenstop"
        }
      }
    },
    {
      "type": "Feature",
      "geometry": {
        "type": "Point",
        "coordinates": [
          11.9659869,
          51.4910939
        ]
      },
      "properties": {
        "id": "tk_fr_0733",
        "name": "Berlin Döner ",
        "description": "Bier und Döner und Wein und Schnaps ",
        "address": {
          "street": "Geiststraße",
          "number": "35E",
          "postalcode": "06108",
          "city": "Halle (Saale)",
          "district": "Mitte"
        },
        "tags": [
          "barrierefrei",
          "draussen",
          "raucherbereich",
          "schnaps",
          "sitzgelegenheiten",
          "wein"
        ],
        "sources": [
          {
            "type": "hopfenstop",
            "id": "f7fb4f01-d85f-43f4-b4cd-fe36de176346"
          },
          {
            "type": "osm",
            "id": "node/4948467821",
            "version": 0
          },
          {
            "type": "gmaps",
            "id": "ChIJV5mDzlRjpkcRcfx_Mhb4wcE"
          }
        ],
        "created": "2026-05-19",
        "updated": "2026-06-24",
        "hours": {
          "raw": "Tu 11:00-00:00; Th 11:00-00:00; Fr 11:00-05:00; We 11:00-00:00; Mo 11:00-00:00; Sa 11:00-05:00; Su 11:00-00:00"
        },
        "payment": {
          "cash": "yes"
        },
        "apple_id_attempted": "2026-06-24",
        "google_attempted": "2026-06-24",
        "sources_by_field": {
          "name": "hopfenstop",
          "description": "hopfenstop",
          "address.street": "hopfenstop",
          "address.number": "hopfenstop",
          "address.postalcode": "hopfenstop",
          "address.city": "hopfenstop",
          "address.district": "hopfenstop",
          "hours": "google"
        }
      }
    },
    {
      "type": "Feature",
      "geometry": {
        "type": "Point",
        "coordinates": [
          11.9550438,
          51.5014943
        ]
      },
      "properties": {
        "id": "tk_fr_0780",
        "name": "Scherins Markt",
        "description": "Bier und  so",
        "address": {
          "street": "Burgstraße",
          "number": "4",
          "postalcode": "06114",
          "city": "Halle (Saale)",
          "district": "Stadtbezirk Nord"
        },
        "sources": [
          {
            "type": "hopfenstop",
            "id": "98f6de6d-7861-40f3-9e95-9f64d84d69ec"
          },
          {
            "type": "apple",
            "id": "17440468371646643962"
          }
        ],
        "created": "2026-05-19",
        "updated": "2026-05-22",
        "payment_attempted": "2026-05-22",
        "payment": {
          "cards": "yes",
          "contactless": "yes"
        },
        "hours": {
          "raw": "Mo-Su 00:00-01:00,11:00-24:00"
        },
        "sources_by_field": {
          "name": "hopfenstop",
          "description": "hopfenstop",
          "address.street": "hopfenstop",
          "address.number": "hopfenstop",
          "address.postalcode": "hopfenstop",
          "address.city": "hopfenstop",
          "address.district": "hopfenstop"
        }
      }
    },
    {
      "type": "Feature",
      "geometry": {
        "type": "Point",
        "coordinates": [
          11.9621467,
          51.5007197
        ]
      },
      "properties": {
        "id": "tk_fr_0781",
        "name": "SPÄTI",
        "description": "Bier uvm.",
        "address": {
          "street": "Richard-Wagner-Straße",
          "number": "38",
          "postalcode": "06114",
          "city": "Halle (Saale)",
          "district": "Stadtbezirk Nord"
        },
        "hours": {
          "raw": "Mo-Su 10:00-23:00"
        },
        "sources": [
          {
            "type": "hopfenstop",
            "id": "efffce61-f259-489d-a231-5dc1d070c808"
          },
          {
            "type": "gmaps",
            "id": "payment"
          }
        ],
        "created": "2026-05-19",
        "updated": "2026-05-21",
        "payment": {
          "cards": "no",
          "girocard": "yes",
          "contactless": "yes"
        },
        "apple_id_attempted": "2026-06-24",
        "sources_by_field": {
          "name": "hopfenstop",
          "description": "hopfenstop",
          "address.street": "hopfenstop",
          "address.number": "hopfenstop",
          "address.postalcode": "hopfenstop",
          "address.city": "hopfenstop",
          "address.district": "hopfenstop",
          "hours": "hopfenstop"
        }
      }
    },
    {
      "type": "Feature",
      "geometry": {
        "type": "Point",
        "coordinates": [
          11.9647429,
          51.4961623
        ]
      },
      "properties": {
        "id": "tk_fr_0782",
        "name": "Sonnenoase",
        "description": "Bier",
        "address": {
          "street": "Richard-Wagner-Straße",
          "number": "4",
          "postalcode": "06114",
          "city": "Halle (Saale)",
          "district": "Stadtbezirk Nord"
        },
        "sources": [
          {
            "type": "hopfenstop",
            "id": "5e5232fb-0bc3-4e4e-b6d5-dc7ffb22923b"
          },
          {
            "type": "gmaps",
            "id": "ChIJF8PuDVV7pkcRfT6nE1bzpGk"
          }
        ],
        "created": "2026-05-19",
        "updated": "2026-05-19",
        "payment_attempted": "2026-05-22",
        "apple_id_attempted": "2026-06-24",
        "google_attempted": "2026-06-24",
        "sources_by_field": {
          "name": "hopfenstop",
          "description": "hopfenstop",
          "address.street": "hopfenstop",
          "address.number": "hopfenstop",
          "address.postalcode": "hopfenstop",
          "address.city": "hopfenstop",
          "address.district": "hopfenstop"
        }
      }
    },
    {
      "type": "Feature",
      "geometry": {
        "type": "Point",
        "coordinates": [
          11.9796401,
          51.4735339
        ]
      },
      "properties": {
        "id": "tk_fr_0784",
        "name": "MAXI-Bistro",
        "description": "Bier, Sekt, Döner, Pizza ",
        "address": {
          "street": "Thomasiusstraße",
          "number": "5",
          "postalcode": "06110",
          "city": "Halle (Saale)",
          "district": "Mitte"
        },
        "tags": [
          "sekt"
        ],
        "sources": [
          {
            "type": "hopfenstop",
            "id": "d1482741-a201-400a-894b-3ad66565b43d"
          },
          {
            "type": "osm",
            "id": "node/311197346",
            "version": 0
          },
          {
            "type": "gmaps",
            "id": "ChIJCQt_gvNjpkcRKX-eBogA5-E"
          }
        ],
        "created": "2026-05-19",
        "updated": "2026-06-24",
        "hours": {
          "raw": "Tu 11:00-23:00; Th 11:00-23:00; Fr 11:00-23:00; We 11:00-23:00; Mo 11:00-23:00; Sa 11:00-23:00; Su 11:00-23:00"
        },
        "payment_attempted": "2026-05-22",
        "apple_id_attempted": "2026-06-24",
        "google_attempted": "2026-06-24",
        "sources_by_field": {
          "name": "hopfenstop",
          "description": "hopfenstop",
          "address.street": "hopfenstop",
          "address.number": "hopfenstop",
          "address.postalcode": "hopfenstop",
          "address.city": "hopfenstop",
          "address.district": "hopfenstop",
          "hours": "google"
        }
      }
    },
    {
      "type": "Feature",
      "geometry": {
        "type": "Point",
        "coordinates": [
          11.928828,
          51.476342
        ]
      },
      "properties": {
        "id": "tk_fr_0786",
        "name": "Sandos Kiosk ",
        "description": "Bier",
        "address": {
          "street": "Am Treff",
          "number": "1",
          "postalcode": "06124",
          "city": "Halle (Saale)",
          "district": "Stadtbezirk West"
        },
        "sources": [
          {
            "type": "hopfenstop",
            "id": "b6e2fcd7-02f8-4bdf-b911-2d48e00664fb"
          },
          {
            "type": "gmaps",
            "id": "ChIJezzGQZd9pkcRdi6cpdPMhBU"
          }
        ],
        "created": "2026-05-19",
        "updated": "2026-06-24",
        "payment_attempted": "2026-05-22",
        "apple_id_attempted": "2026-06-24",
        "google_attempted": "2026-06-24",
        "sources_by_field": {
          "name": "hopfenstop",
          "description": "hopfenstop",
          "address.street": "hopfenstop",
          "address.number": "hopfenstop",
          "address.postalcode": "hopfenstop",
          "address.city": "hopfenstop",
          "address.district": "hopfenstop",
          "hours": "google"
        },
        "hours": {
          "raw": "Tu 08:00-21:00; Th 08:00-21:00; Fr 08:00-21:00; We 08:00-21:00; Mo 08:00-21:00; Sa 08:00-21:00"
        }
      }
    },
    {
      "type": "Feature",
      "geometry": {
        "type": "Point",
        "coordinates": [
          11.92751,
          51.47349999999999
        ]
      },
      "properties": {
        "id": "tk_fr_0787",
        "name": "Südpark Kiosk ",
        "description": "Schöne Lage ",
        "address": {
          "street": "Kammstraße",
          "number": "14",
          "postalcode": "06124",
          "city": "Halle (Saale)",
          "district": "Stadtbezirk West"
        },
        "sources": [
          {
            "type": "hopfenstop",
            "id": "0e17ed72-e6d6-49ad-b412-2bcd8bc2eebe"
          }
        ],
        "created": "2026-05-19",
        "updated": "2026-05-19",
        "payment_attempted": "2026-05-22",
        "apple_id_attempted": "2026-06-24",
        "google_attempted": "2026-06-24",
        "sources_by_field": {
          "name": "hopfenstop",
          "description": "hopfenstop",
          "address.street": "hopfenstop",
          "address.number": "hopfenstop",
          "address.postalcode": "hopfenstop",
          "address.city": "hopfenstop",
          "address.district": "hopfenstop"
        }
      }
    },
    {
      "type": "Feature",
      "geometry": {
        "type": "Point",
        "coordinates": [
          11.9639875,
          51.4767332
        ]
      },
      "properties": {
        "id": "tk_fr_0969",
        "name": "Glaucha Kiosk",
        "description": "Bier usw.",
        "address": {
          "street": "Lange Straße",
          "number": "17",
          "postalcode": "06110",
          "city": "Halle (Saale)",
          "district": "Mitte"
        },
        "hours": {
          "raw": "Mo-Su 07:00-23:00"
        },
        "sources": [
          {
            "type": "hopfenstop",
            "id": "0e6e548a-600d-43f9-8127-556d0267362d"
          }
        ],
        "created": "2026-05-19",
        "updated": "2026-05-19",
        "payment_attempted": "2026-05-22",
        "apple_id_attempted": "2026-06-24",
        "google_attempted": "2026-06-24",
        "sources_by_field": {
          "name": "hopfenstop",
          "description": "hopfenstop",
          "address.street": "hopfenstop",
          "address.number": "hopfenstop",
          "address.postalcode": "hopfenstop",
          "address.city": "hopfenstop",
          "address.district": "hopfenstop",
          "hours": "hopfenstop"
        }
      }
    },
    {
      "type": "Feature",
      "geometry": {
        "type": "Point",
        "coordinates": [
          11.9839527,
          51.467508
        ]
      },
      "properties": {
        "id": "tk_fr_0975",
        "name": "Bistrostar 73",
        "description": "Nächste Versorgungsstelle am Thüringer Bahnhof",
        "address": {
          "street": "Merseburger Straße",
          "number": "73",
          "postalcode": "06112",
          "city": "Halle (Saale)",
          "district": "Stadtbezirk Süd"
        },
        "tags": [
          "wc"
        ],
        "sources": [
          {
            "type": "hopfenstop",
            "id": "b2789954-dc72-48e5-a44f-de677fd7747d"
          },
          {
            "type": "gmaps",
            "id": "ChIJYyHpIT5jpkcRg2FOzRm1nDc"
          }
        ],
        "created": "2026-05-19",
        "updated": "2026-05-19",
        "payment_attempted": "2026-05-22",
        "apple_id_attempted": "2026-06-24",
        "google_attempted": "2026-06-24",
        "sources_by_field": {
          "name": "hopfenstop",
          "description": "hopfenstop",
          "address.street": "hopfenstop",
          "address.number": "hopfenstop",
          "address.postalcode": "hopfenstop",
          "address.city": "hopfenstop",
          "address.district": "hopfenstop"
        }
      }
    },
    {
      "type": "Feature",
      "geometry": {
        "type": "Point",
        "coordinates": [
          11.2980338,
          51.4736655
        ]
      },
      "properties": {
        "id": "tk_fr_1650",
        "name": "Kiosk",
        "description": "Lotto, Bier und Kleinkram",
        "address": {
          "street": "Kylische Straße",
          "number": "10",
          "postalcode": "06526",
          "city": "Sangerhausen"
        },
        "tags": [
          "gluecksspiele"
        ],
        "sources": [
          {
            "type": "hopfenstop",
            "id": "2e1313c0-eca1-4a56-a56f-e7e73df0d09e"
          }
        ],
        "created": "2026-05-19",
        "updated": "2026-05-19",
        "payment_attempted": "2026-05-22",
        "apple_id_attempted": "2026-06-24",
        "google_attempted": "2026-06-24",
        "sources_by_field": {
          "name": "hopfenstop",
          "description": "hopfenstop",
          "address.street": "hopfenstop",
          "address.number": "hopfenstop",
          "address.postalcode": "hopfenstop",
          "address.city": "hopfenstop"
        }
      }
    },
    {
      "type": "Feature",
      "geometry": {
        "type": "Point",
        "coordinates": [
          11.9660467,
          51.4963521
        ]
      },
      "properties": {
        "id": "tk_hal_osm_n10004422014",
        "name": "Tabak- und Presseshop Schmidt",
        "address": {
          "street": "Reilstraße",
          "number": "6",
          "postalcode": "06114",
          "city": "Halle (Saale)"
        },
        "sources": [
          {
            "type": "osm",
            "id": "node/10004422014",
            "version": 0
          },
          {
            "type": "gmaps",
            "id": "ChIJychPKQs0cEERgwdd88CyVzE"
          }
        ],
        "created": "2026-05-20",
        "updated": "2026-06-24",
        "payment": {
          "cash": "yes",
          "cards": "yes",
          "contactless": "yes",
          "girocard": "yes"
        },
        "sources_by_field": {
          "name": "osm",
          "address.street": "osm",
          "address.number": "osm",
          "address.postalcode": "osm",
          "address.city": "osm",
          "payment.cash": "osm",
          "payment.cards": "osm",
          "payment.contactless": "google",
          "payment.girocard": "google",
          "hours": "google"
        },
        "apple_id_attempted": "2026-06-24",
        "google_attempted": "2026-06-24",
        "hours": {
          "raw": "Tu 07:30-18:00; Th 07:30-18:00; Fr 07:30-18:00; We 07:30-18:00; Mo 07:30-18:00; Sa 08:00-12:00"
        }
      }
    },
    {
      "type": "Feature",
      "geometry": {
        "type": "Point",
        "coordinates": [
          11.9749931,
          51.4862244
        ]
      },
      "properties": {
        "id": "tk_hal_osm_n11162692205",
        "name": "Späti 007",
        "address": {
          "street": "Große Steinstraße",
          "number": "63",
          "postalcode": "06108",
          "city": "Halle (Saale)",
          "district": "Nördliche Innenstadt"
        },
        "sources": [
          {
            "type": "osm",
            "id": "node/11162692205",
            "version": 0
          },
          {
            "type": "gmaps",
            "id": "ChIJL8Uh-1BjpkcR_sHJWM2HdCo"
          }
        ],
        "created": "2026-05-20",
        "updated": "2026-06-24",
        "sources_by_field": {
          "name": "osm",
          "hours": "google"
        },
        "apple_id_attempted": "2026-06-24",
        "google_attempted": "2026-06-24",
        "payment": {
          "cards": "no",
          "contactless": "yes",
          "girocard": "yes"
        },
        "hours": {
          "raw": "Tu 12:00-23:45; Th 12:00-23:45; Fr 12:00-02:00; We 12:00-23:45; Mo 12:00-23:45; Sa 12:00-20:00; Su 12:00-22:30"
        }
      }
    },
    {
      "type": "Feature",
      "geometry": {
        "type": "Point",
        "coordinates": [
          11.9672183,
          51.4950489
        ]
      },
      "properties": {
        "id": "tk_hal_osm_n11357088168",
        "name": "Kasbo Kiosk",
        "address": {
          "street": "Ludwig-Wucherer-Straße",
          "number": "47",
          "postalcode": "06108",
          "city": "Halle (Saale)",
          "district": "Stadtbezirk Nord"
        },
        "sources": [
          {
            "type": "osm",
            "id": "node/11357088168",
            "version": 0
          },
          {
            "type": "hopfenstop",
            "id": "592381d0-9dad-4425-ad57-629f4c0fb976"
          },
          {
            "type": "gmaps",
            "id": "payment"
          },
          {
            "type": "apple",
            "id": "10503190290962678473"
          }
        ],
        "created": "2026-05-19",
        "updated": "2026-06-22",
        "hours": {
          "raw": "Mo-Th 09:00-24:00, Fr,Sa 09:00-02:00, Su 10:00-24:00"
        },
        "sources_by_field": {
          "name": "osm",
          "hours": "osm",
          "description": "hopfenstop",
          "address.street": "hopfenstop",
          "address.number": "hopfenstop",
          "address.postalcode": "hopfenstop",
          "address.city": "hopfenstop",
          "address.district": "hopfenstop"
        },
        "description": "Spätkauf",
        "payment": {
          "cards": "no",
          "contactless": "yes",
          "girocard": "yes"
        },
        "tags": [
          "kaffee",
          "klassiker",
          "longpapes",
          "mate",
          "paketshop",
          "schnaps",
          "sekt",
          "snacks",
          "wein"
        ]
      }
    },
    {
      "type": "Feature",
      "geometry": {
        "type": "Point",
        "coordinates": [
          11.9665352,
          51.4720959
        ]
      },
      "properties": {
        "id": "tk_hal_osm_n11638301857",
        "name": "Khani's Späti",
        "address": {
          "street": "Wörmlitzer Straße",
          "number": "107"
        },
        "sources": [
          {
            "type": "osm",
            "id": "node/11638301857",
            "version": 0
          },
          {
            "type": "apple",
            "id": "6486247538161650841"
          }
        ],
        "created": "2026-05-20",
        "updated": "2026-06-22",
        "hours": {
          "raw": "Mo-Su 11:00-23:00"
        },
        "payment": {
          "cash": "yes",
          "cards": "yes",
          "contactless": "unknown",
          "girocard": "unknown"
        },
        "tags": [
          "barrierefrei"
        ],
        "sources_by_field": {
          "name": "osm",
          "address.street": "osm",
          "address.number": "osm",
          "hours": "osm",
          "payment.cash": "osm",
          "payment.cards": "osm",
          "payment.contactless": "osm",
          "payment.girocard": "osm"
        }
      }
    },
    {
      "type": "Feature",
      "geometry": {
        "type": "Point",
        "coordinates": [
          11.295353,
          51.472721
        ]
      },
      "properties": {
        "id": "tk_hal_osm_n12083822772",
        "name": "Späti 526",
        "address": {
          "street": "Kylische Straße",
          "number": "44",
          "postalcode": "06526",
          "city": "Sangerhausen"
        },
        "sources": [
          {
            "type": "osm",
            "id": "node/12083822772",
            "version": 0
          },
          {
            "type": "gmaps",
            "id": "payment"
          },
          {
            "type": "apple",
            "id": "17297787539721360404"
          }
        ],
        "created": "2026-05-20",
        "updated": "2026-06-22",
        "sources_by_field": {
          "name": "osm",
          "address.street": "osm",
          "address.number": "osm",
          "address.postalcode": "osm",
          "address.city": "osm"
        },
        "hours": {
          "raw": "Su 15:00-22:00; Mo-Th 10:00-23:00; Fr 10:00-24:00; Sa 00:00-01:00,10:00-20:00"
        },
        "payment": {
          "cards": "yes",
          "contactless": "yes",
          "girocard": "yes"
        }
      }
    },
    {
      "type": "Feature",
      "geometry": {
        "type": "Point",
        "coordinates": [
          11.9666697,
          51.493819
        ]
      },
      "properties": {
        "id": "tk_hal_osm_n12320973968",
        "name": "Station 1",
        "address": {
          "street": "Mühlweg",
          "number": "22"
        },
        "sources": [
          {
            "type": "osm",
            "id": "node/12320973968",
            "version": 0
          },
          {
            "type": "gmaps",
            "id": "payment"
          }
        ],
        "created": "2026-05-20",
        "updated": "2026-06-22",
        "hours": {
          "raw": "Mo-Th,Sa 10:00-20:00; Fr 10:00-24:00; Su off"
        },
        "sources_by_field": {
          "name": "osm",
          "address.street": "osm",
          "address.number": "osm",
          "hours": "osm"
        },
        "apple_id_attempted": "2026-06-24",
        "payment": {
          "cards": "no",
          "contactless": "yes",
          "girocard": "yes"
        }
      }
    },
    {
      "type": "Feature",
      "geometry": {
        "type": "Point",
        "coordinates": [
          11.9705285,
          51.4630409
        ]
      },
      "properties": {
        "id": "tk_hal_osm_n12466933059",
        "name": "Vietnam Imbiss",
        "address": {
          "street": "Beesener Straße",
          "number": "217",
          "postalcode": "06110",
          "city": "Halle (Saale)",
          "district": "Gesundbrunnen"
        },
        "sources": [
          {
            "type": "osm",
            "id": "node/12466933059",
            "version": 0
          },
          {
            "type": "gmaps",
            "id": "ChIJRyx2nHRjpkcRxBHgFlfcCkw"
          }
        ],
        "created": "2026-05-20",
        "updated": "2026-06-24",
        "hours": {
          "raw": "Tu 09:00-21:00; Th 09:00-21:00; Fr 09:00-21:00; We 09:00-21:00; Mo 09:00-21:00; Sa 09:00-20:00; Su 17:00-21:00"
        },
        "sources_by_field": {
          "name": "osm",
          "hours": "google"
        },
        "apple_id_attempted": "2026-06-24",
        "google_attempted": "2026-06-24",
        "payment": {}
      }
    },
    {
      "type": "Feature",
      "geometry": {
        "type": "Point",
        "coordinates": [
          11.9702269,
          51.4880899
        ]
      },
      "properties": {
        "id": "tk_hal_osm_n12691195273",
        "name": "Kiez Späti",
        "address": {
          "street": "Unterberg",
          "number": "7",
          "postalcode": "06108",
          "city": "Halle (Saale)"
        },
        "sources": [
          {
            "type": "osm",
            "id": "node/12691195273",
            "version": 0
          },
          {
            "type": "apple",
            "id": "17186084862122919224"
          }
        ],
        "created": "2026-05-20",
        "updated": "2026-06-22",
        "payment": {
          "cash": "yes",
          "cards": "yes",
          "contactless": "unknown",
          "girocard": "unknown"
        },
        "sources_by_field": {
          "name": "osm",
          "address.street": "osm",
          "address.number": "osm",
          "address.postalcode": "osm",
          "address.city": "osm",
          "payment.cash": "osm",
          "payment.cards": "osm",
          "payment.contactless": "osm",
          "payment.girocard": "osm"
        },
        "hours": {
          "raw": "Mo-Fr 09:00-22:00; Sa 12:00-20:00"
        }
      }
    },
    {
      "type": "Feature",
      "geometry": {
        "type": "Point",
        "coordinates": [
          11.9786719,
          51.4739428
        ]
      },
      "properties": {
        "id": "tk_hal_osm_n13005580501",
        "name": "Snackräuber",
        "address": {
          "postalcode": "06110",
          "street": "Streiberstraße",
          "number": "37",
          "city": "Halle (Saale)",
          "district": "Südliche Innenstadt"
        },
        "sources": [
          {
            "type": "osm",
            "id": "node/13005580501",
            "version": 0
          },
          {
            "type": "gmaps",
            "id": "payment"
          },
          {
            "type": "apple",
            "id": "1802855208391926722"
          }
        ],
        "created": "2026-05-20",
        "updated": "2026-06-22",
        "sources_by_field": {
          "name": "osm",
          "address.postalcode": "osm"
        },
        "hours": {
          "raw": "Mo-Su 00:00-24:00"
        },
        "payment": {
          "cards": "no",
          "contactless": "yes",
          "girocard": "yes"
        }
      }
    },
    {
      "type": "Feature",
      "geometry": {
        "type": "Point",
        "coordinates": [
          11.9748322,
          51.4926183
        ]
      },
      "properties": {
        "id": "tk_hal_osm_n1714545414",
        "name": "Getränkestützpunkt",
        "address": {
          "street": "Goethestraße",
          "number": "7",
          "postalcode": "06114",
          "city": "Halle (Saale)",
          "district": "Paulusviertel"
        },
        "sources": [
          {
            "type": "osm",
            "id": "node/1714545414",
            "version": 0
          },
          {
            "type": "gmaps",
            "id": "payment"
          }
        ],
        "created": "2026-05-20",
        "updated": "2026-06-22",
        "hours": {
          "raw": "Mo-Fr 12:00-20:00; Sa 08:00-12:00"
        },
        "sources_by_field": {
          "name": "osm",
          "hours": "osm"
        },
        "apple_id_attempted": "2026-06-24",
        "payment": {
          "cards": "no",
          "contactless": "yes",
          "girocard": "yes"
        }
      }
    },
    {
      "type": "Feature",
      "geometry": {
        "type": "Point",
        "coordinates": [
          11.9410161,
          51.4823048
        ]
      },
      "properties": {
        "id": "tk_hal_osm_n1808440360",
        "name": "Lotto-Toto-Touristik",
        "address": {
          "street": "Am Meeresbrunnen",
          "postalcode": "06122",
          "city": "Halle (Saale)",
          "number": "5",
          "district": "Nördliche Neustadt"
        },
        "sources": [
          {
            "type": "osm",
            "id": "node/1808440360",
            "version": 0
          },
          {
            "type": "gmaps",
            "id": "ChIJ____6rt8pkcRYR9NxyWzyiE"
          }
        ],
        "created": "2026-05-20",
        "updated": "2026-06-22",
        "sources_by_field": {
          "name": "osm",
          "address.street": "osm",
          "address.postalcode": "osm",
          "address.city": "osm"
        },
        "apple_id_attempted": "2026-06-24",
        "google_attempted": "2026-06-24",
        "payment": {
          "cards": "yes",
          "girocard": "yes"
        }
      }
    },
    {
      "type": "Feature",
      "geometry": {
        "type": "Point",
        "coordinates": [
          11.9415319,
          51.4806451
        ]
      },
      "properties": {
        "id": "tk_hal_osm_n1808444118",
        "name": "Tabak-Börse",
        "address": {
          "street": "Rennbahnring",
          "number": "9",
          "postalcode": "06124",
          "city": "Halle (Saale)"
        },
        "sources": [
          {
            "type": "osm",
            "id": "node/1808444118",
            "version": 0
          },
          {
            "type": "gmaps",
            "id": "payment"
          }
        ],
        "created": "2026-05-20",
        "updated": "2026-06-22",
        "tags": [
          "barrierefrei"
        ],
        "sources_by_field": {
          "name": "osm",
          "address.street": "osm",
          "address.number": "osm",
          "address.postalcode": "osm",
          "address.city": "osm"
        },
        "apple_id_attempted": "2026-06-24",
        "google_attempted": "2026-06-24",
        "payment": {
          "cards": "no",
          "contactless": "yes",
          "girocard": "yes"
        }
      }
    },
    {
      "type": "Feature",
      "geometry": {
        "type": "Point",
        "coordinates": [
          11.9249425,
          51.4717066
        ]
      },
      "properties": {
        "id": "tk_hal_osm_n2125002008",
        "name": "Lotto Totto",
        "address": {
          "street": "Zollrain",
          "number": "9",
          "postalcode": "06124",
          "city": "Halle (Saale)",
          "district": "Südliche Neustadt"
        },
        "sources": [
          {
            "type": "osm",
            "id": "node/2125002008",
            "version": 0
          },
          {
            "type": "gmaps",
            "id": "ChIJpX_seSp9pkcRvK0k74fwudk"
          }
        ],
        "created": "2026-05-20",
        "updated": "2026-06-24",
        "tags": [
          "barrierefrei"
        ],
        "sources_by_field": {
          "name": "osm",
          "hours": "google"
        },
        "apple_id_attempted": "2026-06-24",
        "google_attempted": "2026-06-24",
        "payment": {},
        "hours": {
          "raw": "Tu 08:00-20:00; Th 08:00-20:00; Fr 08:00-20:00; We 08:00-20:00; Mo 08:00-20:00; Sa 08:00-20:00"
        }
      }
    },
    {
      "type": "Feature",
      "geometry": {
        "type": "Point",
        "coordinates": [
          11.9659439,
          51.4950006
        ]
      },
      "properties": {
        "id": "tk_hal_osm_n267118114",
        "name": "hr.fleischer \"KIOSK\" am Reileck",
        "address": {
          "street": "Händelstraße",
          "number": "1a",
          "postalcode": "06114",
          "city": "Halle (Saale)"
        },
        "sources": [
          {
            "type": "osm",
            "id": "node/267118114",
            "version": 0
          },
          {
            "type": "gmaps",
            "id": "ChIJmfFp-lVjpkcRYwGVtm2yaI0"
          }
        ],
        "created": "2026-05-20",
        "updated": "2026-06-24",
        "sources_by_field": {
          "name": "osm",
          "address.street": "osm",
          "address.number": "osm",
          "address.postalcode": "osm",
          "address.city": "osm",
          "hours": "google"
        },
        "apple_id_attempted": "2026-06-24",
        "google_attempted": "2026-06-24",
        "payment": {},
        "hours": {
          "raw": "Tu 15:00-20:00; Th 15:00-20:00; Fr 15:00-20:00; We 15:00-20:00; Mo 15:00-20:00; Sa 10:00-18:00; Su 14:00-18:00"
        }
      }
    },
    {
      "type": "Feature",
      "geometry": {
        "type": "Point",
        "coordinates": [
          11.9859612,
          51.476885
        ]
      },
      "properties": {
        "id": "tk_hal_osm_n3278827868",
        "name": "ServiceStore DB",
        "address": {
          "street": "Ernst-Kamieth-Straße",
          "number": "6",
          "postalcode": "06112",
          "city": "Halle (Saale)",
          "district": "Freiimfelde/Kanenaer Weg"
        },
        "sources": [
          {
            "type": "osm",
            "id": "node/3278827868",
            "version": 0
          },
          {
            "type": "gmaps",
            "id": "ChIJ-SWQbQBjpkcRonebsbvhvCs"
          }
        ],
        "created": "2026-05-20",
        "updated": "2026-06-24",
        "hours": {
          "raw": "Tu 06:00-20:00; Th 06:00-20:00; Fr 06:00-20:00; We 06:00-20:00; Mo 06:00-20:00; Sa 06:00-20:00; Su 06:00-20:00"
        },
        "tags": [
          "barrierefrei"
        ],
        "sources_by_field": {
          "name": "osm",
          "hours": "google"
        },
        "apple_id_attempted": "2026-06-24",
        "google_attempted": "2026-06-24",
        "payment": {}
      }
    },
    {
      "type": "Feature",
      "geometry": {
        "type": "Point",
        "coordinates": [
          11.9695993,
          51.484237
        ]
      },
      "properties": {
        "id": "tk_hal_osm_n3321353161",
        "name": "tabacco Presse & Co.",
        "address": {
          "street": "Große Ulrichstraße",
          "number": "59/ 60",
          "postalcode": "06108",
          "city": "Halle (Saale)"
        },
        "sources": [
          {
            "type": "osm",
            "id": "node/3321353161",
            "version": 0
          },
          {
            "type": "gmaps",
            "id": "payment"
          }
        ],
        "created": "2026-05-20",
        "updated": "2026-06-22",
        "hours": {
          "raw": "Mo-Fr 08:00-18:00; Sa 08:00-14:00"
        },
        "tags": [
          "barrierefrei"
        ],
        "sources_by_field": {
          "name": "osm",
          "address.street": "osm",
          "address.number": "osm",
          "address.postalcode": "osm",
          "address.city": "osm",
          "hours": "osm"
        },
        "apple_id_attempted": "2026-06-24",
        "payment": {
          "cards": "yes"
        }
      }
    },
    {
      "type": "Feature",
      "geometry": {
        "type": "Point",
        "coordinates": [
          11.9698157,
          51.4744753
        ]
      },
      "properties": {
        "id": "tk_hal_osm_n3660731025",
        "name": "Lottoladen",
        "address": {
          "street": "Steinweg",
          "number": "32",
          "postalcode": "06110",
          "city": "Halle (Saale)"
        },
        "sources": [
          {
            "type": "osm",
            "id": "node/3660731025",
            "version": 0
          },
          {
            "type": "gmaps",
            "id": "payment"
          }
        ],
        "created": "2026-05-20",
        "updated": "2026-06-22",
        "hours": {
          "raw": "Oct-Apr Mo-Fr 06:00-18:00; Oct-Apr Sa 08:30-16:30"
        },
        "tags": [
          "barrierefrei"
        ],
        "sources_by_field": {
          "name": "osm",
          "address.street": "osm",
          "address.number": "osm",
          "address.postalcode": "osm",
          "address.city": "osm",
          "hours": "osm"
        },
        "apple_id_attempted": "2026-06-24",
        "payment": {
          "cards": "yes",
          "girocard": "yes"
        }
      }
    },
    {
      "type": "Feature",
      "geometry": {
        "type": "Point",
        "coordinates": [
          11.9700802,
          51.4637692
        ]
      },
      "properties": {
        "id": "tk_hal_osm_n4327477206",
        "name": "Getränkequelle",
        "address": {
          "street": "Beesener Straße",
          "number": "221a",
          "postalcode": "06110",
          "city": "Halle (Saale)",
          "district": "Gesundbrunnen"
        },
        "sources": [
          {
            "type": "osm",
            "id": "node/4327477206",
            "version": 0
          },
          {
            "type": "gmaps",
            "id": "payment"
          }
        ],
        "created": "2026-05-20",
        "updated": "2026-06-22",
        "hours": {
          "raw": "Mo-Fr 08:00-19:00; Sa 08:00-14:00"
        },
        "tags": [
          "barrierefrei"
        ],
        "sources_by_field": {
          "name": "osm",
          "hours": "osm"
        },
        "apple_id_attempted": "2026-06-24",
        "payment": {
          "cards": "no",
          "contactless": "yes",
          "girocard": "yes"
        }
      }
    },
    {
      "type": "Feature",
      "geometry": {
        "type": "Point",
        "coordinates": [
          11.5652601,
          51.5126428
        ]
      },
      "properties": {
        "id": "tk_hal_osm_n4798455094",
        "name": "Zorbas Grill",
        "address": {
          "street": "Sonnenweg",
          "number": "1",
          "postalcode": "06295",
          "city": "Lutherstadt Eisleben",
          "district": "Ernst-Thälmann-Siedlung"
        },
        "sources": [
          {
            "type": "osm",
            "id": "node/4798455094",
            "version": 0
          },
          {
            "type": "gmaps",
            "id": "ChIJc0e0GEDTpUcR1D9iOs4mIzc"
          }
        ],
        "created": "2026-05-20",
        "updated": "2026-06-24",
        "sources_by_field": {
          "name": "osm",
          "address.street": "osm",
          "hours": "google"
        },
        "apple_id_attempted": "2026-06-24",
        "google_attempted": "2026-06-24",
        "payment": {
          "cash": "yes"
        },
        "hours": {
          "raw": "Tu 11:00-14:00,17:00-21:00; Th 11:00-14:00,17:00-21:00; Fr 11:00-14:00,17:00-21:00; Mo 11:00-14:00,17:00-21:00; Sa 11:00-14:00,17:00-21:00; Su 11:00-14:00,17:00-21:00"
        }
      }
    },
    {
      "type": "Feature",
      "geometry": {
        "type": "Point",
        "coordinates": [
          11.9659393,
          51.4901838
        ]
      },
      "properties": {
        "id": "tk_hal_osm_n6251766540",
        "name": "City Teleshop",
        "address": {
          "street": "Geiststraße",
          "number": "43",
          "postalcode": "06108",
          "city": "Halle (Saale)",
          "district": "Mitte"
        },
        "sources": [
          {
            "type": "osm",
            "id": "node/6251766540",
            "version": 0
          },
          {
            "type": "hopfenstop",
            "id": "34ae6579-9f98-439a-bb58-9a95a54e06f7"
          }
        ],
        "created": "2026-05-19",
        "updated": "2026-06-22",
        "hours": {
          "raw": "Mo-Sa 09:00-24:00, Su 11:00-23:00, Sa 00:00-02:00, Su 00:00-02:00"
        },
        "sources_by_field": {
          "name": "osm",
          "address.street": "osm",
          "address.number": "osm",
          "address.postalcode": "osm",
          "address.city": "osm",
          "hours": "osm",
          "description": "hopfenstop",
          "address.district": "hopfenstop"
        },
        "apple_id_attempted": "2026-06-24",
        "google_attempted": "2026-06-24",
        "description": "Bier usw.",
        "payment": {}
      }
    },
    {
      "type": "Feature",
      "geometry": {
        "type": "Point",
        "coordinates": [
          11.9097039,
          51.485368
        ]
      },
      "properties": {
        "id": "tk_hal_osm_n7034004984",
        "name": "Getränke-Flip",
        "address": {
          "street": "Hallesche Straße",
          "number": "51",
          "postalcode": "06122",
          "city": "Halle (Saale)"
        },
        "sources": [
          {
            "type": "osm",
            "id": "node/7034004984",
            "version": 0
          },
          {
            "type": "apple",
            "id": "10028530975840219668"
          }
        ],
        "created": "2026-05-20",
        "updated": "2026-06-22",
        "hours": {
          "raw": "Mo-Th 09:00-18:00; Fr 09:00-20:00; Sa 09:00-16:00"
        },
        "payment": {
          "cash": "yes",
          "cards": "yes",
          "contactless": "unknown",
          "girocard": "unknown"
        },
        "sources_by_field": {
          "name": "osm",
          "address.street": "osm",
          "address.number": "osm",
          "address.postalcode": "osm",
          "address.city": "osm",
          "hours": "osm",
          "payment.cash": "osm",
          "payment.cards": "osm",
          "payment.contactless": "osm",
          "payment.girocard": "osm"
        }
      }
    },
    {
      "type": "Feature",
      "geometry": {
        "type": "Point",
        "coordinates": [
          11.9703066,
          51.4771762
        ]
      },
      "properties": {
        "id": "tk_hal_osm_n7380242957",
        "name": "Lotto Sachsen-Anhalt",
        "address": {
          "street": "Steinweg",
          "number": "5",
          "postalcode": "06110",
          "city": "Halle (Saale)",
          "district": "Südliche Innenstadt"
        },
        "sources": [
          {
            "type": "osm",
            "id": "node/7380242957",
            "version": 0
          },
          {
            "type": "gmaps",
            "id": "payment"
          }
        ],
        "created": "2026-05-20",
        "updated": "2026-06-22",
        "hours": {
          "raw": "Mo-Fr 08:00-18:00; Sa 09:00-12:00"
        },
        "sources_by_field": {
          "name": "osm",
          "hours": "osm"
        },
        "apple_id_attempted": "2026-06-24",
        "payment": {
          "cards": "no",
          "girocard": "yes"
        }
      }
    },
    {
      "type": "Feature",
      "geometry": {
        "type": "Point",
        "coordinates": [
          11.9822031,
          51.4784148
        ]
      },
      "properties": {
        "id": "tk_hal_osm_n7920695833",
        "name": "Teleshop Lara",
        "address": {
          "street": "Riebeckplatz",
          "number": "9a",
          "postalcode": "06110",
          "city": "Halle (Saale)",
          "district": "Nördliche Innenstadt"
        },
        "sources": [
          {
            "type": "osm",
            "id": "node/7920695833",
            "version": 0
          },
          {
            "type": "gmaps",
            "id": "ChIJaeVzi0NjpkcR4uWgrWloNpI"
          }
        ],
        "created": "2026-05-20",
        "updated": "2026-06-22",
        "hours": {
          "raw": "Mo-Fr 06:30-22:00; Sa 08:00-20:00; Su,PH 14:00-20:00"
        },
        "tags": [
          "barrierefrei"
        ],
        "sources_by_field": {
          "name": "osm",
          "hours": "osm"
        },
        "apple_id_attempted": "2026-06-24",
        "google_attempted": "2026-06-24",
        "payment": {}
      }
    },
    {
      "type": "Feature",
      "geometry": {
        "type": "Point",
        "coordinates": [
          11.9821242,
          51.4783822
        ]
      },
      "properties": {
        "id": "tk_hal_osm_n7972778887",
        "name": "Teleshop Handy A&V",
        "address": {
          "street": "Franckestraße",
          "number": "11",
          "postalcode": "06110",
          "city": "Halle (Saale)",
          "district": "Mitte"
        },
        "sources": [
          {
            "type": "osm",
            "id": "node/7972778887",
            "version": 0
          },
          {
            "type": "gmaps",
            "id": "ChIJ9YMji0NjpkcRzSbQTnWXmBI"
          },
          {
            "type": "hopfenstop",
            "id": "7fd6437a-e2fb-430d-b2cd-5d0536d8e5c7"
          }
        ],
        "created": "2026-05-20",
        "updated": "2026-06-22",
        "hours": {
          "raw": "Mo-Fr 06:30-22:00; Sa 08:00-20:00; Su,PH 14:00-20:00"
        },
        "tags": [
          "barrierefrei"
        ],
        "sources_by_field": {
          "name": "osm",
          "hours": "osm",
          "description": "hopfenstop",
          "address.street": "hopfenstop",
          "address.number": "hopfenstop",
          "address.postalcode": "hopfenstop",
          "address.city": "hopfenstop",
          "address.district": "hopfenstop"
        },
        "apple_id_attempted": "2026-06-24",
        "google_attempted": "2026-06-24",
        "description": "gutes Bier ",
        "payment": {}
      }
    },
    {
      "type": "Feature",
      "geometry": {
        "type": "Point",
        "coordinates": [
          11.9691821,
          51.4744009
        ]
      },
      "properties": {
        "id": "tk_hal_osm_n8482552647",
        "name": "Celin Internet shop",
        "address": {
          "street": "Bertramstraße",
          "number": "18",
          "postalcode": "06110",
          "city": "Halle (Saale)",
          "district": "Mitte"
        },
        "sources": [
          {
            "type": "osm",
            "id": "node/8482552647",
            "version": 0
          },
          {
            "type": "hopfenstop",
            "id": "c1415fc0-f63a-4b76-9f8d-09b03216a73f"
          }
        ],
        "created": "2026-05-19",
        "updated": "2026-06-22",
        "sources_by_field": {
          "name": "osm",
          "description": "hopfenstop",
          "address.street": "hopfenstop",
          "address.number": "hopfenstop",
          "address.postalcode": "hopfenstop",
          "address.city": "hopfenstop",
          "address.district": "hopfenstop"
        },
        "apple_id_attempted": "2026-06-24",
        "google_attempted": "2026-06-24",
        "description": "Geringe gekühlte Bierauswahl ",
        "payment": {}
      }
    },
    {
      "type": "Feature",
      "geometry": {
        "type": "Point",
        "coordinates": [
          11.6926564,
          51.4943309
        ]
      },
      "properties": {
        "id": "tk_hal_osm_w215851874",
        "name": "Amore mio Imbiss",
        "address": {
          "street": "Nordstrand",
          "number": "3",
          "postalcode": "06317",
          "city": "Seegebiet Mansfelder Land"
        },
        "sources": [
          {
            "type": "osm",
            "id": "way/215851874",
            "version": 0
          },
          {
            "type": "gmaps",
            "id": "ChIJX6NwSbrVpUcRrNSyQxAshew"
          },
          {
            "type": "apple",
            "id": "18152567981866628414"
          }
        ],
        "created": "2026-05-20",
        "updated": "2026-06-24",
        "tags": [
          "barrierefrei"
        ],
        "sources_by_field": {
          "name": "osm",
          "address.street": "osm",
          "address.number": "osm",
          "address.postalcode": "osm",
          "address.city": "osm",
          "hours": "google"
        },
        "apple_attempted": "2026-06-24",
        "google_attempted": "2026-06-24",
        "hours": {
          "raw": "Tu 12:00-18:00; Th 12:00-18:00; Fr 12:00-18:00; We 12:00-18:00; Sa 12:00-18:00; Su 12:00-18:00"
        },
        "payment": {
          "cash": "yes"
        }
      }
    },
    {
      "type": "Feature",
      "geometry": {
        "type": "Point",
        "coordinates": [
          11.9822899,
          51.4784483
        ]
      },
      "properties": {
        "id": "tk_hal_osm_w481960564",
        "name": "Suparto",
        "address": {
          "street": "Riebeckplatz",
          "number": "9a",
          "postalcode": "06110",
          "city": "Halle (Saale)"
        },
        "sources": [
          {
            "type": "osm",
            "id": "way/481960564",
            "version": 0
          },
          {
            "type": "gmaps",
            "id": "ChIJY6cMi0NjpkcR7BSdsBN3ke8"
          }
        ],
        "created": "2026-05-20",
        "updated": "2026-06-24",
        "hours": {
          "raw": "Tu 08:00-23:00; Th 08:00-23:00; Fr 08:00-23:00; We 08:00-23:00; Mo 08:00-23:00; Su 08:00-14:00"
        },
        "tags": [
          "barrierefrei"
        ],
        "sources_by_field": {
          "name": "osm",
          "address.street": "osm",
          "address.number": "osm",
          "address.postalcode": "osm",
          "address.city": "osm",
          "hours": "google"
        },
        "apple_id_attempted": "2026-06-24",
        "google_attempted": "2026-06-24",
        "payment": {
          "cash": "yes"
        }
      }
    },
    {
      "type": "Feature",
      "geometry": {
        "type": "Point",
        "coordinates": [
          11.8224037,
          51.4742557
        ]
      },
      "properties": {
        "id": "tk_hal_osm_w71409308",
        "name": "Lösch-Depot",
        "address": {
          "street": "Eisdorfer Straße",
          "number": "32",
          "postalcode": "06198",
          "city": "Salzatal",
          "district": "Bennstedt"
        },
        "sources": [
          {
            "type": "osm",
            "id": "way/71409308",
            "version": 0
          },
          {
            "type": "gmaps",
            "id": "payment"
          }
        ],
        "created": "2026-05-20",
        "updated": "2026-06-22",
        "hours": {
          "raw": "Mo-Fr 08:00-19:00; Sa 08:00-16:00; Su,PH off"
        },
        "tags": [
          "barrierefrei"
        ],
        "sources_by_field": {
          "name": "osm",
          "address.street": "osm",
          "address.number": "osm",
          "address.postalcode": "osm",
          "address.city": "osm",
          "address.district": "osm",
          "hours": "osm"
        },
        "apple_id_attempted": "2026-06-24",
        "payment": {
          "cards": "yes",
          "contactless": "yes",
          "girocard": "yes"
        }
      }
    },
    {
      "type": "Feature",
      "geometry": {
        "type": "Point",
        "coordinates": [
          11.9166007,
          51.4786674
        ]
      },
      "properties": {
        "id": "tk_hal_osm_w746351850",
        "name": "Kiosk an der Magistrale",
        "address": {
          "street": "An der Magistrale",
          "number": "101",
          "postalcode": "06124",
          "city": "Halle (Saale)",
          "district": "Halle-Neustadt"
        },
        "sources": [
          {
            "type": "osm",
            "id": "way/746351850",
            "version": 0
          },
          {
            "type": "apple",
            "id": "11942232884545931765"
          },
          {
            "type": "gmaps",
            "id": "ChIJc2a_hTx9pkcR6MoeNbadkCs"
          }
        ],
        "created": "2026-05-20",
        "updated": "2026-06-24",
        "sources_by_field": {
          "name": "osm",
          "hours": "google"
        },
        "apple_attempted": "2026-06-24",
        "google_attempted": "2026-06-24",
        "hours": {
          "raw": "Tu 09:00-00:00; Th 09:00-00:00; Fr 09:00-00:00; We 09:00-00:00; Mo 09:00-00:00; Sa 09:00-00:00; Su 09:00-01:00"
        },
        "payment": {}
      }
    },
    {
      "type": "Feature",
      "geometry": {
        "type": "Point",
        "coordinates": [
          11.9795132,
          51.4792475
        ]
      },
      "properties": {
        "id": "tk_hal_osm_n12912934528",
        "name": "# Smoke & Sweets",
        "address": {},
        "sources": [
          {
            "type": "osm",
            "id": "node/12912934528",
            "version": 0
          }
        ],
        "created": "2026-05-20",
        "updated": "2026-06-22",
        "hours": {
          "raw": "Mo-Fr 10:00-24:00, Sa 10:00-20:00, Su 14:00-19:00"
        },
        "sources_by_field": {
          "name": "osm",
          "hours": "osm"
        },
        "apple_id_attempted": "2026-06-24",
        "google_attempted": "2026-06-24",
        "payment": {}
      }
    },
    {
      "type": "Feature",
      "geometry": {
        "type": "Point",
        "coordinates": [
          11.8869021,
          51.5028512
        ]
      },
      "properties": {
        "id": "tk_hal_osm_n1565592240",
        "name": "Grillhütte",
        "address": {},
        "sources": [
          {
            "type": "osm",
            "id": "node/1565592240",
            "version": 0
          }
        ],
        "created": "2026-05-20",
        "updated": "2026-06-22",
        "sources_by_field": {
          "name": "osm"
        },
        "apple_id_attempted": "2026-06-24",
        "google_attempted": "2026-06-24",
        "payment": {}
      }
    },
    {
      "type": "Feature",
      "geometry": {
        "type": "Point",
        "coordinates": [
          11.9614785,
          51.4524286
        ]
      },
      "properties": {
        "id": "tk_hal_osm_n2113541901",
        "name": "LTS Presseshops",
        "address": {
          "street": "Paul-Suhr-Straße",
          "number": "58",
          "postalcode": "06130",
          "city": "Halle (Saale)"
        },
        "sources": [
          {
            "type": "osm",
            "id": "node/2113541901",
            "version": 0
          }
        ],
        "created": "2026-05-20",
        "updated": "2026-06-22",
        "hours": {
          "raw": "Mo-Fr 10:00-18:00; Sa 09:00-12:00"
        },
        "sources_by_field": {
          "name": "osm",
          "address.street": "osm",
          "address.number": "osm",
          "address.postalcode": "osm",
          "address.city": "osm",
          "hours": "osm"
        },
        "apple_id_attempted": "2026-06-24",
        "google_attempted": "2026-06-24",
        "payment": {}
      }
    },
    {
      "type": "Feature",
      "geometry": {
        "type": "Point",
        "coordinates": [
          11.9765173,
          51.4797738
        ]
      },
      "properties": {
        "id": "tk_hal_osm_n3084635633",
        "name": "Obst und Gemüse, Getränke",
        "address": {
          "street": "Leipziger Straße",
          "number": "50",
          "postalcode": "06108",
          "city": "Halle (Saale)"
        },
        "sources": [
          {
            "type": "osm",
            "id": "node/3084635633",
            "version": 0
          }
        ],
        "created": "2026-05-20",
        "updated": "2026-06-22",
        "tags": [
          "barrierefrei"
        ],
        "sources_by_field": {
          "name": "osm",
          "address.street": "osm",
          "address.number": "osm",
          "address.postalcode": "osm",
          "address.city": "osm"
        },
        "apple_id_attempted": "2026-06-24",
        "google_attempted": "2026-06-24",
        "payment": {}
      }
    },
    {
      "type": "Feature",
      "geometry": {
        "type": "Point",
        "coordinates": [
          11.9132239,
          51.515774
        ]
      },
      "properties": {
        "id": "tk_hal_osm_n3940680310",
        "name": "Thomis Getränke-Halle",
        "address": {
          "street": "Heideringpassage",
          "number": "4",
          "postalcode": "06120",
          "city": "Halle (Saale)"
        },
        "sources": [
          {
            "type": "osm",
            "id": "node/3940680310",
            "version": 0
          }
        ],
        "created": "2026-05-20",
        "updated": "2026-06-22",
        "hours": {
          "raw": "Mo-Fr 09:00-18:00; Sa 09:00-13:00"
        },
        "payment": {
          "cash": "yes",
          "cards": "unknown",
          "contactless": "unknown",
          "girocard": "yes"
        },
        "tags": [
          "barrierefrei"
        ],
        "sources_by_field": {
          "name": "osm",
          "address.street": "osm",
          "address.number": "osm",
          "address.postalcode": "osm",
          "address.city": "osm",
          "hours": "osm",
          "payment.cash": "osm",
          "payment.cards": "osm",
          "payment.contactless": "osm",
          "payment.girocard": "osm"
        },
        "apple_id_attempted": "2026-06-24"
      }
    },
    {
      "type": "Feature",
      "geometry": {
        "type": "Point",
        "coordinates": [
          11.9621854,
          51.5004784
        ]
      },
      "properties": {
        "id": "tk_hal_osm_n6191386156",
        "name": "Spätverkauf",
        "address": {},
        "sources": [
          {
            "type": "osm",
            "id": "node/6191386156",
            "version": 0
          }
        ],
        "created": "2026-05-20",
        "updated": "2026-06-22",
        "hours": {
          "raw": "PH,Su-Th 10:00-22:00; Fr,Sa 10:00-24:00"
        },
        "sources_by_field": {
          "name": "osm",
          "hours": "osm"
        },
        "apple_id_attempted": "2026-06-24",
        "google_attempted": "2026-06-24",
        "payment": {}
      }
    },
    {
      "type": "Feature",
      "geometry": {
        "type": "Point",
        "coordinates": [
          11.9824044,
          51.4784811
        ]
      },
      "properties": {
        "id": "tk_hal_osm_n7826423397",
        "name": "Trésor",
        "address": {},
        "sources": [
          {
            "type": "osm",
            "id": "node/7826423397",
            "version": 0
          }
        ],
        "created": "2026-05-20",
        "updated": "2026-06-22",
        "hours": {
          "raw": "Mo-Fr 06:00-21:00; Sa 10:00-20:00; Su 11:00-17:00"
        },
        "tags": [
          "barrierefrei"
        ],
        "sources_by_field": {
          "name": "osm",
          "hours": "osm"
        },
        "apple_id_attempted": "2026-06-24",
        "google_attempted": "2026-06-24",
        "payment": {}
      }
    },
    {
      "type": "Feature",
      "geometry": {
        "type": "Point",
        "coordinates": [
          11.9286976,
          51.4797868
        ]
      },
      "properties": {
        "id": "tk_hal_osm_w1281920050",
        "name": "Kiosk am Jungfernbrunnen",
        "address": {},
        "sources": [
          {
            "type": "osm",
            "id": "way/1281920050",
            "version": 0
          }
        ],
        "created": "2026-05-20",
        "updated": "2026-06-22",
        "sources_by_field": {
          "name": "osm"
        },
        "apple_id_attempted": "2026-06-24",
        "google_attempted": "2026-06-24",
        "payment": {}
      }
    },
    {
      "type": "Feature",
      "geometry": {
        "type": "Point",
        "coordinates": [
          11.2949683,
          51.4792001
        ]
      },
      "properties": {
        "id": "tk_hal_osm_w183559668",
        "name": "Runder Kiosk am Bahnhof",
        "address": {
          "street": "Kaltenborner Weg",
          "postalcode": "06526",
          "city": "Sangerhausen"
        },
        "sources": [
          {
            "type": "osm",
            "id": "way/183559668",
            "version": 0
          }
        ],
        "created": "2026-05-20",
        "updated": "2026-06-22",
        "hours": {
          "raw": "Mo-Fr 06:00-13:00; Sa,Su off"
        },
        "sources_by_field": {
          "name": "osm",
          "address.street": "osm",
          "address.postalcode": "osm",
          "address.city": "osm",
          "hours": "osm"
        },
        "apple_id_attempted": "2026-06-24",
        "google_attempted": "2026-06-24",
        "payment": {}
      }
    },
    {
      "type": "Feature",
      "geometry": {
        "type": "Point",
        "coordinates": [
          11.8786678,
          51.5113292
        ]
      },
      "properties": {
        "id": "tk_hal_osm_w215045805",
        "name": "Löschdepot",
        "address": {
          "street": "Salzmünder Straße",
          "number": "79 a",
          "postalcode": "06120",
          "city": "Halle (Saale)"
        },
        "sources": [
          {
            "type": "osm",
            "id": "way/215045805",
            "version": 0
          }
        ],
        "created": "2026-05-20",
        "updated": "2026-06-22",
        "hours": {
          "raw": "Mo-Fr 09:00-18:30; Sa 09:00-13:00"
        },
        "payment": {
          "cash": "yes",
          "cards": "yes",
          "contactless": "unknown",
          "girocard": "unknown"
        },
        "sources_by_field": {
          "name": "osm",
          "address.street": "osm",
          "address.number": "osm",
          "address.postalcode": "osm",
          "address.city": "osm",
          "hours": "osm",
          "payment.cash": "osm",
          "payment.cards": "osm",
          "payment.contactless": "osm",
          "payment.girocard": "osm"
        },
        "apple_id_attempted": "2026-06-24"
      }
    }
  ]
}
