{
  "type": "FeatureCollection",
  "features": [
    {
      "type": "Feature",
      "geometry": {
        "type": "Point",
        "coordinates": [
          11.6077618,
          52.13586
        ]
      },
      "properties": {
        "id": "tk_md_osm_n1011705230",
        "name": "Lotto Point Genrich",
        "address": {
          "street": "Olvenstedter Platz",
          "number": "2",
          "postalcode": "39108",
          "city": "Magdeburg"
        },
        "sources": [
          {
            "type": "osm",
            "id": "node/1011705230",
            "version": 0
          },
          {
            "type": "gmaps",
            "id": "payment"
          }
        ],
        "created": "2026-05-20",
        "updated": "2026-05-21",
        "hours": {
          "raw": "Mo 08:00-14:00; Tu-Fr 08:00-18:00; Sa 08:00-12:00; PH off"
        },
        "tags": [
          "barrierefrei"
        ],
        "payment": {
          "cards": "yes",
          "girocard": "yes",
          "contactless": "yes"
        }
      }
    },
    {
      "type": "Feature",
      "geometry": {
        "type": "Point",
        "coordinates": [
          11.6342293,
          52.126351
        ]
      },
      "properties": {
        "id": "tk_md_osm_n10206492715",
        "name": "Jolie Perlage",
        "address": {
          "street": "Breiter Weg",
          "number": "7",
          "postalcode": "39104",
          "city": "Magdeburg"
        },
        "sources": [
          {
            "type": "osm",
            "id": "node/10206492715",
            "version": 0
          }
        ],
        "created": "2026-05-20",
        "updated": "2026-05-21",
        "payment_attempted": "2026-05-22"
      }
    },
    {
      "type": "Feature",
      "geometry": {
        "type": "Point",
        "coordinates": [
          11.6050784,
          52.1030832
        ]
      },
      "properties": {
        "id": "tk_md_osm_n10777962990",
        "name": "Getränke Quelle",
        "address": {},
        "sources": [
          {
            "type": "osm",
            "id": "node/10777962990",
            "version": 0
          },
          {
            "type": "gmaps",
            "id": "payment"
          }
        ],
        "created": "2026-05-20",
        "updated": "2026-05-21",
        "hours": {
          "raw": "Mo-Fr 08:00-19:00; Sa 08:00-16:00"
        },
        "payment": {
          "cards": "yes",
          "girocard": "yes",
          "contactless": "yes"
        }
      }
    },
    {
      "type": "Feature",
      "geometry": {
        "type": "Point",
        "coordinates": [
          11.60021,
          52.1097735
        ]
      },
      "properties": {
        "id": "tk_md_osm_n10784650896",
        "name": "Jwan Spätshop",
        "address": {},
        "sources": [
          {
            "type": "osm",
            "id": "node/10784650896",
            "version": 0
          }
        ],
        "created": "2026-05-20",
        "updated": "2026-05-21",
        "hours": {
          "raw": "Mo-Th 12:00-12:00; Fr,Sa 12:00-01:00"
        },
        "payment_attempted": "2026-05-22"
      }
    },
    {
      "type": "Feature",
      "geometry": {
        "type": "Point",
        "coordinates": [
          11.5812199,
          52.1482495
        ]
      },
      "properties": {
        "id": "tk_md_osm_n1098366284",
        "name": "Lotto",
        "address": {},
        "sources": [
          {
            "type": "osm",
            "id": "node/1098366284",
            "version": 0
          },
          {
            "type": "gmaps",
            "id": "payment"
          }
        ],
        "created": "2026-05-20",
        "updated": "2026-05-21",
        "hours": {
          "raw": "Mo-Fr 06:30-18:30; Sa 07:00-13:00"
        },
        "payment": {
          "cards": "yes",
          "girocard": "yes",
          "contactless": "yes"
        }
      }
    },
    {
      "type": "Feature",
      "geometry": {
        "type": "Point",
        "coordinates": [
          11.6719318,
          52.1294275
        ]
      },
      "properties": {
        "id": "tk_md_osm_n1109384201",
        "name": "Lotto",
        "address": {},
        "sources": [
          {
            "type": "osm",
            "id": "node/1109384201",
            "version": 0
          },
          {
            "type": "gmaps",
            "id": "payment"
          }
        ],
        "created": "2026-05-20",
        "updated": "2026-05-21",
        "hours": {
          "raw": "Mo-Fr 08:30-18:00; Sa 08:30-12:00"
        },
        "payment": {
          "cards": "yes",
          "girocard": "yes"
        }
      }
    },
    {
      "type": "Feature",
      "geometry": {
        "type": "Point",
        "coordinates": [
          11.6185676,
          52.1078825
        ]
      },
      "properties": {
        "id": "tk_md_osm_n1122452902",
        "name": "Presse-Sound und Soft",
        "address": {
          "street": "Semmelweisstraße",
          "number": "13",
          "postalcode": "39112",
          "city": "Magdeburg"
        },
        "sources": [
          {
            "type": "osm",
            "id": "node/1122452902",
            "version": 0
          }
        ],
        "created": "2026-05-20",
        "updated": "2026-05-21",
        "hours": {
          "raw": "Mo-Fr 07:30-18:00, Sa 07:30-14:00"
        },
        "payment": {
          "cash": "yes",
          "cards": "unknown",
          "contactless": "unknown",
          "girocard": "yes",
          "mobile": "unknown"
        },
        "tags": [
          "barrierefrei"
        ]
      }
    },
    {
      "type": "Feature",
      "geometry": {
        "type": "Point",
        "coordinates": [
          11.6178118,
          52.1340885
        ]
      },
      "properties": {
        "id": "tk_md_osm_n1130088262",
        "name": "Lotto",
        "address": {},
        "sources": [
          {
            "type": "osm",
            "id": "node/1130088262",
            "version": 0
          },
          {
            "type": "gmaps",
            "id": "payment"
          }
        ],
        "created": "2026-05-20",
        "updated": "2026-05-21",
        "hours": {
          "raw": "Mo-Fr 08:00-18:00; Sa 08:00-12:00"
        },
        "payment": {
          "cards": "yes",
          "girocard": "yes"
        }
      }
    },
    {
      "type": "Feature",
      "geometry": {
        "type": "Point",
        "coordinates": [
          11.6120742,
          52.1369643
        ]
      },
      "properties": {
        "id": "tk_md_osm_n1156604969",
        "name": "Spätverkauf",
        "address": {
          "street": "Wielandstraße",
          "number": "11",
          "postalcode": "39108",
          "city": "Magdeburg"
        },
        "sources": [
          {
            "type": "osm",
            "id": "node/1156604969",
            "version": 0
          }
        ],
        "created": "2026-05-20",
        "updated": "2026-05-21",
        "hours": {
          "raw": "Mo-Tu,Th 15:00-22:00; Fr 15:00-23:00; Sa 10:00-23:00; Su 10:00-22:00"
        },
        "tags": [
          "barrierefrei"
        ],
        "payment_attempted": "2026-05-22"
      }
    },
    {
      "type": "Feature",
      "geometry": {
        "type": "Point",
        "coordinates": [
          11.5991178,
          52.1285251
        ]
      },
      "properties": {
        "id": "tk_md_osm_n1163882355",
        "name": "Lotto",
        "address": {},
        "sources": [
          {
            "type": "osm",
            "id": "node/1163882355",
            "version": 0
          },
          {
            "type": "gmaps",
            "id": "payment"
          }
        ],
        "created": "2026-05-20",
        "updated": "2026-05-21",
        "hours": {
          "raw": "Mo-Fr 08:30-18:00; Sa 08:00-12:00"
        },
        "tags": [
          "barrierefrei"
        ],
        "payment": {
          "cards": "yes",
          "girocard": "yes"
        }
      }
    },
    {
      "type": "Feature",
      "geometry": {
        "type": "Point",
        "coordinates": [
          11.6347366,
          52.1075395
        ]
      },
      "properties": {
        "id": "tk_md_osm_n11979239970",
        "name": "Buckau Shop",
        "address": {
          "street": "Coquistraße",
          "number": "4",
          "postalcode": "39104",
          "city": "Magdeburg"
        },
        "sources": [
          {
            "type": "osm",
            "id": "node/11979239970",
            "version": 0
          }
        ],
        "created": "2026-05-20",
        "updated": "2026-05-21",
        "hours": {
          "raw": "Mo-Th 16:00-23:00; Fr-Sa 16:00-24:00; Su 13:00-23:00"
        },
        "payment": {
          "cash": "yes",
          "cards": "yes",
          "contactless": "unknown",
          "girocard": "unknown",
          "mobile": "unknown"
        }
      }
    },
    {
      "type": "Feature",
      "geometry": {
        "type": "Point",
        "coordinates": [
          11.6105822,
          52.1303542
        ]
      },
      "properties": {
        "id": "tk_md_osm_n1219283897",
        "name": "Caro's Lottostop",
        "address": {},
        "sources": [
          {
            "type": "osm",
            "id": "node/1219283897",
            "version": 0
          },
          {
            "type": "gmaps",
            "id": "payment"
          }
        ],
        "created": "2026-05-20",
        "updated": "2026-05-21",
        "hours": {
          "raw": "Mo-Fr 08:00-18:00; Sa 08:00-12:00"
        },
        "payment": {
          "cards": "yes",
          "girocard": "yes",
          "contactless": "yes"
        }
      }
    },
    {
      "type": "Feature",
      "geometry": {
        "type": "Point",
        "coordinates": [
          11.6378327,
          52.1540529
        ]
      },
      "properties": {
        "id": "tk_md_osm_n1219295535",
        "name": "tabacon - Lotto",
        "address": {},
        "sources": [
          {
            "type": "osm",
            "id": "node/1219295535",
            "version": 0
          }
        ],
        "created": "2026-05-20",
        "updated": "2026-05-21",
        "hours": {
          "raw": "Mo-Sa 07:00-20:00"
        },
        "tags": [
          "barrierefrei"
        ],
        "payment_attempted": "2026-05-22"
      }
    },
    {
      "type": "Feature",
      "geometry": {
        "type": "Point",
        "coordinates": [
          11.6452716,
          52.1580195
        ]
      },
      "properties": {
        "id": "tk_md_osm_n12300245104",
        "name": "durstlöscher24",
        "address": {
          "street": "Nachtweide",
          "number": "80",
          "postalcode": "39124",
          "city": "Magdeburg"
        },
        "sources": [
          {
            "type": "osm",
            "id": "node/12300245104",
            "version": 0
          }
        ],
        "created": "2026-05-20",
        "updated": "2026-05-21",
        "payment_attempted": "2026-05-22"
      }
    },
    {
      "type": "Feature",
      "geometry": {
        "type": "Point",
        "coordinates": [
          11.5704034,
          52.0928809
        ]
      },
      "properties": {
        "id": "tk_md_osm_n1237700234",
        "name": "Lotto",
        "address": {},
        "sources": [
          {
            "type": "osm",
            "id": "node/1237700234",
            "version": 0
          }
        ],
        "created": "2026-05-20",
        "updated": "2026-05-21",
        "hours": {
          "raw": "Mo-Fr 07:00-18:00; Sa 07:00-14:00"
        },
        "tags": [
          "barrierefrei"
        ],
        "payment_attempted": "2026-05-22"
      }
    },
    {
      "type": "Feature",
      "geometry": {
        "type": "Point",
        "coordinates": [
          11.6413227,
          52.105637
        ]
      },
      "properties": {
        "id": "tk_md_osm_n1279629590",
        "name": "Elbeck Lotto",
        "address": {},
        "sources": [
          {
            "type": "osm",
            "id": "node/1279629590",
            "version": 0
          },
          {
            "type": "gmaps",
            "id": "payment"
          }
        ],
        "created": "2026-05-20",
        "updated": "2026-05-21",
        "payment": {
          "cards": "no",
          "girocard": "yes",
          "contactless": "yes"
        }
      }
    },
    {
      "type": "Feature",
      "geometry": {
        "type": "Point",
        "coordinates": [
          11.6325025,
          52.1699505
        ]
      },
      "properties": {
        "id": "tk_md_osm_n12903315357",
        "name": "Lotto",
        "address": {
          "street": "Neustädter Platz",
          "number": "11",
          "postalcode": "39126",
          "city": "Magdeburg"
        },
        "sources": [
          {
            "type": "osm",
            "id": "node/12903315357",
            "version": 0
          },
          {
            "type": "gmaps",
            "id": "payment"
          }
        ],
        "created": "2026-05-20",
        "updated": "2026-05-21",
        "hours": {
          "raw": "Mo-Fr 09:00-18:00, Sa 09:00-12:00, Su off"
        },
        "payment": {
          "cards": "yes",
          "girocard": "yes"
        }
      }
    },
    {
      "type": "Feature",
      "geometry": {
        "type": "Point",
        "coordinates": [
          11.6585963,
          52.0904745
        ]
      },
      "properties": {
        "id": "tk_md_osm_n1369387276",
        "name": "Heinz Günter Breitenstein Getränkefachgroßhandel",
        "address": {},
        "sources": [
          {
            "type": "osm",
            "id": "node/1369387276",
            "version": 0
          }
        ],
        "created": "2026-05-20",
        "updated": "2026-05-21",
        "payment_attempted": "2026-05-22"
      }
    },
    {
      "type": "Feature",
      "geometry": {
        "type": "Point",
        "coordinates": [
          11.6110367,
          52.1301475
        ]
      },
      "properties": {
        "id": "tk_md_osm_n1383505837",
        "name": "Magdeburger Spätshop",
        "address": {
          "street": "Große Diesdorfer Straße",
          "number": "226",
          "postalcode": "39108",
          "city": "Magdeburg"
        },
        "sources": [
          {
            "type": "osm",
            "id": "node/1383505837",
            "version": 0
          },
          {
            "type": "gmaps",
            "id": "payment"
          }
        ],
        "created": "2026-05-20",
        "updated": "2026-05-21",
        "hours": {
          "raw": "Mo-Th 18:00-24:00, Fr,Sa 18:00-02:00, Su 13:00-23:00, PH 13:00-18:00+"
        },
        "payment": {
          "girocard": "yes",
          "cards": "no",
          "contactless": "yes"
        }
      }
    },
    {
      "type": "Feature",
      "geometry": {
        "type": "Point",
        "coordinates": [
          11.6372409,
          52.1320053
        ]
      },
      "properties": {
        "id": "tk_md_osm_n1461391061",
        "name": "Glückspilz",
        "address": {
          "street": "Breiter Weg",
          "number": "23",
          "postalcode": "39104",
          "city": "Magdeburg"
        },
        "sources": [
          {
            "type": "osm",
            "id": "node/1461391061",
            "version": 0
          }
        ],
        "created": "2026-05-20",
        "updated": "2026-05-21",
        "hours": {
          "raw": "Mo-Fr 08:00-18:00; Sa 09:00-15:00"
        },
        "tags": [
          "barrierefrei"
        ],
        "payment_attempted": "2026-05-22"
      }
    },
    {
      "type": "Feature",
      "geometry": {
        "type": "Point",
        "coordinates": [
          11.6048744,
          52.1623646
        ]
      },
      "properties": {
        "id": "tk_md_osm_n1569371523",
        "name": "Getränke Quelle",
        "address": {
          "street": "Lerchenwuhne",
          "number": "125",
          "postalcode": "39128",
          "city": "Magdeburg"
        },
        "sources": [
          {
            "type": "osm",
            "id": "node/1569371523",
            "version": 0
          },
          {
            "type": "gmaps",
            "id": "payment"
          }
        ],
        "created": "2026-05-20",
        "updated": "2026-05-21",
        "hours": {
          "raw": "Mo-Fr 08:30-18:00; Sa 08:00-14:00"
        },
        "payment": {
          "cards": "no",
          "girocard": "yes",
          "contactless": "yes"
        }
      }
    },
    {
      "type": "Feature",
      "geometry": {
        "type": "Point",
        "coordinates": [
          11.5909345,
          52.107122
        ]
      },
      "properties": {
        "id": "tk_md_osm_n1649589720",
        "name": "Lottoladen",
        "address": {},
        "sources": [
          {
            "type": "osm",
            "id": "node/1649589720",
            "version": 0
          }
        ],
        "created": "2026-05-20",
        "updated": "2026-05-21",
        "payment_attempted": "2026-05-22"
      }
    },
    {
      "type": "Feature",
      "geometry": {
        "type": "Point",
        "coordinates": [
          11.6394912,
          52.1367713
        ]
      },
      "properties": {
        "id": "tk_md_osm_n1797286804",
        "name": "Eckert",
        "address": {
          "street": "Breiter Weg",
          "postalcode": "39104",
          "city": "Magdeburg"
        },
        "sources": [
          {
            "type": "osm",
            "id": "node/1797286804",
            "version": 0
          }
        ],
        "created": "2026-05-20",
        "updated": "2026-05-21",
        "hours": {
          "raw": "Mo-Fr 06:00-18:00; Sa 07:00-12:00"
        },
        "payment": {
          "cash": "yes",
          "cards": "unknown",
          "contactless": "unknown",
          "girocard": "unknown",
          "mobile": "unknown"
        }
      }
    },
    {
      "type": "Feature",
      "geometry": {
        "type": "Point",
        "coordinates": [
          11.6698938,
          52.0717249
        ]
      },
      "properties": {
        "id": "tk_md_osm_n1880354334",
        "name": "Getränke Quelle",
        "address": {},
        "sources": [
          {
            "type": "osm",
            "id": "node/1880354334",
            "version": 0
          },
          {
            "type": "gmaps",
            "id": "payment"
          }
        ],
        "created": "2026-05-20",
        "updated": "2026-05-21",
        "payment": {
          "cards": "no",
          "girocard": "yes",
          "contactless": "yes"
        }
      }
    },
    {
      "type": "Feature",
      "geometry": {
        "type": "Point",
        "coordinates": [
          11.6316091,
          52.1096567
        ]
      },
      "properties": {
        "id": "tk_md_osm_n1958324023",
        "name": "Getränkefeinkost",
        "address": {
          "street": "Warschauer Straße",
          "number": "20",
          "postalcode": "39104"
        },
        "sources": [
          {
            "type": "osm",
            "id": "node/1958324023",
            "version": 0
          },
          {
            "type": "gmaps",
            "id": "payment"
          }
        ],
        "created": "2026-05-20",
        "updated": "2026-05-21",
        "hours": {
          "raw": "Mo-Fr 13:00-20:00; Sa 11:00-18:00"
        },
        "payment": {
          "cards": "no",
          "girocard": "yes",
          "contactless": "yes"
        }
      }
    },
    {
      "type": "Feature",
      "geometry": {
        "type": "Point",
        "coordinates": [
          11.6110291,
          52.0899318
        ]
      },
      "properties": {
        "id": "tk_md_osm_n1986003219",
        "name": "Gyros-Haus",
        "address": {},
        "sources": [
          {
            "type": "osm",
            "id": "node/1986003219",
            "version": 0
          }
        ],
        "created": "2026-05-20",
        "updated": "2026-05-21",
        "payment_attempted": "2026-05-22"
      }
    },
    {
      "type": "Feature",
      "geometry": {
        "type": "Point",
        "coordinates": [
          11.6123375,
          52.1206529
        ]
      },
      "properties": {
        "id": "tk_md_osm_n2048616002",
        "name": "Kiosk",
        "address": {},
        "sources": [
          {
            "type": "osm",
            "id": "node/2048616002",
            "version": 0
          },
          {
            "type": "gmaps",
            "id": "payment"
          }
        ],
        "created": "2026-05-20",
        "updated": "2026-05-21",
        "payment": {
          "cards": "yes",
          "girocard": "yes",
          "contactless": "yes"
        }
      }
    },
    {
      "type": "Feature",
      "geometry": {
        "type": "Point",
        "coordinates": [
          11.6337586,
          52.003861
        ]
      },
      "properties": {
        "id": "tk_md_osm_n290803568",
        "name": "Natho's Säfte",
        "address": {
          "street": "Krumme Straße",
          "number": "33",
          "postalcode": "39221",
          "city": "Bördeland",
          "district": "Welsleben"
        },
        "sources": [
          {
            "type": "osm",
            "id": "node/290803568",
            "version": 0
          },
          {
            "type": "gmaps",
            "id": "payment"
          }
        ],
        "created": "2026-05-20",
        "updated": "2026-05-21",
        "payment": {
          "cards": "yes"
        }
      }
    },
    {
      "type": "Feature",
      "geometry": {
        "type": "Point",
        "coordinates": [
          11.6678065,
          52.180665
        ]
      },
      "properties": {
        "id": "tk_md_osm_n3514066398",
        "name": "Getränke Quelle",
        "address": {},
        "sources": [
          {
            "type": "osm",
            "id": "node/3514066398",
            "version": 0
          },
          {
            "type": "gmaps",
            "id": "payment"
          }
        ],
        "created": "2026-05-20",
        "updated": "2026-05-21",
        "hours": {
          "raw": "Mo-Fr 08:00-19:00; Sa 08:00-14:00"
        },
        "payment": {
          "cards": "no",
          "girocard": "yes",
          "contactless": "yes"
        }
      }
    },
    {
      "type": "Feature",
      "geometry": {
        "type": "Point",
        "coordinates": [
          11.6386171,
          52.134811
        ]
      },
      "properties": {
        "id": "tk_md_osm_n3790433370",
        "name": "Eckert",
        "address": {
          "street": "Breiter Weg",
          "postalcode": "39104",
          "city": "Magdeburg"
        },
        "sources": [
          {
            "type": "osm",
            "id": "node/3790433370",
            "version": 0
          },
          {
            "type": "gmaps",
            "id": "payment"
          }
        ],
        "created": "2026-05-20",
        "updated": "2026-05-21",
        "hours": {
          "raw": "Mo-Fr 07:00-19:30"
        },
        "tags": [
          "barrierefrei"
        ],
        "payment": {
          "cards": "no",
          "girocard": "yes",
          "contactless": "yes"
        }
      }
    },
    {
      "type": "Feature",
      "geometry": {
        "type": "Point",
        "coordinates": [
          11.6676012,
          52.0785338
        ]
      },
      "properties": {
        "id": "tk_md_osm_n3938713447",
        "name": "Getränke Lindner",
        "address": {
          "street": "Alt Salbke",
          "number": "91",
          "postalcode": "39122",
          "city": "Magdeburg"
        },
        "sources": [
          {
            "type": "osm",
            "id": "node/3938713447",
            "version": 0
          }
        ],
        "created": "2026-05-20",
        "updated": "2026-05-21",
        "hours": {
          "raw": "Mo-Sa 09:00-18:00"
        },
        "payment_attempted": "2026-05-22"
      }
    },
    {
      "type": "Feature",
      "geometry": {
        "type": "Point",
        "coordinates": [
          11.6375794,
          52.1374842
        ]
      },
      "properties": {
        "id": "tk_md_osm_n4138574654",
        "name": "Uni-Shop",
        "address": {},
        "sources": [
          {
            "type": "osm",
            "id": "node/4138574654",
            "version": 0
          },
          {
            "type": "gmaps",
            "id": "payment"
          }
        ],
        "created": "2026-05-20",
        "updated": "2026-05-21",
        "hours": {
          "raw": "Mo-Th 06:30-00:00, Fr 06:30-02:00, Sa 09:00-02:00, Su 09:00-00:00; PH 10:00-01:00"
        },
        "payment": {
          "girocard": "yes",
          "cards": "no",
          "contactless": "yes"
        }
      }
    },
    {
      "type": "Feature",
      "geometry": {
        "type": "Point",
        "coordinates": [
          11.6557633,
          52.1481583
        ]
      },
      "properties": {
        "id": "tk_md_osm_n417776450",
        "name": "Fristo",
        "address": {
          "street": "Rogätzer Straße",
          "number": "28",
          "postalcode": "39106",
          "city": "Magdeburg",
          "district": "Alte Neustadt"
        },
        "sources": [
          {
            "type": "osm",
            "id": "node/417776450",
            "version": 0
          },
          {
            "type": "gmaps",
            "id": "payment"
          }
        ],
        "created": "2026-05-20",
        "updated": "2026-05-21",
        "hours": {
          "raw": "Mo-Sa 08:00-20:00; Su,PH off"
        },
        "tags": [
          "barrierefrei"
        ],
        "payment": {
          "cards": "no",
          "girocard": "yes",
          "contactless": "yes"
        }
      }
    },
    {
      "type": "Feature",
      "geometry": {
        "type": "Point",
        "coordinates": [
          11.633045,
          52.0046182
        ]
      },
      "properties": {
        "id": "tk_md_osm_n4306633970",
        "name": "Natho's Säfte",
        "address": {},
        "sources": [
          {
            "type": "osm",
            "id": "node/4306633970",
            "version": 0
          }
        ],
        "created": "2026-05-20",
        "updated": "2026-05-21",
        "hours": {
          "raw": "Mo-Fr 09:00-18:00; Sa 09:00-12:00"
        },
        "payment_attempted": "2026-05-22"
      }
    },
    {
      "type": "Feature",
      "geometry": {
        "type": "Point",
        "coordinates": [
          11.6200902,
          52.1116609
        ]
      },
      "properties": {
        "id": "tk_md_osm_n440207862",
        "name": "Bier4you",
        "address": {
          "street": "Leipziger Straße",
          "number": "51b",
          "postalcode": "39112",
          "city": "Magdeburg"
        },
        "sources": [
          {
            "type": "osm",
            "id": "node/440207862",
            "version": 0
          }
        ],
        "created": "2026-05-20",
        "updated": "2026-05-21",
        "hours": {
          "raw": "Mo-Th 16:30-21:00, Fr-Sa 15:30-23:00, Su 13:30-17:00"
        },
        "payment_attempted": "2026-05-22"
      }
    },
    {
      "type": "Feature",
      "geometry": {
        "type": "Point",
        "coordinates": [
          11.6189452,
          52.1083076
        ]
      },
      "properties": {
        "id": "tk_md_osm_n5078892845",
        "name": "E Getränkemarkt",
        "address": {},
        "sources": [
          {
            "type": "osm",
            "id": "node/5078892845",
            "version": 0
          },
          {
            "type": "gmaps",
            "id": "payment"
          }
        ],
        "created": "2026-05-20",
        "updated": "2026-05-21",
        "payment": {
          "cards": "no",
          "girocard": "yes",
          "contactless": "yes"
        }
      }
    },
    {
      "type": "Feature",
      "geometry": {
        "type": "Point",
        "coordinates": [
          11.6057418,
          52.159653
        ]
      },
      "properties": {
        "id": "tk_md_osm_n5292336467",
        "name": "Lotto Laden",
        "address": {
          "street": "Olvenstedter Graseweg",
          "number": "37",
          "postalcode": "39128",
          "city": "Magdeburg"
        },
        "sources": [
          {
            "type": "osm",
            "id": "node/5292336467",
            "version": 0
          },
          {
            "type": "gmaps",
            "id": "payment"
          }
        ],
        "created": "2026-05-20",
        "updated": "2026-05-21",
        "hours": {
          "raw": "Mo-Sa 09:00-19:00; Su,PH off"
        },
        "tags": [
          "barrierefrei"
        ],
        "payment": {
          "cards": "yes",
          "girocard": "yes"
        }
      }
    },
    {
      "type": "Feature",
      "geometry": {
        "type": "Point",
        "coordinates": [
          11.6076637,
          52.1291892
        ]
      },
      "properties": {
        "id": "tk_md_osm_n603949836",
        "name": "Getränke Hoffmann",
        "address": {
          "street": "Große Diesdorfer Straße",
          "number": "210",
          "postalcode": "39108",
          "city": "Magdeburg"
        },
        "sources": [
          {
            "type": "osm",
            "id": "node/603949836",
            "version": 0
          },
          {
            "type": "gmaps",
            "id": "payment"
          }
        ],
        "created": "2026-05-20",
        "updated": "2026-05-21",
        "hours": {
          "raw": "Mo-Fr 09:00-20:00, Sa 09:00-18:00"
        },
        "tags": [
          "barrierefrei"
        ],
        "payment": {
          "cards": "no",
          "girocard": "yes",
          "contactless": "yes"
        }
      }
    },
    {
      "type": "Feature",
      "geometry": {
        "type": "Point",
        "coordinates": [
          11.6065813,
          52.1124202
        ]
      },
      "properties": {
        "id": "tk_md_osm_n6346924652",
        "name": "MD Shop",
        "address": {},
        "sources": [
          {
            "type": "osm",
            "id": "node/6346924652",
            "version": 0
          },
          {
            "type": "gmaps",
            "id": "payment"
          }
        ],
        "created": "2026-05-20",
        "updated": "2026-05-21",
        "hours": {
          "raw": "Mo,Th 06:00-02:00"
        },
        "payment": {
          "girocard": "yes",
          "cards": "no",
          "contactless": "yes"
        }
      }
    },
    {
      "type": "Feature",
      "geometry": {
        "type": "Point",
        "coordinates": [
          11.6006754,
          52.1104237
        ]
      },
      "properties": {
        "id": "tk_md_osm_n6354099562",
        "name": "Magdeburger Spätshop",
        "address": {},
        "sources": [
          {
            "type": "osm",
            "id": "node/6354099562",
            "version": 0
          },
          {
            "type": "gmaps",
            "id": "payment"
          }
        ],
        "created": "2026-05-20",
        "updated": "2026-05-21",
        "hours": {
          "raw": "Mo,Th 17:00-24:00, Fr,Sa 16:00-02:00, PH 12:00-18:00+, Su 12:00-24:00"
        },
        "payment": {
          "cards": "yes",
          "girocard": "yes"
        }
      }
    },
    {
      "type": "Feature",
      "geometry": {
        "type": "Point",
        "coordinates": [
          11.6108822,
          52.1301395
        ]
      },
      "properties": {
        "id": "tk_md_osm_n650365866",
        "name": "Bottle Store 226",
        "address": {
          "street": "Große Diesdorfer Straße",
          "number": "226",
          "postalcode": "39108",
          "city": "Magdeburg"
        },
        "sources": [
          {
            "type": "osm",
            "id": "node/650365866",
            "version": 0
          }
        ],
        "created": "2026-05-20",
        "updated": "2026-05-21",
        "payment_attempted": "2026-05-22"
      }
    },
    {
      "type": "Feature",
      "geometry": {
        "type": "Point",
        "coordinates": [
          11.6283176,
          52.1212803
        ]
      },
      "properties": {
        "id": "tk_md_osm_n663890016",
        "name": "City Shop Magdeburg",
        "address": {
          "street": "Breiter Weg",
          "number": "231",
          "postalcode": "39104",
          "city": "Magdeburg"
        },
        "sources": [
          {
            "type": "osm",
            "id": "node/663890016",
            "version": 0
          },
          {
            "type": "gmaps",
            "id": "payment"
          }
        ],
        "created": "2026-05-20",
        "updated": "2026-05-21",
        "hours": {
          "raw": "Su-Th 11:00-02:00, Fr,Sa 11:00-04:00"
        },
        "tags": [
          "barrierefrei"
        ],
        "payment": {
          "cards": "no",
          "girocard": "yes",
          "contactless": "yes"
        }
      }
    },
    {
      "type": "Feature",
      "geometry": {
        "type": "Point",
        "coordinates": [
          11.6369428,
          52.1540486
        ]
      },
      "properties": {
        "id": "tk_md_osm_n664489074",
        "name": "Lotto Toto",
        "address": {},
        "sources": [
          {
            "type": "osm",
            "id": "node/664489074",
            "version": 0
          }
        ],
        "created": "2026-05-20",
        "updated": "2026-05-21",
        "hours": {
          "raw": "Mo-Fr 08:00-18:00; Sa 08:00-12:00"
        },
        "tags": [
          "barrierefrei"
        ],
        "payment_attempted": "2026-05-22"
      }
    },
    {
      "type": "Feature",
      "geometry": {
        "type": "Point",
        "coordinates": [
          11.5828878,
          52.1529945
        ]
      },
      "properties": {
        "id": "tk_md_osm_n8040249917",
        "name": "Marktbreite",
        "address": {
          "street": "St.-Josef-Straße",
          "number": "80",
          "postalcode": "39130",
          "city": "Magdeburg"
        },
        "sources": [
          {
            "type": "osm",
            "id": "node/8040249917",
            "version": 0
          }
        ],
        "created": "2026-05-20",
        "updated": "2026-05-21",
        "hours": {
          "raw": "Mo-Th 13:00-20:00; Fr 13:00-22:00; Sa,Su,PH 14:00-20:00"
        },
        "payment_attempted": "2026-05-22"
      }
    },
    {
      "type": "Feature",
      "geometry": {
        "type": "Point",
        "coordinates": [
          11.6310402,
          52.1219011
        ]
      },
      "properties": {
        "id": "tk_md_osm_n817905378",
        "name": "Sipan Spätshop",
        "address": {},
        "sources": [
          {
            "type": "osm",
            "id": "node/817905378",
            "version": 0
          },
          {
            "type": "gmaps",
            "id": "payment"
          }
        ],
        "created": "2026-05-20",
        "updated": "2026-05-21",
        "hours": {
          "raw": "Mo-Th,Su 11:00-24:00; Fr-Sa 11:00-02:00"
        },
        "payment": {
          "girocard": "yes",
          "cards": "no",
          "contactless": "yes"
        }
      }
    },
    {
      "type": "Feature",
      "geometry": {
        "type": "Point",
        "coordinates": [
          11.6170604,
          52.1316668
        ]
      },
      "properties": {
        "id": "tk_md_osm_n9551523015",
        "name": "Lotto Point Genrich / Deutsche Post",
        "address": {
          "street": "Maxim-Gorki-Straße",
          "number": "24a",
          "postalcode": "39108",
          "city": "Magdeburg"
        },
        "sources": [
          {
            "type": "osm",
            "id": "node/9551523015",
            "version": 0
          },
          {
            "type": "gmaps",
            "id": "payment"
          }
        ],
        "created": "2026-05-20",
        "updated": "2026-05-21",
        "hours": {
          "raw": "Mo-Fr 09:00-12:00,14:00-18:00; Sa 09:00-12:00; PH off"
        },
        "payment": {
          "cards": "yes",
          "girocard": "yes",
          "contactless": "yes"
        }
      }
    },
    {
      "type": "Feature",
      "geometry": {
        "type": "Point",
        "coordinates": [
          11.6144468,
          52.1338435
        ]
      },
      "properties": {
        "id": "tk_md_osm_n9569064578",
        "name": "Lotto-Toto Bolle",
        "address": {
          "street": "Goethestraße",
          "number": "6b",
          "postalcode": "39108",
          "city": "Magdeburg"
        },
        "sources": [
          {
            "type": "osm",
            "id": "node/9569064578",
            "version": 0
          },
          {
            "type": "gmaps",
            "id": "payment"
          }
        ],
        "created": "2026-05-20",
        "updated": "2026-05-21",
        "hours": {
          "raw": "Mo-Fr 08:00-18:00; Sa 08:00-12:00; PH off"
        },
        "payment": {
          "cards": "no",
          "girocard": "yes",
          "contactless": "yes"
        }
      }
    },
    {
      "type": "Feature",
      "geometry": {
        "type": "Point",
        "coordinates": [
          11.636208,
          52.1578185
        ]
      },
      "properties": {
        "id": "tk_md_osm_n985973606",
        "name": "LOTTO-Laden",
        "address": {
          "street": "Lübecker Straße",
          "number": "109",
          "postalcode": "39124",
          "city": "Magdeburg"
        },
        "sources": [
          {
            "type": "osm",
            "id": "node/985973606",
            "version": 0
          }
        ],
        "created": "2026-05-20",
        "updated": "2026-05-21",
        "hours": {
          "raw": "Mo-Fr 08:00-18:00, Sa 08:00-13:00, Su off"
        },
        "payment_attempted": "2026-05-22"
      }
    },
    {
      "type": "Feature",
      "geometry": {
        "type": "Point",
        "coordinates": [
          11.6281,
          52.2471762
        ]
      },
      "properties": {
        "id": "tk_md_osm_n9937654285",
        "name": "Heidrun Schulze Lotto",
        "address": {
          "street": "Damaschkestraße",
          "number": "24",
          "postalcode": "39326",
          "city": "Wolmirstedt"
        },
        "sources": [
          {
            "type": "osm",
            "id": "node/9937654285",
            "version": 0
          }
        ],
        "created": "2026-05-20",
        "updated": "2026-05-21",
        "payment_attempted": "2026-05-22"
      }
    },
    {
      "type": "Feature",
      "geometry": {
        "type": "Point",
        "coordinates": [
          11.7339306,
          52.137313
        ]
      },
      "properties": {
        "id": "tk_md_osm_w1090855087",
        "name": "Getränke Quelle",
        "address": {
          "street": "Königsborner Straße",
          "number": "68",
          "postalcode": "39175",
          "city": "Biederitz",
          "district": "Heyrothsberge"
        },
        "sources": [
          {
            "type": "osm",
            "id": "way/1090855087",
            "version": 0
          },
          {
            "type": "gmaps",
            "id": "payment"
          }
        ],
        "created": "2026-05-20",
        "updated": "2026-05-21",
        "hours": {
          "raw": "Mo-Fr 09:00-18:00; Sa 08:30-16:00"
        },
        "tags": [
          "barrierefrei"
        ],
        "payment": {
          "cards": "no",
          "girocard": "yes",
          "contactless": "yes"
        }
      }
    },
    {
      "type": "Feature",
      "geometry": {
        "type": "Point",
        "coordinates": [
          11.6510589,
          52.0956921
        ]
      },
      "properties": {
        "id": "tk_md_osm_w122597759",
        "name": "Dirk's Kiosk",
        "address": {},
        "sources": [
          {
            "type": "osm",
            "id": "way/122597759",
            "version": 0
          }
        ],
        "created": "2026-05-20",
        "updated": "2026-05-21",
        "hours": {
          "raw": "Mo-Su 10:00-20:00; We off"
        },
        "payment_attempted": "2026-05-22"
      }
    },
    {
      "type": "Feature",
      "geometry": {
        "type": "Point",
        "coordinates": [
          11.6268228,
          52.1304535
        ]
      },
      "properties": {
        "id": "tk_md_osm_w1232540934",
        "name": "Point",
        "address": {},
        "sources": [
          {
            "type": "osm",
            "id": "way/1232540934",
            "version": 0
          },
          {
            "type": "gmaps",
            "id": "payment"
          }
        ],
        "created": "2026-05-20",
        "updated": "2026-05-21",
        "hours": {
          "raw": "Mo-Th 06:00-21:00; Fr 06:00-21:30; Sa 06:30-21:30; Su 07:00-21:30"
        },
        "tags": [
          "barrierefrei"
        ],
        "payment": {
          "cards": "no"
        }
      }
    },
    {
      "type": "Feature",
      "geometry": {
        "type": "Point",
        "coordinates": [
          11.6398362,
          52.1624287
        ]
      },
      "properties": {
        "id": "tk_md_osm_w177697545",
        "name": "JET",
        "address": {
          "street": "Kastanienstraße",
          "number": "8",
          "postalcode": "39124",
          "city": "Magdeburg"
        },
        "sources": [
          {
            "type": "osm",
            "id": "way/177697545",
            "version": 0
          }
        ],
        "created": "2026-05-20",
        "updated": "2026-05-21",
        "hours": {
          "raw": "Mo-Fr 05:00-23:00; Sa 06:00-23:00; Su 07:00-23:00"
        },
        "payment": {
          "cash": "unknown",
          "cards": "unknown",
          "contactless": "unknown",
          "girocard": "yes",
          "mobile": "yes"
        },
        "tags": [
          "barrierefrei"
        ]
      }
    },
    {
      "type": "Feature",
      "geometry": {
        "type": "Point",
        "coordinates": [
          11.5950408,
          52.0825837
        ]
      },
      "properties": {
        "id": "tk_md_osm_w361305675",
        "name": "Jet",
        "address": {
          "street": "Salbker Chaussee",
          "number": "65-67",
          "postalcode": "39118",
          "city": "Magdeburg"
        },
        "sources": [
          {
            "type": "osm",
            "id": "way/361305675",
            "version": 0
          },
          {
            "type": "gmaps",
            "id": "payment"
          }
        ],
        "created": "2026-05-20",
        "updated": "2026-05-22",
        "tags": [
          "barrierefrei"
        ],
        "payment": {
          "cards": "no",
          "girocard": "yes",
          "contactless": "yes"
        }
      }
    },
    {
      "type": "Feature",
      "geometry": {
        "type": "Point",
        "coordinates": [
          11.7260164,
          52.0168298
        ]
      },
      "properties": {
        "id": "tk_md_osm_w93339593",
        "name": "Getränkeland",
        "address": {
          "street": "Bertolt-Brecht-Straße",
          "number": "20"
        },
        "sources": [
          {
            "type": "osm",
            "id": "way/93339593",
            "version": 0
          }
        ],
        "created": "2026-05-20",
        "updated": "2026-05-21",
        "payment_attempted": "2026-05-22"
      }
    },
    {
      "type": "Feature",
      "geometry": {
        "type": "Point",
        "coordinates": [
          11.6268047,
          52.1693313
        ]
      },
      "properties": {
        "id": "tk_md_osm_w95003172",
        "name": "Getränkemarkt Edeka Scharke",
        "address": {
          "street": "Hans-Grundig-Straße",
          "number": "19",
          "postalcode": "39128",
          "city": "Magdeburg"
        },
        "sources": [
          {
            "type": "osm",
            "id": "way/95003172",
            "version": 0
          },
          {
            "type": "gmaps",
            "id": "payment"
          }
        ],
        "created": "2026-05-20",
        "updated": "2026-05-21",
        "hours": {
          "raw": "Mo-Sa 08:00-19:00"
        },
        "tags": [
          "barrierefrei"
        ],
        "payment": {
          "cards": "yes",
          "girocard": "yes",
          "contactless": "yes"
        }
      }
    }
  ]
}
