{
  "type": "FeatureCollection",
  "features": [
    {
      "type": "Feature",
      "geometry": {
        "type": "Point",
        "coordinates": [
          12.8059121,
          50.8122535
        ]
      },
      "properties": {
        "id": "tk_c_osm_n1163438095",
        "name": "Getränke Pfeifer",
        "address": {
          "street": "An der Wiesenmühle",
          "number": "8",
          "postalcode": "09224",
          "city": "Chemnitz",
          "district": "Grüna"
        },
        "sources": [
          {
            "type": "osm",
            "id": "node/1163438095",
            "version": 0
          },
          {
            "type": "apple",
            "id": "4532290390044497799"
          },
          {
            "type": "gmaps",
            "id": "ChIJccK6eB44p0cR-mdltVTBDo8"
          }
        ],
        "created": "2026-05-20",
        "updated": "2026-08-10",
        "sources_by_field": {
          "name": "osm",
          "address.street": "osm",
          "address.number": "osm",
          "address.postalcode": "osm",
          "address.city": "osm",
          "address.district": "osm",
          "hours": "google"
        },
        "apple_attempted": "2026-08-10",
        "google_attempted": "2026-08-10",
        "hours": {
          "raw": "Tu 07:00-18:00; Th 07:00-18:00; Fr 07:00-18:00; We 07:00-18:00; Mo 07:00-18:00; Sa 08:00-12:00"
        },
        "payment": {}
      }
    },
    {
      "type": "Feature",
      "geometry": {
        "type": "Point",
        "coordinates": [
          12.9758032,
          50.7644119
        ]
      },
      "properties": {
        "id": "tk_c_osm_n1172840767",
        "name": "Gutsquelle",
        "address": {
          "street": "Einsiedler Hauptstraße",
          "number": "135a",
          "postalcode": "09123",
          "city": "Chemnitz"
        },
        "sources": [
          {
            "type": "osm",
            "id": "node/1172840767",
            "version": 0
          },
          {
            "type": "gmaps",
            "id": "ChIJIS9M4AtPp0cRc85l4EtE_O0"
          }
        ],
        "created": "2026-05-20",
        "updated": "2026-08-10",
        "sources_by_field": {
          "name": "osm",
          "address.street": "osm",
          "address.number": "osm",
          "address.postalcode": "osm",
          "address.city": "osm",
          "hours": "google",
          "payment.cards": "google"
        },
        "apple_id_attempted": "2026-08-10",
        "google_attempted": "2026-06-21",
        "hours": {
          "raw": "Tu 08:30-18:30; Th 08:30-18:30; Fr 08:30-18:30; We 08:30-18:30; Mo 08:30-18:30; Sa 08:00-12:00"
        },
        "payment": {
          "cards": "yes",
          "contactless": "yes",
          "girocard": "yes"
        }
      }
    },
    {
      "type": "Feature",
      "geometry": {
        "type": "Point",
        "coordinates": [
          12.8699178,
          50.907472
        ]
      },
      "properties": {
        "id": "tk_c_osm_n12471854100",
        "name": "Natur pur - Mosterei Schirmer",
        "address": {
          "street": "Gasse",
          "number": "8a",
          "postalcode": "09249",
          "city": "Taura",
          "district": "Köthensdorf"
        },
        "sources": [
          {
            "type": "osm",
            "id": "node/12471854100",
            "version": 0
          },
          {
            "type": "gmaps",
            "id": "ChIJdwNbyl8_p0cR0qyQJvVpEoQ"
          }
        ],
        "created": "2026-05-20",
        "updated": "2026-08-10",
        "sources_by_field": {
          "name": "osm",
          "address.street": "osm",
          "address.number": "osm",
          "address.postalcode": "osm",
          "address.city": "osm",
          "address.district": "osm",
          "hours": "google"
        },
        "apple_id_attempted": "2026-08-10",
        "google_attempted": "2026-08-10",
        "hours": {
          "raw": "Tu 10:00-12:00,16:00-18:00; Th 10:00-12:00,16:00-18:00; Fr 10:00-12:00,16:00-18:00; We 10:00-12:00,16:00-18:00; Mo 10:00-12:00,16:00-18:00; Sa 10:00-12:00"
        },
        "payment": {}
      }
    },
    {
      "type": "Feature",
      "geometry": {
        "type": "Point",
        "coordinates": [
          13.0760389,
          50.8563119
        ]
      },
      "properties": {
        "id": "tk_c_osm_n13023077191",
        "name": "Alte Post Flöha",
        "address": {
          "street": "Bahnhofstraße",
          "number": "4",
          "postalcode": "09557",
          "city": "Flöha"
        },
        "sources": [
          {
            "type": "osm",
            "id": "node/13023077191",
            "version": 0
          },
          {
            "type": "apple",
            "id": "8964736141517228750"
          }
        ],
        "created": "2026-05-20",
        "updated": "2026-08-10",
        "hours": {
          "raw": "Mo-Fr 08:00-18:00; Sa 08:00-12:00 open \"Post + Café\", 12:00-18:00 open \"Café\"; Su 12:00-18:00 open \"Café\"; PH off"
        },
        "payment": {
          "cash": "yes",
          "cards": "yes",
          "contactless": "unknown",
          "girocard": "unknown"
        },
        "tags": [
          "draussen",
          "sitzgelegenheiten"
        ],
        "sources_by_field": {
          "name": "osm",
          "hours": "osm",
          "payment.cash": "osm",
          "payment.cards": "osm",
          "payment.contactless": "osm",
          "payment.girocard": "osm"
        }
      }
    },
    {
      "type": "Feature",
      "geometry": {
        "type": "Point",
        "coordinates": [
          12.8474255,
          50.7010887
        ]
      },
      "properties": {
        "id": "tk_c_osm_n13088924897",
        "name": "Bier Herrmann",
        "address": {
          "street": "Schulstraße",
          "number": "12"
        },
        "sources": [
          {
            "type": "osm",
            "id": "node/13088924897",
            "version": 0
          },
          {
            "type": "gmaps",
            "id": "ChIJf6BxP8hLp0cRJe9Z0mJ5gV8"
          }
        ],
        "created": "2026-06-29",
        "updated": "2026-08-10",
        "sources_by_field": {
          "name": "osm",
          "address.street": "osm",
          "address.number": "osm",
          "hours": "google",
          "payment.cards": "google"
        },
        "apple_id_attempted": "2026-08-10",
        "google_attempted": "2026-08-10",
        "hours": {
          "raw": "Tu 10:30-18:00; Th 10:30-18:00; Fr 10:30-18:00; We 10:30-14:00; Mo 10:30-18:00; Sa 09:00-12:00"
        },
        "payment": {
          "cards": "yes"
        }
      }
    },
    {
      "type": "Feature",
      "geometry": {
        "type": "Point",
        "coordinates": [
          13.036848,
          50.759261
        ]
      },
      "properties": {
        "id": "tk_c_osm_n13324666915",
        "name": "Blütenmeer und Trinkoase",
        "address": {
          "street": "Chemnitzer Straße",
          "number": "28",
          "postalcode": "09405",
          "city": "Gornau"
        },
        "sources": [
          {
            "type": "osm",
            "id": "node/13324666915",
            "version": 0
          },
          {
            "type": "gmaps",
            "id": "payment"
          },
          {
            "type": "apple",
            "id": "14636273369054532941"
          }
        ],
        "created": "2026-05-20",
        "updated": "2026-08-10",
        "hours": {
          "raw": "Mo-Fr 08:30-17:30; Sa 08:00-12:00"
        },
        "sources_by_field": {
          "name": "osm",
          "address.street": "osm",
          "address.number": "osm",
          "address.postalcode": "osm",
          "address.city": "osm",
          "hours": "osm"
        },
        "payment": {
          "cards": "no",
          "contactless": "yes",
          "girocard": "yes"
        }
      }
    },
    {
      "type": "Feature",
      "geometry": {
        "type": "Point",
        "coordinates": [
          12.8474334,
          50.7010858
        ]
      },
      "properties": {
        "id": "tk_c_osm_n2124616145",
        "name": "Bier Hermann",
        "address": {
          "street": "Schulstraße",
          "number": "12",
          "postalcode": "09380",
          "city": "Thalheim/Erzgebirge"
        },
        "sources": [
          {
            "type": "osm",
            "id": "node/2124616145",
            "version": 0
          },
          {
            "type": "gmaps",
            "id": "ChIJf6BxP8hLp0cRJe9Z0mJ5gV8"
          }
        ],
        "created": "2026-05-20",
        "updated": "2026-08-10",
        "sources_by_field": {
          "name": "osm",
          "hours": "google"
        },
        "apple_id_attempted": "2026-08-10",
        "google_attempted": "2026-06-21",
        "hours": {
          "raw": "Tu 10:30-19:00; Th 10:30-19:00; Fr 10:30-19:00; We 10:30-19:00; Mo 10:30-19:00; Sa 09:00-13:00"
        },
        "payment": {
          "cards": "yes"
        }
      }
    },
    {
      "type": "Feature",
      "geometry": {
        "type": "Point",
        "coordinates": [
          13.0225177,
          50.9072459
        ]
      },
      "properties": {
        "id": "tk_c_osm_n2394880934",
        "name": "Sachsenland Trinkparadies",
        "address": {
          "street": "Äußere Chemnitzer Straße",
          "number": "12",
          "postalcode": "09669",
          "city": "Frankenberg/Sa."
        },
        "sources": [
          {
            "type": "osm",
            "id": "node/2394880934",
            "version": 0
          },
          {
            "type": "gmaps",
            "id": "ChIJ5aSi9Z9Tp0cRTKoNp7walL4"
          }
        ],
        "created": "2026-05-20",
        "updated": "2026-08-10",
        "tags": [
          "barrierefrei"
        ],
        "sources_by_field": {
          "name": "osm",
          "address.street": "osm",
          "address.number": "osm",
          "address.postalcode": "osm",
          "address.city": "osm",
          "hours": "google",
          "payment.cards": "google"
        },
        "apple_id_attempted": "2026-08-10",
        "google_attempted": "2026-06-21",
        "hours": {
          "raw": "Tu 08:00-19:00; Th 08:00-19:00; Fr 08:00-19:00; We 08:00-19:00; Mo 08:00-19:00; Sa 08:00-16:00"
        },
        "payment": {
          "cards": "yes",
          "contactless": "yes",
          "girocard": "yes"
        }
      }
    },
    {
      "type": "Feature",
      "geometry": {
        "type": "Point",
        "coordinates": [
          12.9405765,
          50.8455568
        ]
      },
      "properties": {
        "id": "tk_c_osm_n2434289572",
        "name": "GetränkeWelt",
        "address": {
          "street": "Gellertstraße",
          "number": "3",
          "postalcode": "09130",
          "city": "Chemnitz"
        },
        "sources": [
          {
            "type": "osm",
            "id": "node/2434289572",
            "version": 0
          },
          {
            "type": "gmaps",
            "id": "payment"
          }
        ],
        "created": "2026-05-20",
        "updated": "2026-06-15",
        "hours": {
          "raw": "Mo-Fr 08:00-19:00; Sa 08:00-17:00; Su,PH off"
        },
        "tags": [
          "barrierefrei"
        ],
        "sources_by_field": {
          "name": "osm",
          "address.street": "osm",
          "address.number": "osm",
          "address.postalcode": "osm",
          "address.city": "osm",
          "hours": "osm"
        },
        "apple_id_attempted": "2026-08-10",
        "payment": {
          "cards": "no",
          "contactless": "yes",
          "girocard": "yes"
        }
      }
    },
    {
      "type": "Feature",
      "geometry": {
        "type": "Point",
        "coordinates": [
          12.9401902,
          50.8432254
        ]
      },
      "properties": {
        "id": "tk_c_osm_n2439717881",
        "name": "Seidel Getränke-Boutique",
        "address": {
          "street": "Palmstraße",
          "number": "17",
          "postalcode": "09130",
          "city": "Chemnitz"
        },
        "sources": [
          {
            "type": "osm",
            "id": "node/2439717881",
            "version": 0
          },
          {
            "type": "gmaps",
            "id": "ChIJB3lVyI5Gp0cRg5C8tFaUap0"
          }
        ],
        "created": "2026-05-20",
        "updated": "2026-08-10",
        "sources_by_field": {
          "name": "osm",
          "address.street": "osm",
          "address.number": "osm",
          "address.postalcode": "osm",
          "address.city": "osm"
        },
        "apple_id_attempted": "2026-08-10",
        "google_attempted": "2026-08-10",
        "payment": {}
      }
    },
    {
      "type": "Feature",
      "geometry": {
        "type": "Point",
        "coordinates": [
          12.8674434,
          50.777801
        ]
      },
      "properties": {
        "id": "tk_c_osm_n297812084",
        "name": "Getränkewelt",
        "address": {
          "street": "Am Marktplatz",
          "number": "2-4",
          "postalcode": "09221",
          "city": "Neukirchen/Erzgebirge",
          "district": "Neukirchen"
        },
        "sources": [
          {
            "type": "osm",
            "id": "node/297812084",
            "version": 0
          },
          {
            "type": "gmaps",
            "id": "payment"
          }
        ],
        "created": "2026-05-20",
        "updated": "2026-08-10",
        "hours": {
          "raw": "Mo-Fr 08:00-19:00; Sa 08:00-13:00"
        },
        "tags": [
          "barrierefrei"
        ],
        "sources_by_field": {
          "name": "osm",
          "hours": "osm"
        },
        "apple_id_attempted": "2026-08-10",
        "payment": {
          "cards": "no",
          "contactless": "yes",
          "girocard": "yes"
        }
      }
    },
    {
      "type": "Feature",
      "geometry": {
        "type": "Point",
        "coordinates": [
          12.782944,
          50.7163559
        ]
      },
      "properties": {
        "id": "tk_c_osm_n312069889",
        "name": "JET",
        "address": {
          "street": "Zu den Teichen",
          "number": "2",
          "postalcode": "09366",
          "city": "Stollberg",
          "district": "Hoheneck"
        },
        "sources": [
          {
            "type": "osm",
            "id": "node/312069889",
            "version": 0
          },
          {
            "type": "gmaps",
            "id": "payment"
          }
        ],
        "created": "2026-05-20",
        "updated": "2026-08-10",
        "hours": {
          "raw": "Mo-Fr 05:00-22:00; Sa 06:00-22:00; Su 07:00-22:00"
        },
        "tags": [
          "barrierefrei"
        ],
        "sources_by_field": {
          "name": "osm",
          "hours": "osm"
        },
        "apple_id_attempted": "2026-08-10",
        "payment": {
          "cards": "no",
          "contactless": "yes",
          "girocard": "yes"
        }
      }
    },
    {
      "type": "Feature",
      "geometry": {
        "type": "Point",
        "coordinates": [
          12.750442,
          50.8694591
        ]
      },
      "properties": {
        "id": "tk_c_osm_n371580790",
        "name": "Getränke Donat",
        "address": {
          "street": "Limbacher Straße",
          "number": "81a",
          "postalcode": "09243",
          "city": "Niederfrohna"
        },
        "sources": [
          {
            "type": "osm",
            "id": "node/371580790",
            "version": 0
          },
          {
            "type": "gmaps",
            "id": "payment"
          }
        ],
        "created": "2026-05-20",
        "updated": "2026-08-10",
        "hours": {
          "raw": "Mo-Fr 09:00-18:00; Sa 09:00-12:30"
        },
        "sources_by_field": {
          "name": "osm",
          "address.street": "osm",
          "address.number": "osm",
          "address.postalcode": "osm",
          "address.city": "osm",
          "hours": "osm"
        },
        "apple_id_attempted": "2026-08-10",
        "payment": {
          "cards": "no",
          "contactless": "yes",
          "girocard": "yes"
        }
      }
    },
    {
      "type": "Feature",
      "geometry": {
        "type": "Point",
        "coordinates": [
          13.0750245,
          50.8459777
        ]
      },
      "properties": {
        "id": "tk_c_osm_n3817980453",
        "name": "heiloo Gentränkemarkt",
        "address": {
          "street": "Bergstraße",
          "number": "16a",
          "postalcode": "09557",
          "city": "Flöha",
          "district": "Plaue"
        },
        "sources": [
          {
            "type": "osm",
            "id": "node/3817980453",
            "version": 0
          },
          {
            "type": "gmaps",
            "id": "payment"
          }
        ],
        "created": "2026-05-20",
        "updated": "2026-08-10",
        "hours": {
          "raw": "Mo-Fr 08:00-18:00; Sa 08:00-12:00"
        },
        "tags": [
          "barrierefrei"
        ],
        "sources_by_field": {
          "name": "osm",
          "hours": "osm"
        },
        "apple_id_attempted": "2026-08-10",
        "payment": {
          "cards": "no",
          "contactless": "yes",
          "girocard": "yes"
        }
      }
    },
    {
      "type": "Feature",
      "geometry": {
        "type": "Point",
        "coordinates": [
          12.9300844,
          50.8548592
        ]
      },
      "properties": {
        "id": "tk_c_osm_n388565563",
        "name": "Netto Getränke-Discount",
        "address": {
          "street": "Blankenauer Straße",
          "number": "60",
          "postalcode": "09113",
          "city": "Chemnitz"
        },
        "sources": [
          {
            "type": "osm",
            "id": "node/388565563",
            "version": 0
          },
          {
            "type": "gmaps",
            "id": "ChIJGU6dWwBHp0cRYMoR641GHZo"
          }
        ],
        "created": "2026-05-20",
        "updated": "2026-06-21",
        "sources_by_field": {
          "name": "osm",
          "address.street": "osm",
          "address.number": "osm",
          "address.postalcode": "osm",
          "address.city": "osm",
          "hours": "google"
        },
        "apple_id_attempted": "2026-08-10",
        "google_attempted": "2026-06-21",
        "payment": {
          "cards": "yes"
        },
        "hours": {
          "raw": "Tu 08:00-20:00; Th 08:00-20:00; Fr 08:00-20:00; We 08:00-20:00; Mo 08:00-20:00; Sa 08:00-20:00"
        }
      }
    },
    {
      "type": "Feature",
      "geometry": {
        "type": "Point",
        "coordinates": [
          12.7682985,
          50.712157
        ]
      },
      "properties": {
        "id": "tk_c_osm_n3985733403",
        "name": "Getränkewelt",
        "address": {
          "street": "Hohensteiner Straße",
          "number": "56",
          "postalcode": "09366",
          "city": "Stollberg",
          "district": "Hoheneck"
        },
        "sources": [
          {
            "type": "osm",
            "id": "node/3985733403",
            "version": 0
          },
          {
            "type": "gmaps",
            "id": "ChIJX2waku01p0cRb7JyRkjSPJo"
          }
        ],
        "created": "2026-05-20",
        "updated": "2026-08-10",
        "sources_by_field": {
          "name": "osm",
          "payment.cards": "google",
          "hours": "google"
        },
        "apple_id_attempted": "2026-08-10",
        "google_attempted": "2026-08-10",
        "payment": {
          "cards": "yes",
          "contactless": "yes",
          "girocard": "yes"
        },
        "hours": {
          "raw": "Tu 08:00-18:00; Th 08:00-18:00; Fr 08:00-18:00; We 08:00-18:00; Mo 08:00-18:00; Sa 08:00-15:00"
        }
      }
    },
    {
      "type": "Feature",
      "geometry": {
        "type": "Point",
        "coordinates": [
          12.9660213,
          50.8703337
        ]
      },
      "properties": {
        "id": "tk_c_osm_n4828203869",
        "name": "Getränkewelt",
        "address": {
          "street": "Frankenberger Straße",
          "number": "276a",
          "postalcode": "09131",
          "city": "Chemnitz"
        },
        "sources": [
          {
            "type": "osm",
            "id": "node/4828203869",
            "version": 0
          },
          {
            "type": "gmaps",
            "id": "ChIJpTbfMKlGp0cR3G3LJ-auX3k"
          }
        ],
        "created": "2026-05-20",
        "updated": "2026-06-21",
        "sources_by_field": {
          "name": "osm",
          "address.street": "osm",
          "address.number": "osm",
          "address.postalcode": "osm",
          "address.city": "osm",
          "payment.cards": "google",
          "hours": "google"
        },
        "apple_id_attempted": "2026-08-10",
        "google_attempted": "2026-06-21",
        "payment": {
          "cards": "yes",
          "contactless": "yes",
          "girocard": "yes"
        },
        "hours": {
          "raw": "Tu 08:00-18:00; Th 08:00-18:00; Fr 08:00-18:00; We 08:00-18:00; Mo 08:00-18:00; Sa 08:00-14:00"
        }
      }
    },
    {
      "type": "Feature",
      "geometry": {
        "type": "Point",
        "coordinates": [
          12.9181705,
          50.8316505
        ]
      },
      "properties": {
        "id": "tk_c_osm_n4998669570",
        "name": "Treffpunkt",
        "address": {
          "street": "Rosenhof",
          "number": "11",
          "postalcode": "09111",
          "city": "Chemnitz",
          "district": "Zentrum"
        },
        "sources": [
          {
            "type": "osm",
            "id": "node/4998669570",
            "version": 0
          },
          {
            "type": "gmaps",
            "id": "ChIJaYYcglxGp0cRa134ReTM0i4"
          }
        ],
        "created": "2026-05-20",
        "updated": "2026-08-10",
        "sources_by_field": {
          "name": "osm"
        },
        "apple_id_attempted": "2026-08-10",
        "google_attempted": "2026-08-10",
        "payment": {}
      }
    },
    {
      "type": "Feature",
      "geometry": {
        "type": "Point",
        "coordinates": [
          12.9192749,
          50.8642542
        ]
      },
      "properties": {
        "id": "tk_c_osm_n5004916035",
        "name": "Pause",
        "address": {
          "street": "Chemnitztalstraße",
          "number": "107",
          "postalcode": "09114",
          "city": "Chemnitz"
        },
        "sources": [
          {
            "type": "osm",
            "id": "node/5004916035",
            "version": 0
          },
          {
            "type": "gmaps",
            "id": "ChIJ1xYAJdxGp0cRhi-YFAR80U8"
          }
        ],
        "created": "2026-05-20",
        "updated": "2026-08-10",
        "sources_by_field": {
          "name": "osm",
          "address.street": "osm",
          "address.number": "osm",
          "address.postalcode": "osm",
          "address.city": "osm",
          "hours": "google"
        },
        "apple_id_attempted": "2026-08-10",
        "google_attempted": "2026-06-21",
        "hours": {
          "raw": "Tu 08:00-18:00; Th 08:00-18:00; Fr 08:00-18:00; We 08:00-18:00; Mo 08:00-18:00; Sa 08:00-12:00"
        },
        "payment": {
          "cards": "no",
          "contactless": "yes",
          "girocard": "yes"
        }
      }
    },
    {
      "type": "Feature",
      "geometry": {
        "type": "Point",
        "coordinates": [
          12.8670665,
          50.8193562
        ]
      },
      "properties": {
        "id": "tk_c_osm_n5660874228",
        "name": "Oase Diana Getränkeladen, Post + Lotto",
        "address": {
          "postalcode": "09116",
          "street": "Zwickauer Straße",
          "number": "300",
          "city": "Chemnitz",
          "district": "Schönau"
        },
        "sources": [
          {
            "type": "osm",
            "id": "node/5660874228",
            "version": 0
          },
          {
            "type": "gmaps",
            "id": "ChIJBV7aXsFHp0cReugLAwRIen4"
          }
        ],
        "created": "2026-05-20",
        "updated": "2026-08-10",
        "hours": {
          "raw": "Mo-Sa 09:00-18:30"
        },
        "sources_by_field": {
          "name": "osm",
          "address.postalcode": "osm",
          "hours": "osm"
        },
        "apple_id_attempted": "2026-08-10",
        "google_attempted": "2026-08-10",
        "payment": {}
      }
    },
    {
      "type": "Feature",
      "geometry": {
        "type": "Point",
        "coordinates": [
          12.7510907,
          50.7214666
        ]
      },
      "properties": {
        "id": "tk_c_osm_n5895830685",
        "name": "Getränkewelt",
        "address": {
          "street": "Feldgasse",
          "number": "3",
          "postalcode": "09399",
          "city": "Niederwürschnitz"
        },
        "sources": [
          {
            "type": "osm",
            "id": "node/5895830685",
            "version": 0
          },
          {
            "type": "gmaps",
            "id": "payment"
          }
        ],
        "created": "2026-05-20",
        "updated": "2026-08-10",
        "hours": {
          "raw": "Mo-Fr 08:00-19:00; Sa 08:00-13:00; PH off"
        },
        "sources_by_field": {
          "name": "osm",
          "address.street": "osm",
          "address.number": "osm",
          "address.postalcode": "osm",
          "address.city": "osm",
          "hours": "osm"
        },
        "apple_id_attempted": "2026-08-10",
        "payment": {
          "cards": "no",
          "contactless": "yes",
          "girocard": "yes"
        }
      }
    },
    {
      "type": "Feature",
      "geometry": {
        "type": "Point",
        "coordinates": [
          12.7743873,
          50.7028724
        ]
      },
      "properties": {
        "id": "tk_c_osm_n6261332633",
        "name": "Saft Max",
        "address": {
          "street": "Hartensteiner Straße",
          "number": "5",
          "postalcode": "09366",
          "city": "Stollberg/Erzgebirge"
        },
        "sources": [
          {
            "type": "osm",
            "id": "node/6261332633",
            "version": 0
          },
          {
            "type": "gmaps",
            "id": "payment"
          }
        ],
        "created": "2026-05-20",
        "updated": "2026-08-10",
        "hours": {
          "raw": "Mo-Sa 08:00-12:00, Mo-Fr 13:00-17:00"
        },
        "sources_by_field": {
          "name": "osm",
          "address.street": "osm",
          "address.number": "osm",
          "address.postalcode": "osm",
          "address.city": "osm",
          "hours": "osm"
        },
        "apple_id_attempted": "2026-08-10",
        "payment": {
          "cards": "yes",
          "girocard": "yes"
        }
      }
    },
    {
      "type": "Feature",
      "geometry": {
        "type": "Point",
        "coordinates": [
          12.8850909,
          50.7171154
        ]
      },
      "properties": {
        "id": "tk_c_osm_n7552473239",
        "name": "Singer´s Getränkeshop",
        "address": {
          "street": "Meinersdorfer Straße",
          "number": "3",
          "postalcode": "09390",
          "city": "Gornsdorf"
        },
        "sources": [
          {
            "type": "osm",
            "id": "node/7552473239",
            "version": 0
          },
          {
            "type": "gmaps",
            "id": "payment"
          }
        ],
        "created": "2026-05-20",
        "updated": "2026-08-10",
        "hours": {
          "raw": "Mo-Fr 08:30-18:00; Sa 08:30-12:00; Su,PH off"
        },
        "tags": [
          "barrierefrei"
        ],
        "sources_by_field": {
          "name": "osm",
          "address.street": "osm",
          "address.number": "osm",
          "address.postalcode": "osm",
          "address.city": "osm",
          "hours": "osm"
        },
        "apple_id_attempted": "2026-08-10",
        "payment": {
          "cards": "no",
          "contactless": "yes",
          "girocard": "yes"
        }
      }
    },
    {
      "type": "Feature",
      "geometry": {
        "type": "Point",
        "coordinates": [
          12.8647795,
          50.8797154
        ]
      },
      "properties": {
        "id": "tk_c_osm_n7556408741",
        "name": "Annett's Getränkecenter",
        "address": {
          "street": "Obere Hauptstraße",
          "number": "21",
          "postalcode": "09228",
          "city": "Chemnitz",
          "district": "Wittgensdorf"
        },
        "sources": [
          {
            "type": "osm",
            "id": "node/7556408741",
            "version": 0
          },
          {
            "type": "gmaps",
            "id": "payment"
          }
        ],
        "created": "2026-05-20",
        "updated": "2026-08-10",
        "hours": {
          "raw": "Mo-Th 10:00-18:00; Fr 09:00-18:00; Sa 09:00-12:30; Su,PH off"
        },
        "tags": [
          "barrierefrei"
        ],
        "sources_by_field": {
          "name": "osm",
          "address.street": "osm",
          "address.number": "osm",
          "address.postalcode": "osm",
          "address.city": "osm",
          "address.district": "osm",
          "hours": "osm"
        },
        "apple_id_attempted": "2026-08-10",
        "payment": {
          "cards": "no",
          "contactless": "yes",
          "girocard": "yes"
        }
      }
    },
    {
      "type": "Feature",
      "geometry": {
        "type": "Point",
        "coordinates": [
          12.8120174,
          50.9156148
        ]
      },
      "properties": {
        "id": "tk_c_osm_n8429287153",
        "name": "DB Agentur",
        "address": {
          "street": "Bahnhofstraße",
          "number": "1",
          "postalcode": "09217",
          "city": "Burgstädt",
          "district": "Burkersdorf"
        },
        "sources": [
          {
            "type": "osm",
            "id": "node/8429287153",
            "version": 0
          },
          {
            "type": "gmaps",
            "id": "ChIJhR8pG94-p0cRgNfVFm3zIdo"
          }
        ],
        "created": "2026-05-20",
        "updated": "2026-08-10",
        "sources_by_field": {
          "name": "osm",
          "hours": "google"
        },
        "apple_id_attempted": "2026-08-10",
        "google_attempted": "2026-06-21",
        "hours": {
          "raw": "Tu 08:00-17:00; Th 08:00-17:00; Fr 08:00-17:00; We 08:00-12:30; Mo 08:00-17:00"
        },
        "payment": {
          "cards": "yes"
        }
      }
    },
    {
      "type": "Feature",
      "geometry": {
        "type": "Point",
        "coordinates": [
          12.8545689,
          50.7935449
        ]
      },
      "properties": {
        "id": "tk_c_osm_n9766058212",
        "name": "Apfelsaft Stübl",
        "address": {
          "street": "Schönauer Straße",
          "number": "51a",
          "postalcode": "09221",
          "city": "Neukirchen/Erzgebirge"
        },
        "sources": [
          {
            "type": "osm",
            "id": "node/9766058212",
            "version": 0
          },
          {
            "type": "gmaps",
            "id": "ChIJo06YgKxJp0cRjYvVAXDs0Y0"
          }
        ],
        "created": "2026-05-20",
        "updated": "2026-08-10",
        "sources_by_field": {
          "name": "osm",
          "address.street": "osm",
          "address.number": "osm",
          "address.postalcode": "osm",
          "address.city": "osm"
        },
        "apple_id_attempted": "2026-08-10",
        "google_attempted": "2026-08-10",
        "payment": {}
      }
    },
    {
      "type": "Feature",
      "geometry": {
        "type": "Point",
        "coordinates": [
          12.7986138,
          50.8214956
        ]
      },
      "properties": {
        "id": "tk_c_osm_w1075536946",
        "name": "Wanderkiosk Forsthaus Grüna",
        "address": {
          "street": "Rabensteiner Straße",
          "number": "17",
          "postalcode": "09224",
          "city": "Chemnitz",
          "district": "Grüna"
        },
        "sources": [
          {
            "type": "osm",
            "id": "way/1075536946",
            "version": 0
          },
          {
            "type": "gmaps",
            "id": "ChIJA3qSNiM4p0cRSp6ta0iJARA"
          }
        ],
        "created": "2026-05-20",
        "updated": "2026-08-10",
        "hours": {
          "raw": "Tu-Sa 11:00-22:00; Su,PH 11:00-17:00"
        },
        "sources_by_field": {
          "name": "osm",
          "hours": "osm"
        },
        "apple_id_attempted": "2026-08-10",
        "google_attempted": "2026-08-10",
        "payment": {}
      }
    },
    {
      "type": "Feature",
      "geometry": {
        "type": "Point",
        "coordinates": [
          12.8750341,
          50.7617848
        ]
      },
      "properties": {
        "id": "tk_c_osm_w111531440",
        "name": "Getränke-Hofmann",
        "address": {
          "street": "Adorfer Hauptstraße",
          "number": "22",
          "postalcode": "09221",
          "city": "Neukirchen/Erzgebirge",
          "district": "Adorf"
        },
        "sources": [
          {
            "type": "osm",
            "id": "way/111531440",
            "version": 0
          },
          {
            "type": "gmaps",
            "id": "payment"
          }
        ],
        "created": "2026-05-20",
        "updated": "2026-06-15",
        "hours": {
          "raw": "Mo-Fr 08:00-19:00; Sa 08:00-13:00; Su,PH off"
        },
        "tags": [
          "barrierefrei"
        ],
        "sources_by_field": {
          "name": "osm",
          "address.street": "osm",
          "address.number": "osm",
          "address.postalcode": "osm",
          "address.city": "osm",
          "address.district": "osm",
          "hours": "osm"
        },
        "apple_id_attempted": "2026-08-10",
        "payment": {
          "cards": "no",
          "contactless": "yes",
          "girocard": "yes"
        }
      }
    },
    {
      "type": "Feature",
      "geometry": {
        "type": "Point",
        "coordinates": [
          12.7939555,
          50.797413
        ]
      },
      "properties": {
        "id": "tk_c_osm_w122380430",
        "name": "Weinhandlung Bariqe",
        "address": {
          "street": "Hofer Straße",
          "number": "78",
          "postalcode": "09224",
          "city": "Chemnitz",
          "district": "Mittelbach"
        },
        "sources": [
          {
            "type": "osm",
            "id": "way/122380430",
            "version": 0
          },
          {
            "type": "gmaps",
            "id": "ChIJuTFBxuw3p0cRKHix_byUDO4"
          }
        ],
        "created": "2026-05-20",
        "updated": "2026-08-10",
        "sources_by_field": {
          "name": "osm",
          "address.street": "osm",
          "address.number": "osm",
          "address.postalcode": "osm",
          "address.city": "osm",
          "address.district": "osm"
        },
        "apple_id_attempted": "2026-08-10",
        "google_attempted": "2026-08-10",
        "payment": {}
      }
    },
    {
      "type": "Feature",
      "geometry": {
        "type": "Point",
        "coordinates": [
          12.9430626,
          50.8424728
        ]
      },
      "properties": {
        "id": "tk_c_osm_w185193931",
        "name": "Kiosk-Heidelberg",
        "address": {
          "street": "Zietenstraße",
          "number": "111",
          "postalcode": "09130",
          "city": "Chemnitz"
        },
        "sources": [
          {
            "type": "osm",
            "id": "way/185193931",
            "version": 0
          },
          {
            "type": "gmaps",
            "id": "ChIJnUB4NY9Gp0cReQrEEkwZj5Y"
          }
        ],
        "created": "2026-05-20",
        "updated": "2026-08-10",
        "sources_by_field": {
          "name": "osm",
          "address.street": "osm",
          "address.number": "osm",
          "address.postalcode": "osm",
          "address.city": "osm"
        },
        "apple_id_attempted": "2026-08-10",
        "google_attempted": "2026-08-10",
        "payment": {}
      }
    },
    {
      "type": "Feature",
      "geometry": {
        "type": "Point",
        "coordinates": [
          12.903155,
          50.7906997
        ]
      },
      "properties": {
        "id": "tk_c_osm_w82073211",
        "name": "Getränkewelt",
        "address": {
          "street": "Arno-Schreiter-Straße",
          "number": "5",
          "postalcode": "09123",
          "city": "Chemnitz"
        },
        "sources": [
          {
            "type": "osm",
            "id": "way/82073211",
            "version": 0
          },
          {
            "type": "gmaps",
            "id": "payment"
          }
        ],
        "created": "2026-05-20",
        "updated": "2026-06-15",
        "hours": {
          "raw": "Mo-Fr 08:00-20:00; Sa 08:00-18:30"
        },
        "tags": [
          "barrierefrei"
        ],
        "sources_by_field": {
          "name": "osm",
          "address.street": "osm",
          "address.number": "osm",
          "address.postalcode": "osm",
          "address.city": "osm",
          "hours": "osm"
        },
        "apple_id_attempted": "2026-08-10",
        "payment": {
          "cards": "yes",
          "contactless": "yes",
          "girocard": "yes"
        }
      }
    },
    {
      "type": "Feature",
      "geometry": {
        "type": "Point",
        "coordinates": [
          12.9251542,
          50.7786808
        ]
      },
      "properties": {
        "id": "tk_c_osm_n1263068929",
        "name": "Markgrafen Getränkehandel",
        "address": {},
        "sources": [
          {
            "type": "osm",
            "id": "node/1263068929",
            "version": 0
          }
        ],
        "created": "2026-05-20",
        "updated": "2026-08-10",
        "sources_by_field": {
          "name": "osm"
        },
        "apple_id_attempted": "2026-08-10",
        "google_attempted": "2026-08-10",
        "payment": {}
      }
    },
    {
      "type": "Feature",
      "geometry": {
        "type": "Point",
        "coordinates": [
          12.8076856,
          50.8048641
        ]
      },
      "properties": {
        "id": "tk_c_osm_n1367639938",
        "name": "Billgro Getränke",
        "address": {
          "street": "Hofer Straße",
          "number": "5g",
          "postalcode": "09224",
          "city": "Chemnitz"
        },
        "sources": [
          {
            "type": "osm",
            "id": "node/1367639938",
            "version": 0
          }
        ],
        "created": "2026-05-20",
        "updated": "2026-08-10",
        "hours": {
          "raw": "Mo-Fr 09:00-18:00, Sa 08:30-12:00"
        },
        "sources_by_field": {
          "name": "osm",
          "address.street": "osm",
          "address.number": "osm",
          "address.postalcode": "osm",
          "address.city": "osm",
          "hours": "osm"
        },
        "apple_id_attempted": "2026-08-10",
        "google_attempted": "2026-08-10",
        "payment": {}
      }
    },
    {
      "type": "Feature",
      "geometry": {
        "type": "Point",
        "coordinates": [
          12.8475677,
          50.7856048
        ]
      },
      "properties": {
        "id": "tk_c_osm_n1895155652",
        "name": "Getränkehandel",
        "address": {},
        "sources": [
          {
            "type": "osm",
            "id": "node/1895155652",
            "version": 0
          }
        ],
        "created": "2026-05-20",
        "updated": "2026-08-10",
        "sources_by_field": {
          "name": "osm"
        },
        "apple_id_attempted": "2026-08-10",
        "google_attempted": "2026-08-10",
        "payment": {}
      }
    },
    {
      "type": "Feature",
      "geometry": {
        "type": "Point",
        "coordinates": [
          12.7553983,
          50.7417798
        ]
      },
      "properties": {
        "id": "tk_c_osm_n2141777445",
        "name": "Badkiosk",
        "address": {},
        "sources": [
          {
            "type": "osm",
            "id": "node/2141777445",
            "version": 0
          }
        ],
        "created": "2026-05-20",
        "updated": "2026-08-10",
        "hours": {
          "raw": "PH,Mo-Su 11:30-17:30"
        },
        "sources_by_field": {
          "name": "osm",
          "hours": "osm"
        },
        "apple_id_attempted": "2026-08-10",
        "google_attempted": "2026-08-10",
        "payment": {}
      }
    },
    {
      "type": "Feature",
      "geometry": {
        "type": "Point",
        "coordinates": [
          12.9561868,
          50.8141078
        ]
      },
      "properties": {
        "id": "tk_c_osm_n2441148800",
        "name": "GetränkeWelt",
        "address": {
          "street": "Zschopauer Straße",
          "number": "279",
          "postalcode": "09126",
          "city": "Chemnitz"
        },
        "sources": [
          {
            "type": "osm",
            "id": "node/2441148800",
            "version": 0
          }
        ],
        "created": "2026-05-20",
        "updated": "2026-06-15",
        "hours": {
          "raw": "Mo-Fr 08:00-20:00; Sa 08:00-18:00"
        },
        "payment": {
          "cash": "unknown",
          "cards": "yes",
          "contactless": "unknown",
          "girocard": "unknown"
        },
        "tags": [
          "barrierefrei"
        ],
        "sources_by_field": {
          "name": "osm",
          "address.street": "osm",
          "address.number": "osm",
          "address.postalcode": "osm",
          "address.city": "osm",
          "hours": "osm",
          "payment.cash": "osm",
          "payment.cards": "osm",
          "payment.contactless": "osm",
          "payment.girocard": "osm"
        },
        "apple_id_attempted": "2026-08-10",
        "osm_removed": true
      }
    },
    {
      "type": "Feature",
      "geometry": {
        "type": "Point",
        "coordinates": [
          12.8800859,
          50.8224481
        ]
      },
      "properties": {
        "id": "tk_c_osm_n3480973574",
        "name": "Getränkeservice",
        "address": {
          "street": "Guerickestraße",
          "number": "6",
          "postalcode": "09116",
          "city": "Chemnitz"
        },
        "sources": [
          {
            "type": "osm",
            "id": "node/3480973574",
            "version": 0
          }
        ],
        "created": "2026-05-20",
        "updated": "2026-08-10",
        "hours": {
          "raw": "\"Offen ist, wenn das Rollo oben ist\""
        },
        "tags": [
          "barrierefrei"
        ],
        "sources_by_field": {
          "name": "osm",
          "address.street": "osm",
          "address.number": "osm",
          "address.postalcode": "osm",
          "address.city": "osm",
          "hours": "osm"
        },
        "apple_id_attempted": "2026-08-10",
        "google_attempted": "2026-06-25",
        "payment": {}
      }
    },
    {
      "type": "Feature",
      "geometry": {
        "type": "Point",
        "coordinates": [
          12.9574975,
          50.8327515
        ]
      },
      "properties": {
        "id": "tk_c_osm_n4138005801",
        "name": "LOTTO",
        "address": {},
        "sources": [
          {
            "type": "osm",
            "id": "node/4138005801",
            "version": 0
          }
        ],
        "created": "2026-05-20",
        "updated": "2026-08-10",
        "sources_by_field": {
          "name": "osm"
        },
        "apple_id_attempted": "2026-08-10",
        "google_attempted": "2026-06-25",
        "payment": {}
      }
    },
    {
      "type": "Feature",
      "geometry": {
        "type": "Point",
        "coordinates": [
          12.9704622,
          50.8270204
        ]
      },
      "properties": {
        "id": "tk_c_osm_n4715557116",
        "name": "Stonewood Braumanufaktur",
        "address": {},
        "sources": [
          {
            "type": "osm",
            "id": "node/4715557116",
            "version": 0
          }
        ],
        "created": "2026-05-20",
        "updated": "2026-08-10",
        "hours": {
          "raw": "Mo-Fr 09:00-17:00"
        },
        "sources_by_field": {
          "name": "osm",
          "hours": "osm"
        },
        "apple_id_attempted": "2026-08-10",
        "google_attempted": "2026-06-25",
        "payment": {}
      }
    },
    {
      "type": "Feature",
      "geometry": {
        "type": "Point",
        "coordinates": [
          12.8494257,
          50.7401109
        ]
      },
      "properties": {
        "id": "tk_c_osm_n493734919",
        "name": "Lotto",
        "address": {},
        "sources": [
          {
            "type": "osm",
            "id": "node/493734919",
            "version": 0
          }
        ],
        "created": "2026-05-20",
        "updated": "2026-08-10",
        "sources_by_field": {
          "name": "osm"
        },
        "apple_id_attempted": "2026-08-10",
        "google_attempted": "2026-06-25",
        "payment": {}
      }
    },
    {
      "type": "Feature",
      "geometry": {
        "type": "Point",
        "coordinates": [
          12.8264586,
          50.9350677
        ]
      },
      "properties": {
        "id": "tk_c_osm_n506541898",
        "name": "Katies Getränkeshop",
        "address": {
          "street": "Dorfstraße",
          "number": "44",
          "postalcode": "09217"
        },
        "sources": [
          {
            "type": "osm",
            "id": "node/506541898",
            "version": 0
          }
        ],
        "created": "2026-05-20",
        "updated": "2026-08-10",
        "sources_by_field": {
          "name": "osm",
          "address.street": "osm",
          "address.number": "osm",
          "address.postalcode": "osm"
        },
        "apple_id_attempted": "2026-08-10",
        "google_attempted": "2026-06-25",
        "payment": {}
      }
    },
    {
      "type": "Feature",
      "geometry": {
        "type": "Point",
        "coordinates": [
          12.9048434,
          50.7728015
        ]
      },
      "properties": {
        "id": "tk_c_osm_n5664204527",
        "name": "Sachsenland Trink Paradies",
        "address": {},
        "sources": [
          {
            "type": "osm",
            "id": "node/5664204527",
            "version": 0
          }
        ],
        "created": "2026-05-20",
        "updated": "2026-08-10",
        "hours": {
          "raw": "Mo-Fr 09:00-18:00; Sa 09:00-13:00"
        },
        "payment": {
          "cash": "unknown",
          "cards": "yes",
          "contactless": "unknown",
          "girocard": "unknown"
        },
        "tags": [
          "barrierefrei"
        ],
        "sources_by_field": {
          "name": "osm",
          "hours": "osm",
          "payment.cash": "osm",
          "payment.cards": "osm",
          "payment.contactless": "osm",
          "payment.girocard": "osm"
        },
        "apple_id_attempted": "2026-08-10"
      }
    },
    {
      "type": "Feature",
      "geometry": {
        "type": "Point",
        "coordinates": [
          12.9524175,
          50.9303982
        ]
      },
      "properties": {
        "id": "tk_c_osm_n5951116722",
        "name": "Getränkehandel Becker",
        "address": {},
        "sources": [
          {
            "type": "osm",
            "id": "node/5951116722",
            "version": 0
          }
        ],
        "created": "2026-05-20",
        "updated": "2026-08-10",
        "sources_by_field": {
          "name": "osm"
        },
        "apple_id_attempted": "2026-08-10",
        "google_attempted": "2026-06-25",
        "payment": {}
      }
    },
    {
      "type": "Feature",
      "geometry": {
        "type": "Point",
        "coordinates": [
          12.7894335,
          50.8851873
        ]
      },
      "properties": {
        "id": "tk_c_osm_n6262413330",
        "name": "Annett's Getränkecenter",
        "address": {
          "street": "Limbacher Straße",
          "number": "22B",
          "postalcode": "09232",
          "city": "Hartmannsdorf"
        },
        "sources": [
          {
            "type": "osm",
            "id": "node/6262413330",
            "version": 0
          }
        ],
        "created": "2026-05-20",
        "updated": "2026-08-10",
        "tags": [
          "barrierefrei"
        ],
        "sources_by_field": {
          "name": "osm",
          "address.street": "osm",
          "address.number": "osm",
          "address.postalcode": "osm",
          "address.city": "osm"
        },
        "apple_id_attempted": "2026-08-10",
        "google_attempted": "2026-06-25",
        "payment": {}
      }
    },
    {
      "type": "Feature",
      "geometry": {
        "type": "Point",
        "coordinates": [
          12.8967693,
          50.8449024
        ]
      },
      "properties": {
        "id": "tk_c_osm_n6958069049",
        "name": "Bier, Würstchen & Mehr...",
        "address": {},
        "sources": [
          {
            "type": "osm",
            "id": "node/6958069049",
            "version": 0
          }
        ],
        "created": "2026-05-20",
        "updated": "2026-08-10",
        "hours": {
          "raw": "\"Der Kisok gehört zum Fußballplatz und ist nur zu Spielen für die Zuschauer geöffnet.\""
        },
        "sources_by_field": {
          "name": "osm",
          "hours": "osm"
        },
        "apple_id_attempted": "2026-08-10",
        "google_attempted": "2026-06-25",
        "payment": {}
      }
    },
    {
      "type": "Feature",
      "geometry": {
        "type": "Point",
        "coordinates": [
          12.8151204,
          50.9186807
        ]
      },
      "properties": {
        "id": "tk_c_osm_n7896338832",
        "name": "k kiosk",
        "address": {},
        "sources": [
          {
            "type": "osm",
            "id": "node/7896338832",
            "version": 0
          }
        ],
        "created": "2026-05-20",
        "updated": "2026-08-10",
        "sources_by_field": {
          "name": "osm"
        },
        "apple_id_attempted": "2026-08-10",
        "google_attempted": "2026-06-25",
        "payment": {}
      }
    },
    {
      "type": "Feature",
      "geometry": {
        "type": "Point",
        "coordinates": [
          12.9406158,
          50.7008721
        ]
      },
      "properties": {
        "id": "tk_c_osm_n7976847146",
        "name": "bilgro",
        "address": {},
        "sources": [
          {
            "type": "osm",
            "id": "node/7976847146",
            "version": 0
          }
        ],
        "created": "2026-05-20",
        "updated": "2026-06-15",
        "sources_by_field": {
          "name": "osm"
        },
        "apple_id_attempted": "2026-08-10",
        "google_attempted": "2026-06-25",
        "payment": {},
        "osm_removed": true
      }
    },
    {
      "type": "Feature",
      "geometry": {
        "type": "Point",
        "coordinates": [
          13.0522598,
          50.9076124
        ]
      },
      "properties": {
        "id": "tk_c_osm_n8609305659",
        "name": "THEMIS Tabak- und Lottoshop",
        "address": {
          "street": "Gutenbergstraße",
          "number": "70"
        },
        "sources": [
          {
            "type": "osm",
            "id": "node/8609305659",
            "version": 0
          }
        ],
        "created": "2026-05-20",
        "updated": "2026-08-10",
        "hours": {
          "raw": "Mo-Fr 09:00-17:00; Sa 09:00-12:00; Su,PH off"
        },
        "payment": {
          "cash": "unknown",
          "cards": "yes",
          "contactless": "unknown",
          "girocard": "unknown"
        },
        "tags": [
          "barrierefrei"
        ],
        "sources_by_field": {
          "name": "osm",
          "address.street": "osm",
          "address.number": "osm",
          "hours": "osm",
          "payment.cash": "osm",
          "payment.cards": "osm",
          "payment.contactless": "osm",
          "payment.girocard": "osm"
        },
        "apple_id_attempted": "2026-08-10"
      }
    },
    {
      "type": "Feature",
      "geometry": {
        "type": "Point",
        "coordinates": [
          12.9189533,
          50.8363905
        ]
      },
      "properties": {
        "id": "tk_c_osm_w1154250507",
        "name": "Feuer Biss",
        "address": {
          "street": "Hartmannstraße",
          "number": "2",
          "postalcode": "09111",
          "city": "Chemnitz"
        },
        "sources": [
          {
            "type": "osm",
            "id": "way/1154250507",
            "version": 0
          },
          {
            "type": "apple",
            "id": "7895985618116075226"
          }
        ],
        "created": "2026-07-20",
        "updated": "2026-08-10",
        "hours": {
          "raw": "Su 00:00-01:30; Mo-Th,Su 11:00-22:00; Fr-Sa 11:00-24:00"
        },
        "sources_by_field": {
          "name": "osm",
          "address.street": "osm",
          "address.number": "osm",
          "address.postalcode": "osm",
          "address.city": "osm",
          "hours": "apple",
          "payment.cards": "apple",
          "payment.contactless": "apple"
        },
        "payment": {
          "cards": "yes",
          "contactless": "yes"
        },
        "apple_attempted": "2026-08-10"
      }
    },
    {
      "type": "Feature",
      "geometry": {
        "type": "Point",
        "coordinates": [
          12.9298907,
          50.8388891
        ]
      },
      "properties": {
        "id": "tk_c_osm_w1164374613",
        "name": "Point",
        "address": {},
        "sources": [
          {
            "type": "osm",
            "id": "way/1164374613",
            "version": 0
          }
        ],
        "created": "2026-05-20",
        "updated": "2026-08-10",
        "hours": {
          "raw": "Mo-Fr 06:00-20:00; Sa,Su 07:00-20:30"
        },
        "payment": {
          "cash": "yes",
          "cards": "yes",
          "contactless": "unknown",
          "girocard": "unknown"
        },
        "tags": [
          "barrierefrei",
          "sitzgelegenheiten"
        ],
        "sources_by_field": {
          "name": "osm",
          "hours": "osm",
          "payment.cash": "osm",
          "payment.cards": "osm",
          "payment.contactless": "osm",
          "payment.girocard": "osm"
        },
        "apple_id_attempted": "2026-08-10"
      }
    },
    {
      "type": "Feature",
      "geometry": {
        "type": "Point",
        "coordinates": [
          12.9921656,
          50.8653087
        ]
      },
      "properties": {
        "id": "tk_c_osm_w173012592",
        "name": "Kiosk/Anmeldung",
        "address": {},
        "sources": [
          {
            "type": "osm",
            "id": "way/173012592",
            "version": 0
          }
        ],
        "created": "2026-05-20",
        "updated": "2026-08-10",
        "sources_by_field": {
          "name": "osm"
        },
        "apple_id_attempted": "2026-08-10",
        "google_attempted": "2026-06-25",
        "payment": {}
      }
    },
    {
      "type": "Feature",
      "geometry": {
        "type": "Point",
        "coordinates": [
          13.0757638,
          50.7505004
        ]
      },
      "properties": {
        "id": "tk_c_osm_w379624131",
        "name": "Sachsenland Trinkparadies",
        "address": {
          "street": "Am Gräbel",
          "number": "1",
          "postalcode": "09405",
          "city": "Zschopau"
        },
        "sources": [
          {
            "type": "osm",
            "id": "way/379624131",
            "version": 0
          }
        ],
        "created": "2026-05-20",
        "updated": "2026-08-10",
        "sources_by_field": {
          "name": "osm",
          "address.street": "osm",
          "address.number": "osm",
          "address.postalcode": "osm",
          "address.city": "osm"
        },
        "apple_id_attempted": "2026-08-10",
        "google_attempted": "2026-06-25",
        "payment": {}
      }
    },
    {
      "type": "Feature",
      "geometry": {
        "type": "Point",
        "coordinates": [
          12.9249209,
          50.8466143
        ]
      },
      "properties": {
        "id": "tk_c_osm_w46717195",
        "name": "Trinkparadies",
        "address": {
          "street": "Eckstraße",
          "number": "4a",
          "postalcode": "09113",
          "city": "Chemnitz"
        },
        "sources": [
          {
            "type": "osm",
            "id": "way/46717195",
            "version": 0
          }
        ],
        "created": "2026-05-20",
        "updated": "2026-08-10",
        "hours": {
          "raw": "Mo-Fr 08:30-19:00; Sa 08:30-16:00"
        },
        "tags": [
          "barrierefrei"
        ],
        "sources_by_field": {
          "name": "osm",
          "address.street": "osm",
          "address.number": "osm",
          "address.postalcode": "osm",
          "address.city": "osm",
          "hours": "osm"
        },
        "apple_id_attempted": "2026-08-10",
        "google_attempted": "2026-06-25",
        "payment": {}
      }
    },
    {
      "type": "Feature",
      "geometry": {
        "type": "Point",
        "coordinates": [
          12.9222491,
          50.7953948
        ]
      },
      "properties": {
        "id": "tk_c_osm_w822838855",
        "name": "Tabakshop Friedrich",
        "address": {
          "street": "Annaberger Straße",
          "number": "315",
          "postalcode": "09125",
          "city": "Chemnitz"
        },
        "sources": [
          {
            "type": "osm",
            "id": "way/822838855",
            "version": 0
          }
        ],
        "created": "2026-05-20",
        "updated": "2026-08-10",
        "tags": [
          "barrierefrei"
        ],
        "sources_by_field": {
          "name": "osm",
          "address.street": "osm",
          "address.number": "osm",
          "address.postalcode": "osm",
          "address.city": "osm"
        },
        "apple_id_attempted": "2026-08-10",
        "google_attempted": "2026-06-25",
        "payment": {}
      }
    }
  ]
}
