{
  "type": "FeatureCollection",
  "features": [
    {
      "type": "Feature",
      "geometry": {
        "type": "Point",
        "coordinates": [
          13.7541809,
          51.06642309999999
        ]
      },
      "properties": {
        "id": "tk_fr_0532",
        "name": "Kecha",
        "description": "\"Besser spät als nie.\"",
        "address": {
          "street": "Louisenstraße",
          "number": "51",
          "postalcode": "01099",
          "city": "Dresden",
          "district": "Neustadt"
        },
        "hours": {
          "raw": "Mo-Fr 17:00-01:00; Sa-Su 14:00-01:00"
        },
        "sources": [
          {
            "type": "hopfenstop",
            "id": "732543cd-615a-4272-aa50-1c67fa77b3d6"
          },
          {
            "type": "osm",
            "id": "node/623768160",
            "version": 0
          }
        ],
        "created": "2026-05-19",
        "updated": "2026-05-20",
        "payment": {
          "cash": "yes",
          "cards": "yes"
        }
      }
    },
    {
      "type": "Feature",
      "geometry": {
        "type": "Point",
        "coordinates": [
          13.7012584,
          51.0394263
        ]
      },
      "properties": {
        "id": "tk_fr_0577",
        "name": "m3 Coffee & Shop",
        "description": "Späti",
        "address": {
          "street": "Bonhoefferplatz",
          "number": "24",
          "postalcode": "01159",
          "city": "Dresden",
          "district": "Cotta"
        },
        "hours": {
          "raw": "Mo-Sa 16:00-00:00; Su 09:00-00:00"
        },
        "sources": [
          {
            "type": "hopfenstop",
            "id": "37f1c44d-42a1-47a8-88a8-25effd9dee1e"
          }
        ],
        "created": "2026-05-19",
        "updated": "2026-05-19"
      }
    },
    {
      "type": "Feature",
      "geometry": {
        "type": "Point",
        "coordinates": [
          13.7030455,
          51.0433268
        ]
      },
      "properties": {
        "id": "tk_fr_0578",
        "name": "Imbiss Am Dreikaiserhof “Huschhalle“",
        "description": "Kult? ",
        "address": {
          "street": "Tharandter Straße",
          "number": "1",
          "postalcode": "01159",
          "city": "Dresden",
          "district": "Cotta"
        },
        "sources": [
          {
            "type": "hopfenstop",
            "id": "77869592-e1ba-423e-be2d-0d11a2550e5f"
          }
        ],
        "created": "2026-05-19",
        "updated": "2026-05-19"
      }
    },
    {
      "type": "Feature",
      "geometry": {
        "type": "Point",
        "coordinates": [
          13.7916546,
          51.0474568
        ]
      },
      "properties": {
        "id": "tk_fr_0688",
        "name": "Extrawurst ",
        "description": "entspannter Eckspäti",
        "address": {
          "street": "Bergmannstraße",
          "number": "8",
          "postalcode": "01309",
          "city": "Dresden",
          "district": "Blasewitz"
        },
        "hours": {
          "raw": "Mo-Su 06:00-01:00"
        },
        "sources": [
          {
            "type": "hopfenstop",
            "id": "c0e41f80-f56a-4059-8d57-c191f4a4736e"
          }
        ],
        "created": "2026-05-19",
        "updated": "2026-05-19"
      }
    },
    {
      "type": "Feature",
      "geometry": {
        "type": "Point",
        "coordinates": [
          13.8056303,
          51.0411698
        ]
      },
      "properties": {
        "id": "tk_fr_0689",
        "name": "deli spätverkauf",
        "description": "kleiner spät für den späten durst",
        "address": {
          "street": "Altenberger Straße",
          "number": "22",
          "postalcode": "01277",
          "city": "Dresden",
          "district": "Blasewitz"
        },
        "hours": {
          "raw": "Mo-Sa 16:00-01:00; Su 09:00-01:00"
        },
        "sources": [
          {
            "type": "hopfenstop",
            "id": "1a08a15e-e911-4b25-b8ca-344a92a166e8"
          }
        ],
        "created": "2026-05-19",
        "updated": "2026-05-19"
      }
    },
    {
      "type": "Feature",
      "geometry": {
        "type": "Point",
        "coordinates": [
          13.7212966,
          51.055829
        ]
      },
      "properties": {
        "id": "tk_fr_0720",
        "name": "m3 Coffee&Shop",
        "description": "schöner Späti mit viel Auswahl an gutem Bier",
        "address": {
          "street": "Wachsbleichstraße",
          "number": "2B",
          "postalcode": "01067",
          "city": "Dresden",
          "district": "Altstadt"
        },
        "hours": {
          "raw": "Mo-Fr 12:00-00:00; Sa 16:00-00:00; Su 09:00-00:00"
        },
        "sources": [
          {
            "type": "hopfenstop",
            "id": "a82623dd-65d9-4e69-a573-0d09e0f1b50a"
          }
        ],
        "created": "2026-05-19",
        "updated": "2026-05-19"
      }
    },
    {
      "type": "Feature",
      "geometry": {
        "type": "Point",
        "coordinates": [
          13.7550532,
          51.0679617
        ]
      },
      "properties": {
        "id": "tk_fr_1625",
        "name": "ABC Früh- & Spätshop",
        "description": "Spätshop",
        "address": {
          "street": "Görlitzer Straße",
          "number": "18B",
          "postalcode": "01099",
          "city": "Dresden",
          "district": "Neustadt"
        },
        "hours": {
          "raw": "Mo-Sa 10:00-00:00; Su 14:00-00:00"
        },
        "sources": [
          {
            "type": "hopfenstop",
            "id": "77a9ed08-5863-40c3-abd8-6a272a9450f0"
          },
          {
            "type": "osm",
            "id": "node/935859243",
            "version": 0
          }
        ],
        "created": "2026-05-19",
        "updated": "2026-05-20"
      }
    },
    {
      "type": "Feature",
      "geometry": {
        "type": "Point",
        "coordinates": [
          13.7533711,
          51.0657435
        ]
      },
      "properties": {
        "id": "tk_fr_1626",
        "name": "HolFix Spätverkauf",
        "description": "Spätkauf ",
        "address": {
          "street": "Rothenburger Straße",
          "number": "35",
          "postalcode": "01099",
          "city": "Dresden",
          "district": "Neustadt"
        },
        "sources": [
          {
            "type": "hopfenstop",
            "id": "2c1540a5-ba16-4705-98bf-8d03a65bd3c1"
          }
        ],
        "created": "2026-05-19",
        "updated": "2026-05-19"
      }
    },
    {
      "type": "Feature",
      "geometry": {
        "type": "Point",
        "coordinates": [
          13.754722,
          51.0627349
        ]
      },
      "properties": {
        "id": "tk_fr_1627",
        "name": "Snuck-Snack Spät Shop",
        "description": "Spätkauf ",
        "address": {
          "street": "Bautzner Straße",
          "number": "32",
          "postalcode": "01099",
          "city": "Dresden",
          "district": "Neustadt"
        },
        "hours": {
          "raw": "Mo-Fr 06:00-00:00; Sa 09:00-00:00; Su 08:30-00:00"
        },
        "sources": [
          {
            "type": "hopfenstop",
            "id": "54252f05-5d77-4bae-9499-6392b46ad563"
          },
          {
            "type": "osm",
            "id": "node/675129157"
          }
        ],
        "created": "2026-05-19",
        "updated": "2026-05-20"
      }
    },
    {
      "type": "Feature",
      "geometry": {
        "type": "Point",
        "coordinates": [
          13.7476161,
          51.0701275
        ]
      },
      "properties": {
        "id": "tk_fr_1628",
        "name": "Intershop 2.0",
        "description": "Spätkauf ",
        "address": {
          "street": "Eschenstraße",
          "number": "9",
          "postalcode": "01097",
          "city": "Dresden",
          "district": "Neustadt"
        },
        "hours": {
          "raw": "Mo 18:00-02:00; Tu-We 14:00-00:00; Th 14:00-01:00; Fr 14:00-02:00; Sa 18:00-02:00; Su 17:00-23:00"
        },
        "sources": [
          {
            "type": "hopfenstop",
            "id": "48a4f173-0548-4586-ba91-5f41442421c0"
          }
        ],
        "created": "2026-05-19",
        "updated": "2026-05-19"
      }
    },
    {
      "type": "Feature",
      "geometry": {
        "type": "Point",
        "coordinates": [
          13.7483142,
          51.06391070000001
        ]
      },
      "properties": {
        "id": "tk_fr_1634",
        "name": "Supermarkt Food5",
        "description": "Spätkauf ",
        "address": {
          "street": "Alaunstraße",
          "number": "3",
          "postalcode": "01099",
          "city": "Dresden",
          "district": "Neustadt"
        },
        "hours": {
          "raw": "Fr-Sa 12:00-05:00"
        },
        "sources": [
          {
            "type": "hopfenstop",
            "id": "0ff75226-754c-48bc-841c-71d1b300f71b"
          }
        ],
        "created": "2026-05-19",
        "updated": "2026-05-19"
      }
    },
    {
      "type": "Feature",
      "geometry": {
        "type": "Point",
        "coordinates": [
          13.7531678,
          51.0655013
        ]
      },
      "properties": {
        "id": "tk_fr_1635",
        "name": "Früh Spät RO31",
        "description": "Spätshop",
        "address": {
          "street": "Rothenburger Straße",
          "number": "31",
          "postalcode": "01099",
          "city": "Dresden",
          "district": "Neustadt"
        },
        "sources": [
          {
            "type": "hopfenstop",
            "id": "0b7699b7-f912-4527-8997-f2b914b8e6ac"
          },
          {
            "type": "osm",
            "id": "node/844100083",
            "version": 0
          }
        ],
        "created": "2026-05-19",
        "updated": "2026-05-20",
        "hours": {
          "raw": "Mo-Sa 17:00-24:00, Su,PH 15:00-23:00"
        }
      }
    },
    {
      "type": "Feature",
      "geometry": {
        "type": "Point",
        "coordinates": [
          13.7531678,
          51.0655013
        ]
      },
      "properties": {
        "id": "tk_fr_1636",
        "name": "Früh Spät Ro31",
        "description": "Spätshop",
        "address": {
          "street": "Rothenburger Straße",
          "number": "31",
          "postalcode": "01099",
          "city": "Dresden",
          "district": "Neustadt"
        },
        "hours": {
          "raw": "Th 12:00-00:00"
        },
        "sources": [
          {
            "type": "hopfenstop",
            "id": "20337e0c-b07c-4008-ad31-297b0da048ce"
          },
          {
            "type": "osm",
            "id": "node/844100083",
            "version": 0
          }
        ],
        "created": "2026-05-19",
        "updated": "2026-05-20"
      }
    }
  ]
}
