{
  "type": "FeatureCollection",
  "features": [
    {
      "type": "Feature",
      "geometry": {
        "type": "Point",
        "coordinates": [
          12.4116439,
          51.3420813
        ]
      },
      "properties": {
        "id": "tk_fr_0540",
        "name": "Kein Name aktuell",
        "description": "Kleiner Spätverkauf, gute Bierauswahl, die wichtigsten Lebensmittel",
        "address": {
          "street": "Wurzner Straße",
          "number": "60",
          "postalcode": "04315",
          "city": "Leipzig",
          "district": "Ost"
        },
        "sources": [
          {
            "type": "hopfenstop",
            "id": "5ffb4614-6dc9-42c4-80d5-42ee4307ee01"
          }
        ],
        "created": "2026-05-19",
        "updated": "2026-05-19",
        "payment_attempted": "2026-05-22",
        "apple_id_attempted": "2026-07-26",
        "google_attempted": "2026-07-26",
        "sources_by_field": {
          "name": "hopfenstop",
          "description": "hopfenstop",
          "address.street": "hopfenstop",
          "address.number": "hopfenstop",
          "address.postalcode": "hopfenstop",
          "address.city": "hopfenstop",
          "address.district": "hopfenstop"
        }
      }
    },
    {
      "type": "Feature",
      "geometry": {
        "type": "Point",
        "coordinates": [
          12.40843,
          51.33573
        ]
      },
      "properties": {
        "id": "tk_fr_0541",
        "name": "Kiezkontor",
        "description": "70 Sorten Bier, fast alles an Nahrung - viel Bio",
        "address": {
          "street": "Zweinaundorfer Straße",
          "number": "1",
          "postalcode": "04318",
          "city": "Leipzig",
          "district": "Ost"
        },
        "sources": [
          {
            "type": "hopfenstop",
            "id": "2e73fc84-e505-452a-8257-05110cb62733"
          },
          {
            "type": "osm",
            "id": "node/2515153163",
            "version": 0
          },
          {
            "type": "gmaps",
            "id": "payment"
          },
          {
            "type": "apple",
            "id": "7779761121397592463"
          }
        ],
        "created": "2026-05-19",
        "updated": "2026-05-21",
        "hours": {
          "raw": "Mo-Sa 10:00-24:00; Su 10:00-24:00; PH off"
        },
        "tags": [
          "barrierefrei"
        ],
        "payment": {
          "cards": "yes",
          "girocard": "yes",
          "contactless": "yes"
        },
        "sources_by_field": {
          "name": "hopfenstop",
          "description": "hopfenstop",
          "address.street": "hopfenstop",
          "address.number": "hopfenstop",
          "address.postalcode": "hopfenstop",
          "address.city": "hopfenstop",
          "address.district": "hopfenstop"
        }
      }
    },
    {
      "type": "Feature",
      "geometry": {
        "type": "Point",
        "coordinates": [
          12.3736613,
          51.3057009
        ]
      },
      "properties": {
        "id": "tk_fr_0558",
        "name": "Lazy Dog",
        "description": "Öffnungszeiten\nMo-Fr 11:00-01:00\nSa und So 13:00-01:00",
        "address": {
          "street": "Wolfgang-Heinze-Straße",
          "number": "40",
          "postalcode": "04277",
          "city": "Leipzig",
          "district": "Süd"
        },
        "hours": {
          "raw": "Mo-Fr 11:00-01:00; Sa-Su 13:00-01:00"
        },
        "tags": [
          "wc"
        ],
        "sources": [
          {
            "type": "hopfenstop",
            "id": "936ad25f-dd5a-4c1d-9bef-b891eb8204b5"
          }
        ],
        "created": "2026-05-19",
        "updated": "2026-05-19",
        "payment_attempted": "2026-05-22",
        "apple_id_attempted": "2026-07-26",
        "google_attempted": "2026-07-26",
        "sources_by_field": {
          "name": "hopfenstop",
          "description": "hopfenstop",
          "address.street": "hopfenstop",
          "address.number": "hopfenstop",
          "address.postalcode": "hopfenstop",
          "address.city": "hopfenstop",
          "address.district": "hopfenstop",
          "hours": "hopfenstop"
        }
      }
    },
    {
      "type": "Feature",
      "geometry": {
        "type": "Point",
        "coordinates": [
          12.3736244,
          51.3076988
        ]
      },
      "properties": {
        "id": "tk_fr_0559",
        "name": "le cygne",
        "description": "Öffnungszeiten\nMo-Do 10:00-23:00\nFr 10:00-01:00\nSa 11:00-01:00\nSo 11:00-23:00",
        "address": {
          "street": "Herderstraße",
          "number": "1",
          "postalcode": "04277",
          "city": "Leipzig",
          "district": "Süd"
        },
        "hours": {
          "raw": "Mo-Th 10:00-23:00; Fr 10:00-01:00; Sa 11:00-01:00; Su 11:00-23:00"
        },
        "sources": [
          {
            "type": "hopfenstop",
            "id": "38bb8c97-29e4-4947-8a0a-21b0fe69c979"
          },
          {
            "type": "osm",
            "id": "node/1117816022",
            "version": 0
          }
        ],
        "created": "2026-05-19",
        "updated": "2026-05-20",
        "payment": {
          "cards": "yes"
        },
        "tags": [
          "draussen",
          "raucherbereich",
          "sitzgelegenheiten"
        ],
        "apple_id_attempted": "2026-07-26",
        "sources_by_field": {
          "name": "hopfenstop",
          "description": "hopfenstop",
          "address.street": "hopfenstop",
          "address.number": "hopfenstop",
          "address.postalcode": "hopfenstop",
          "address.city": "hopfenstop",
          "address.district": "hopfenstop",
          "hours": "hopfenstop"
        }
      }
    },
    {
      "type": "Feature",
      "geometry": {
        "type": "Point",
        "coordinates": [
          12.40631,
          51.33669
        ]
      },
      "properties": {
        "id": "tk_fr_0561",
        "name": "Zu Spät",
        "description": "Öffnungszeiten\nMo-Sa 16:00-00:00\nSo geschlossen\nvegane Küche",
        "address": {
          "street": "Kippenbergstraße",
          "number": "28",
          "postalcode": "04317",
          "city": "Leipzig",
          "district": "Südost"
        },
        "hours": {
          "raw": "Mo-Sa 16:00-00:00"
        },
        "tags": [
          "draussen",
          "raucherbereich",
          "sitzgelegenheiten",
          "wc"
        ],
        "sources": [
          {
            "type": "hopfenstop",
            "id": "9d5662a2-8093-4a89-84e6-63b17776a99b"
          },
          {
            "type": "osm",
            "id": "node/1953511394",
            "version": 0
          },
          {
            "type": "apple",
            "id": "7075066218953886700"
          }
        ],
        "created": "2026-05-19",
        "updated": "2026-05-20",
        "payment": {
          "cards": "no"
        },
        "sources_by_field": {
          "name": "hopfenstop",
          "description": "hopfenstop",
          "address.street": "hopfenstop",
          "address.number": "hopfenstop",
          "address.postalcode": "hopfenstop",
          "address.city": "hopfenstop",
          "address.district": "hopfenstop",
          "hours": "hopfenstop"
        }
      }
    },
    {
      "type": "Feature",
      "geometry": {
        "type": "Point",
        "coordinates": [
          12.3726494,
          51.3242185
        ]
      },
      "properties": {
        "id": "tk_fr_0562",
        "name": "Südplatzspäti",
        "description": "schließt 22:00 Uhr",
        "address": {
          "street": "Schenkendorfstraße",
          "number": "20",
          "postalcode": "04275",
          "city": "Leipzig",
          "district": "Süd"
        },
        "hours": {
          "raw": "Tu 14:00-22:00; Th 14:00-22:00; Fr 14:00-22:00; We 14:00-22:00; Mo 14:00-22:00; Sa 14:00-22:00; Su 14:00-22:00"
        },
        "sources": [
          {
            "type": "hopfenstop",
            "id": "bfa7a4cb-f4d3-4846-a77a-dbda7fd280c1"
          },
          {
            "type": "osm",
            "id": "node/12152801735",
            "version": 0
          },
          {
            "type": "gmaps",
            "id": "ChIJU1Z4LS34pkcR6XSRTHVe1pM"
          }
        ],
        "created": "2026-05-19",
        "updated": "2026-06-24",
        "payment_attempted": "2026-05-22",
        "apple_id_attempted": "2026-07-26",
        "google_attempted": "2026-07-26",
        "sources_by_field": {
          "name": "hopfenstop",
          "description": "hopfenstop",
          "address.street": "hopfenstop",
          "address.number": "hopfenstop",
          "address.postalcode": "hopfenstop",
          "address.city": "hopfenstop",
          "address.district": "hopfenstop",
          "hours": "google"
        }
      }
    },
    {
      "type": "Feature",
      "geometry": {
        "type": "Point",
        "coordinates": [
          12.3766862,
          51.31053360000001
        ]
      },
      "properties": {
        "id": "tk_fr_0563",
        "name": "Rusty's",
        "description": "Öffnungszeiten\nSo-Mi 11:00-23:00\nDo-Sa 11:00-01:00\nBietet auch Nachos und Hot Dogs an",
        "address": {
          "street": "Bernhard-Göring-Straße",
          "number": "159",
          "postalcode": "04277",
          "city": "Leipzig",
          "district": "Süd"
        },
        "hours": {
          "raw": "Tu 15:00-23:00; Th 15:00-23:00; Fr 15:00-01:00; We 15:00-23:00; Mo 15:00-23:00; Sa 15:00-01:00; Su 15:00-23:00"
        },
        "sources": [
          {
            "type": "hopfenstop",
            "id": "5bb0e0bd-1f37-4be3-98fc-ff5dc16b4518"
          },
          {
            "type": "gmaps",
            "id": "ChIJ71auf8b5pkcR1-vnY42Gh6g"
          }
        ],
        "created": "2026-05-19",
        "updated": "2026-07-26",
        "payment": {
          "cash": "yes",
          "cards": "yes",
          "girocard": "yes"
        },
        "apple_id_attempted": "2026-07-26",
        "google_attempted": "2026-07-26",
        "sources_by_field": {
          "name": "hopfenstop",
          "description": "hopfenstop",
          "address.street": "hopfenstop",
          "address.number": "hopfenstop",
          "address.postalcode": "hopfenstop",
          "address.city": "hopfenstop",
          "address.district": "hopfenstop",
          "hours": "google",
          "payment.cards": "google",
          "payment.girocard": "google"
        }
      }
    },
    {
      "type": "Feature",
      "geometry": {
        "type": "Point",
        "coordinates": [
          12.3794587,
          51.3306502
        ]
      },
      "properties": {
        "id": "tk_fr_0576",
        "name": "Spätverkaufshop",
        "description": "11-22 Uhr",
        "address": {
          "street": "Riemannstraße",
          "number": "8",
          "postalcode": "04107",
          "city": "Leipzig",
          "district": "Mitte"
        },
        "sources": [
          {
            "type": "hopfenstop",
            "id": "bfb24523-d4a5-4880-8938-ef8bc1c657ee"
          }
        ],
        "created": "2026-05-19",
        "updated": "2026-05-19",
        "payment_attempted": "2026-05-22",
        "apple_id_attempted": "2026-07-26",
        "google_attempted": "2026-07-26",
        "sources_by_field": {
          "name": "hopfenstop",
          "description": "hopfenstop",
          "address.street": "hopfenstop",
          "address.number": "hopfenstop",
          "address.postalcode": "hopfenstop",
          "address.city": "hopfenstop",
          "address.district": "hopfenstop"
        }
      }
    },
    {
      "type": "Feature",
      "geometry": {
        "type": "Point",
        "coordinates": [
          12.4211683,
          51.3211749
        ]
      },
      "properties": {
        "id": "tk_fr_0602",
        "name": "Späti Nr. 24",
        "description": "Kleiner, aber sehr freundlicher Späti, offen bis 22.00Uhr",
        "address": {
          "street": "Ferdinand-Jost-Straße",
          "number": "39",
          "postalcode": "04299",
          "city": "Leipzig",
          "district": "Südost"
        },
        "hours": {
          "raw": "Mo-We 08:00-22:00; Fr-Sa 08:00-22:00; Su 10:00-22:00"
        },
        "sources": [
          {
            "type": "hopfenstop",
            "id": "2bb97af0-28bd-4ded-8a73-b1e4dc2b5c25"
          }
        ],
        "created": "2026-05-19",
        "updated": "2026-05-19",
        "payment_attempted": "2026-05-22",
        "apple_id_attempted": "2026-07-26",
        "google_attempted": "2026-07-26",
        "sources_by_field": {
          "name": "hopfenstop",
          "description": "hopfenstop",
          "address.street": "hopfenstop",
          "address.number": "hopfenstop",
          "address.postalcode": "hopfenstop",
          "address.city": "hopfenstop",
          "address.district": "hopfenstop",
          "hours": "hopfenstop"
        }
      }
    },
    {
      "type": "Feature",
      "geometry": {
        "type": "Point",
        "coordinates": [
          12.3566536,
          51.3344923
        ]
      },
      "properties": {
        "id": "tk_fr_0674",
        "name": "Minimarkt ",
        "description": "Lebensmittelhändler ",
        "address": {
          "street": "Sebastian-Bach-Straße",
          "number": "31",
          "postalcode": "04109",
          "city": "Leipzig",
          "district": "Mitte"
        },
        "hours": {
          "raw": "Mo-Su 07:00-22:00"
        },
        "sources": [
          {
            "type": "hopfenstop",
            "id": "350c6fff-f425-4d40-8ae7-2bf84216a42b"
          }
        ],
        "created": "2026-05-19",
        "updated": "2026-05-19",
        "payment_attempted": "2026-05-22",
        "apple_id_attempted": "2026-07-26",
        "google_attempted": "2026-07-26",
        "sources_by_field": {
          "name": "hopfenstop",
          "description": "hopfenstop",
          "address.street": "hopfenstop",
          "address.number": "hopfenstop",
          "address.postalcode": "hopfenstop",
          "address.city": "hopfenstop",
          "address.district": "hopfenstop",
          "hours": "hopfenstop"
        }
      }
    },
    {
      "type": "Feature",
      "geometry": {
        "type": "Point",
        "coordinates": [
          12.3667122,
          51.338086
        ]
      },
      "properties": {
        "id": "tk_fr_0675",
        "name": "BisSpäter",
        "description": "Späti ",
        "address": {
          "street": "Kolonnadenstraße",
          "number": "12",
          "postalcode": "04109",
          "city": "Leipzig",
          "district": "Mitte"
        },
        "hours": {
          "raw": "Mo-Su 11:00-00:00"
        },
        "sources": [
          {
            "type": "hopfenstop",
            "id": "83dae6bb-ebea-4eb0-8eff-d5d8ab1220a4"
          }
        ],
        "created": "2026-05-19",
        "updated": "2026-05-19",
        "payment_attempted": "2026-05-22",
        "apple_id_attempted": "2026-07-26",
        "google_attempted": "2026-07-26",
        "sources_by_field": {
          "name": "hopfenstop",
          "description": "hopfenstop",
          "address.street": "hopfenstop",
          "address.number": "hopfenstop",
          "address.postalcode": "hopfenstop",
          "address.city": "hopfenstop",
          "address.district": "hopfenstop",
          "hours": "hopfenstop"
        }
      }
    },
    {
      "type": "Feature",
      "geometry": {
        "type": "Point",
        "coordinates": [
          12.3982378,
          51.3303198
        ]
      },
      "properties": {
        "id": "tk_fr_0677",
        "name": "Ted’s Späti Tanke ",
        "description": "Späti ",
        "address": {
          "street": "Prager Straße",
          "number": "49",
          "postalcode": "04317",
          "city": "Leipzig",
          "district": "Südost"
        },
        "hours": {
          "raw": "Mo-Th 14:00-00:00; Fr 14:00-01:00; Sa 11:00-01:00; Su 11:00-23:00"
        },
        "sources": [
          {
            "type": "hopfenstop",
            "id": "959deb05-0c84-4f98-94ad-ca6e616e4bb1"
          },
          {
            "type": "osm",
            "id": "node/12142315786",
            "version": 0
          },
          {
            "type": "gmaps",
            "id": "payment"
          }
        ],
        "created": "2026-05-19",
        "updated": "2026-05-21",
        "payment": {
          "girocard": "yes",
          "cards": "no",
          "contactless": "yes"
        },
        "apple_id_attempted": "2026-07-26",
        "sources_by_field": {
          "name": "hopfenstop",
          "description": "hopfenstop",
          "address.street": "hopfenstop",
          "address.number": "hopfenstop",
          "address.postalcode": "hopfenstop",
          "address.city": "hopfenstop",
          "address.district": "hopfenstop",
          "hours": "hopfenstop"
        }
      }
    },
    {
      "type": "Feature",
      "geometry": {
        "type": "Point",
        "coordinates": [
          12.3715858,
          51.31831270000001
        ]
      },
      "properties": {
        "id": "tk_fr_0707",
        "name": "Tante Emmas Lädchen",
        "description": "Eigentlich schon ein kleiner laden,mit Bier! !",
        "address": {
          "street": "Kochstraße",
          "number": "33",
          "postalcode": "04275",
          "city": "Leipzig",
          "district": "Süd"
        },
        "sources": [
          {
            "type": "hopfenstop",
            "id": "62fbca7b-9a5a-4bb1-b106-a5e0bc06c2f4"
          },
          {
            "type": "osm",
            "id": "node/2774840249",
            "version": 0
          },
          {
            "type": "apple",
            "id": "8375511318778960666"
          },
          {
            "type": "gmaps",
            "id": "ChIJxdPX8dH5pkcRS_9XrNhwakc"
          }
        ],
        "created": "2026-05-19",
        "updated": "2026-06-24",
        "hours": {
          "raw": "Tu 08:00-21:00; Th 08:00-21:00; Fr 08:00-21:00; We 08:00-21:00; Mo 08:00-21:00; Sa 08:00-21:00"
        },
        "payment": {
          "cash": "yes"
        },
        "google_attempted": "2026-07-26",
        "apple_attempted": "2026-07-26",
        "sources_by_field": {
          "name": "hopfenstop",
          "description": "hopfenstop",
          "address.street": "hopfenstop",
          "address.number": "hopfenstop",
          "address.postalcode": "hopfenstop",
          "address.city": "hopfenstop",
          "address.district": "hopfenstop",
          "hours": "google"
        }
      }
    },
    {
      "type": "Feature",
      "geometry": {
        "type": "Point",
        "coordinates": [
          12.3715471,
          51.3217325
        ]
      },
      "properties": {
        "id": "tk_fr_0708",
        "name": "Lothar's Einkaufseck ",
        "description": "Kleiner Eckkiosk mit Stehttisch draußen ",
        "address": {
          "street": "Kochstraße",
          "number": "24",
          "postalcode": "04275",
          "city": "Leipzig",
          "district": "Süd"
        },
        "sources": [
          {
            "type": "hopfenstop",
            "id": "1fe0fc4d-4a36-4174-a70e-ba81c914a9cd"
          },
          {
            "type": "gmaps",
            "id": "ChIJ_3xy8NL5pkcRwcEUXzJpTx4"
          }
        ],
        "created": "2026-05-19",
        "updated": "2026-05-19",
        "payment_attempted": "2026-05-22",
        "apple_id_attempted": "2026-07-26",
        "google_attempted": "2026-07-26",
        "sources_by_field": {
          "name": "hopfenstop",
          "description": "hopfenstop",
          "address.street": "hopfenstop",
          "address.number": "hopfenstop",
          "address.postalcode": "hopfenstop",
          "address.city": "hopfenstop",
          "address.district": "hopfenstop"
        }
      }
    },
    {
      "type": "Feature",
      "geometry": {
        "type": "Point",
        "coordinates": [
          12.3731666,
          51.3177981
        ]
      },
      "properties": {
        "id": "tk_fr_0710",
        "name": "La Kabylie",
        "description": "kleiner Kiosk mit sitz Möglichkeit draußen und gutem Bier",
        "address": {
          "street": "Karl-Liebknecht-Straße",
          "number": "100",
          "postalcode": "04275",
          "city": "Leipzig",
          "district": "Süd"
        },
        "sources": [
          {
            "type": "hopfenstop",
            "id": "1afdde02-cac1-44bf-a820-5e220c6bdba6"
          },
          {
            "type": "osm",
            "id": "node/486625835"
          },
          {
            "type": "gmaps",
            "id": "ChIJoXKwBM75pkcR99_iZA4CW9E"
          }
        ],
        "created": "2026-05-19",
        "updated": "2026-05-20",
        "payment_attempted": "2026-05-22",
        "apple_id_attempted": "2026-07-26",
        "google_attempted": "2026-07-26",
        "sources_by_field": {
          "name": "hopfenstop",
          "description": "hopfenstop",
          "address.street": "hopfenstop",
          "address.number": "hopfenstop",
          "address.postalcode": "hopfenstop",
          "address.city": "hopfenstop",
          "address.district": "hopfenstop"
        }
      }
    },
    {
      "type": "Feature",
      "geometry": {
        "type": "Point",
        "coordinates": [
          12.3780198,
          51.3081463
        ]
      },
      "properties": {
        "id": "tk_fr_0711",
        "name": "Roni",
        "description": "Verstecktes Kiosk nice auswahl",
        "address": {
          "street": "Bornaische Straße",
          "number": "21",
          "postalcode": "04277",
          "city": "Leipzig",
          "district": "Süd"
        },
        "hours": {
          "raw": "Tu 15:30-00:00; Th 15:30-00:00; Fr 15:30-00:00; We 15:30-00:00; Mo 15:30-00:00; Sa 15:00-00:00; Su 14:00-00:00"
        },
        "sources": [
          {
            "type": "hopfenstop",
            "id": "1b536dfa-d808-40d9-ac9e-587d6fee2697"
          },
          {
            "type": "gmaps",
            "id": "ChIJjdaxz8b5pkcReL7NKbjd6Ck"
          }
        ],
        "created": "2026-05-19",
        "updated": "2026-07-26",
        "payment_attempted": "2026-05-22",
        "apple_id_attempted": "2026-07-26",
        "google_attempted": "2026-07-26",
        "sources_by_field": {
          "name": "hopfenstop",
          "description": "hopfenstop",
          "address.street": "hopfenstop",
          "address.number": "hopfenstop",
          "address.postalcode": "hopfenstop",
          "address.city": "hopfenstop",
          "address.district": "hopfenstop",
          "hours": "google"
        }
      }
    },
    {
      "type": "Feature",
      "geometry": {
        "type": "Point",
        "coordinates": [
          12.3277529,
          51.3374712
        ]
      },
      "properties": {
        "id": "tk_fr_0713",
        "name": "Mini Shop",
        "description": "Eckkiosk mit Bier,Mate und Fritz - auch ganze Kästen können gekauft werden",
        "address": {
          "street": "Hebelstraße",
          "number": "25",
          "postalcode": "04177",
          "city": "Leipzig",
          "district": "Alt-West"
        },
        "hours": {
          "raw": "Mo-Su 11:00-02:00"
        },
        "tags": [
          "mate"
        ],
        "sources": [
          {
            "type": "hopfenstop",
            "id": "ec0632a0-53ba-45aa-8bf7-e840dd407836"
          },
          {
            "type": "osm",
            "id": "node/3584020052",
            "version": 0
          }
        ],
        "created": "2026-05-19",
        "updated": "2026-05-20",
        "payment": {
          "cards": "yes"
        },
        "apple_id_attempted": "2026-07-26",
        "sources_by_field": {
          "name": "hopfenstop",
          "description": "hopfenstop",
          "address.street": "hopfenstop",
          "address.number": "hopfenstop",
          "address.postalcode": "hopfenstop",
          "address.city": "hopfenstop",
          "address.district": "hopfenstop",
          "hours": "hopfenstop"
        }
      }
    },
    {
      "type": "Feature",
      "geometry": {
        "type": "Point",
        "coordinates": [
          12.3520238,
          51.3649004
        ]
      },
      "properties": {
        "id": "tk_fr_0715",
        "name": "Leipzig to go",
        "description": "Späti am abend auch mit Saft im Angebot",
        "address": {
          "street": "Georg-Schumann-Straße",
          "number": "175",
          "postalcode": "04159",
          "city": "Leipzig",
          "district": "Nordwest"
        },
        "hours": {
          "raw": "Mo-Su 08:00-00:00"
        },
        "sources": [
          {
            "type": "hopfenstop",
            "id": "60205274-0b81-4f95-8f93-0519256d8b72"
          }
        ],
        "created": "2026-05-19",
        "updated": "2026-05-19",
        "payment_attempted": "2026-05-22",
        "apple_id_attempted": "2026-07-26",
        "google_attempted": "2026-07-26",
        "sources_by_field": {
          "name": "hopfenstop",
          "description": "hopfenstop",
          "address.street": "hopfenstop",
          "address.number": "hopfenstop",
          "address.postalcode": "hopfenstop",
          "address.city": "hopfenstop",
          "address.district": "hopfenstop",
          "hours": "hopfenstop"
        }
      }
    },
    {
      "type": "Feature",
      "geometry": {
        "type": "Point",
        "coordinates": [
          12.4058881,
          51.3461963
        ]
      },
      "properties": {
        "id": "tk_l_osm_n10601920563",
        "name": "Skyline Kiosk",
        "address": {
          "street": "Hermann-Liebmann-Straße",
          "number": "85",
          "postalcode": "04315",
          "city": "Leipzig"
        },
        "sources": [
          {
            "type": "osm",
            "id": "node/10601920563",
            "version": 0
          },
          {
            "type": "gmaps",
            "id": "payment"
          },
          {
            "type": "apple",
            "id": "12224783997792803429"
          }
        ],
        "created": "2026-05-20",
        "updated": "2026-08-17",
        "hours": {
          "raw": "Su-We 12:00-24:00, Th-Sa 12:00-02:00"
        },
        "sources_by_field": {
          "name": "osm",
          "address.street": "osm",
          "address.number": "osm",
          "address.postalcode": "osm",
          "address.city": "osm",
          "hours": "osm"
        },
        "payment": {
          "cash": "yes",
          "cards": "yes",
          "contactless": "yes"
        }
      }
    },
    {
      "type": "Feature",
      "geometry": {
        "type": "Point",
        "coordinates": [
          12.3934078,
          51.3456527
        ]
      },
      "properties": {
        "id": "tk_l_osm_n10751281068",
        "name": "Smile",
        "address": {
          "street": "Rosa-Luxemburg-Straße",
          "number": "40",
          "postalcode": "04315",
          "city": "Leipzig"
        },
        "sources": [
          {
            "type": "osm",
            "id": "node/10751281068",
            "version": 0
          },
          {
            "type": "gmaps",
            "id": "ChIJrXRmzRX4pkcRv5W2S2aXR8w"
          }
        ],
        "created": "2026-05-20",
        "updated": "2026-08-17",
        "sources_by_field": {
          "name": "osm",
          "address.street": "osm",
          "address.number": "osm",
          "address.postalcode": "osm",
          "address.city": "osm",
          "hours": "google",
          "payment.cards": "google"
        },
        "apple_id_attempted": "2026-07-26",
        "google_attempted": "2026-06-24",
        "hours": {
          "raw": "Th 13:00-00:00; Fr 13:00-02:00; We 13:00-00:00; Mo 13:00-00:00; Sa 13:00-02:00; Su 12:00-00:00"
        },
        "payment": {
          "cards": "yes",
          "contactless": "yes",
          "girocard": "yes"
        }
      }
    },
    {
      "type": "Feature",
      "geometry": {
        "type": "Point",
        "coordinates": [
          12.376139,
          51.3046323
        ]
      },
      "properties": {
        "id": "tk_l_osm_n1098258761",
        "name": "Löschdepot",
        "address": {
          "street": "Meusdorfer Straße",
          "number": "18"
        },
        "sources": [
          {
            "type": "osm",
            "id": "node/1098258761",
            "version": 0
          },
          {
            "type": "gmaps",
            "id": "payment"
          }
        ],
        "created": "2026-05-20",
        "updated": "2026-08-17",
        "hours": {
          "raw": "Mo-Fr 08:00-19:00; Sa 08:00-14:00"
        },
        "tags": [
          "barrierefrei"
        ],
        "sources_by_field": {
          "name": "osm",
          "address.street": "osm",
          "address.number": "osm",
          "hours": "osm"
        },
        "apple_id_attempted": "2026-07-26",
        "payment": {
          "cards": "yes",
          "contactless": "yes",
          "girocard": "yes"
        }
      }
    },
    {
      "type": "Feature",
      "geometry": {
        "type": "Point",
        "coordinates": [
          12.373876,
          51.3250891
        ]
      },
      "properties": {
        "id": "tk_l_osm_n11128804382",
        "name": "Kultkiosk Süd Spätverkauf",
        "address": {
          "street": "Karl-Liebknecht-Straße",
          "number": "59"
        },
        "sources": [
          {
            "type": "osm",
            "id": "node/11128804382",
            "version": 0
          },
          {
            "type": "gmaps",
            "id": "ChIJNYZs_G35pkcR4O2OjBODOA0"
          }
        ],
        "created": "2026-05-20",
        "updated": "2026-08-17",
        "payment": {
          "cash": "unknown",
          "cards": "yes",
          "contactless": "unknown",
          "girocard": "unknown"
        },
        "sources_by_field": {
          "name": "osm",
          "address.street": "osm",
          "address.number": "osm",
          "payment.cash": "osm",
          "payment.cards": "osm",
          "payment.contactless": "osm",
          "payment.girocard": "osm"
        },
        "apple_id_attempted": "2026-07-26",
        "google_attempted": "2026-07-26"
      }
    },
    {
      "type": "Feature",
      "geometry": {
        "type": "Point",
        "coordinates": [
          12.3769696,
          51.321381
        ]
      },
      "properties": {
        "id": "tk_l_osm_n11236028341",
        "name": "Tabakwaren",
        "address": {
          "street": "Bernhard-Göring-Straße",
          "number": "85",
          "postalcode": "04275",
          "city": "Leipzig",
          "district": "Südvorstadt"
        },
        "sources": [
          {
            "type": "osm",
            "id": "node/11236028341",
            "version": 0
          },
          {
            "type": "gmaps",
            "id": "payment"
          }
        ],
        "created": "2026-05-20",
        "updated": "2026-08-17",
        "hours": {
          "raw": "Mo-Fr 08:00-18:00; Sa 08:00-14:00"
        },
        "tags": [
          "barrierefrei"
        ],
        "sources_by_field": {
          "name": "osm",
          "hours": "osm"
        },
        "apple_id_attempted": "2026-07-26",
        "payment": {
          "cards": "no",
          "contactless": "yes",
          "girocard": "yes"
        }
      }
    },
    {
      "type": "Feature",
      "geometry": {
        "type": "Point",
        "coordinates": [
          12.3514332,
          51.3655652
        ]
      },
      "properties": {
        "id": "tk_l_osm_n11378408000",
        "name": "Al Manna Kiosk",
        "address": {
          "street": "Georg-Schumann-Straße",
          "number": "181",
          "postalcode": "04159",
          "city": "Leipzig"
        },
        "sources": [
          {
            "type": "osm",
            "id": "node/11378408000",
            "version": 0
          },
          {
            "type": "gmaps",
            "id": "payment"
          },
          {
            "type": "apple",
            "id": "6086976299382501636"
          }
        ],
        "created": "2026-05-20",
        "updated": "2026-08-17",
        "payment": {
          "cash": "unknown",
          "cards": "yes",
          "contactless": "unknown",
          "girocard": "unknown"
        },
        "sources_by_field": {
          "name": "osm",
          "address.street": "osm",
          "address.number": "osm",
          "address.postalcode": "osm",
          "address.city": "osm",
          "payment.cash": "osm",
          "payment.cards": "osm",
          "payment.contactless": "osm",
          "payment.girocard": "osm"
        },
        "hours": {
          "raw": "Su 12:00-22:00; Mo-Sa 09:00-22:00"
        }
      }
    },
    {
      "type": "Feature",
      "geometry": {
        "type": "Point",
        "coordinates": [
          12.337552,
          51.3306769
        ]
      },
      "properties": {
        "id": "tk_l_osm_n11632479531",
        "name": "Papa's Getränke",
        "address": {
          "street": "Zschochersche Straße",
          "number": "32",
          "postalcode": "04229",
          "city": "Leipzig"
        },
        "sources": [
          {
            "type": "osm",
            "id": "node/11632479531",
            "version": 0
          },
          {
            "type": "apple",
            "id": "7359765126397502772"
          }
        ],
        "created": "2026-05-20",
        "updated": "2026-08-17",
        "hours": {
          "raw": "24/7"
        },
        "payment": {
          "cash": "yes",
          "cards": "unknown",
          "contactless": "unknown",
          "girocard": "unknown"
        },
        "sources_by_field": {
          "name": "osm",
          "address.street": "osm",
          "address.number": "osm",
          "address.postalcode": "osm",
          "address.city": "osm",
          "hours": "osm",
          "payment.cash": "osm",
          "payment.cards": "osm",
          "payment.contactless": "osm",
          "payment.girocard": "osm"
        }
      }
    },
    {
      "type": "Feature",
      "geometry": {
        "type": "Point",
        "coordinates": [
          12.3370567,
          51.3698046
        ]
      },
      "properties": {
        "id": "tk_l_osm_n11841119821",
        "name": "Azo Kiosk",
        "address": {
          "street": "Georg-Schumann-Straße",
          "number": "265"
        },
        "sources": [
          {
            "type": "osm",
            "id": "node/11841119821",
            "version": 0
          },
          {
            "type": "gmaps",
            "id": "ChIJVXPXnHv3pkcRULIqA11jJ5U"
          }
        ],
        "created": "2026-05-20",
        "updated": "2026-08-17",
        "payment": {
          "cash": "yes",
          "cards": "yes",
          "contactless": "yes",
          "girocard": "yes"
        },
        "sources_by_field": {
          "name": "osm",
          "address.street": "osm",
          "address.number": "osm",
          "payment.cash": "osm",
          "payment.cards": "osm",
          "payment.contactless": "google",
          "payment.girocard": "osm"
        },
        "apple_id_attempted": "2026-07-26",
        "google_attempted": "2026-07-26"
      }
    },
    {
      "type": "Feature",
      "geometry": {
        "type": "Point",
        "coordinates": [
          12.4115303,
          51.3453304
        ]
      },
      "properties": {
        "id": "tk_l_osm_n11871502526",
        "name": "Michi's Getränkeservice",
        "address": {
          "street": "Eisenbahnstraße",
          "number": "111"
        },
        "sources": [
          {
            "type": "osm",
            "id": "node/11871502526",
            "version": 0
          },
          {
            "type": "apple",
            "id": "6334383350576178304"
          },
          {
            "type": "gmaps",
            "id": "ChIJFQKpw2j4pkcRKo4tyuLiNHA"
          }
        ],
        "created": "2026-05-20",
        "updated": "2026-08-17",
        "hours": {
          "raw": "Tu 10:00-17:00; Th 10:00-17:00; Fr 10:00-17:00; We 10:00-17:00; Mo 10:00-17:00"
        },
        "sources_by_field": {
          "name": "osm",
          "address.street": "osm",
          "address.number": "osm",
          "hours": "google"
        },
        "apple_attempted": "2026-07-26",
        "google_attempted": "2026-07-26",
        "payment": {}
      }
    },
    {
      "type": "Feature",
      "geometry": {
        "type": "Point",
        "coordinates": [
          12.3950802,
          51.3366289
        ]
      },
      "properties": {
        "id": "tk_l_osm_n11963146107",
        "name": "Fun Kost",
        "address": {
          "street": "Täubchenweg",
          "number": "10",
          "postalcode": "04317",
          "city": "Leipzig"
        },
        "sources": [
          {
            "type": "osm",
            "id": "node/11963146107",
            "version": 0
          },
          {
            "type": "gmaps",
            "id": "payment"
          },
          {
            "type": "apple",
            "id": "2333827191174627668"
          }
        ],
        "created": "2026-05-20",
        "updated": "2026-08-17",
        "hours": {
          "raw": "Tu-Th 12:00-22:00"
        },
        "sources_by_field": {
          "name": "osm",
          "address.street": "osm",
          "address.number": "osm",
          "address.postalcode": "osm",
          "address.city": "osm",
          "hours": "osm"
        },
        "payment": {
          "cards": "yes",
          "contactless": "yes",
          "girocard": "yes"
        }
      }
    },
    {
      "type": "Feature",
      "geometry": {
        "type": "Point",
        "coordinates": [
          12.3847454,
          51.3372985
        ]
      },
      "properties": {
        "id": "tk_l_osm_n12330583230",
        "name": "Campus Späti",
        "address": {},
        "sources": [
          {
            "type": "osm",
            "id": "node/12330583230",
            "version": 0
          },
          {
            "type": "gmaps",
            "id": "ChIJI2MWn2n5pkcRKa9ik7gIDfU"
          }
        ],
        "created": "2026-06-01",
        "updated": "2026-08-17",
        "sources_by_field": {
          "name": "osm",
          "hours": "google"
        },
        "apple_id_attempted": "2026-08-12",
        "google_attempted": "2026-08-12",
        "hours": {
          "raw": "Tu 16:00-00:00"
        },
        "payment": {}
      }
    },
    {
      "type": "Feature",
      "geometry": {
        "type": "Point",
        "coordinates": [
          12.3582978,
          51.3440768
        ]
      },
      "properties": {
        "id": "tk_l_osm_n1246628991",
        "name": "Kleinparis Kiosk",
        "address": {
          "street": "Waldstraße",
          "number": "28",
          "postalcode": "04105"
        },
        "sources": [
          {
            "type": "osm",
            "id": "node/1246628991",
            "version": 0
          },
          {
            "type": "gmaps",
            "id": "payment"
          },
          {
            "type": "apple",
            "id": "15412636810284578913"
          }
        ],
        "created": "2026-05-20",
        "updated": "2026-08-17",
        "sources_by_field": {
          "name": "osm",
          "address.street": "osm",
          "address.number": "osm",
          "address.postalcode": "osm"
        },
        "hours": {
          "raw": "Su 11:00-23:00; Mo 00:00-24:00; Tu-Sa 16:00-24:00"
        },
        "payment": {
          "cards": "yes",
          "contactless": "yes",
          "girocard": "yes"
        }
      }
    },
    {
      "type": "Feature",
      "geometry": {
        "type": "Point",
        "coordinates": [
          12.3966973,
          51.3015473
        ]
      },
      "properties": {
        "id": "tk_l_osm_n12663158560",
        "name": "Christians Zeitungen & Schreibwaren",
        "address": {
          "street": "Zwickauer Straße",
          "postalcode": "04279",
          "city": "Leipzig",
          "district": "Lößnig"
        },
        "sources": [
          {
            "type": "osm",
            "id": "node/12663158560",
            "version": 0
          },
          {
            "type": "gmaps",
            "id": "payment"
          },
          {
            "type": "apple",
            "id": "6300974876832527415"
          }
        ],
        "created": "2026-05-20",
        "updated": "2026-08-17",
        "hours": {
          "raw": "Mo-Fr 08:00-20:00; Sa 08:00-15:00; Su,PH off"
        },
        "tags": [
          "barrierefrei"
        ],
        "sources_by_field": {
          "name": "osm",
          "hours": "osm"
        },
        "payment": {
          "cards": "yes",
          "girocard": "yes"
        }
      }
    },
    {
      "type": "Feature",
      "geometry": {
        "type": "Point",
        "coordinates": [
          12.3214227,
          51.374999
        ]
      },
      "properties": {
        "id": "tk_l_osm_n12791344514",
        "name": "Tabak & Presse",
        "address": {
          "street": "Georg-Schumann-Straße",
          "number": "363",
          "postalcode": "04159",
          "city": "Leipzig"
        },
        "sources": [
          {
            "type": "osm",
            "id": "node/12791344514",
            "version": 0
          },
          {
            "type": "gmaps",
            "id": "ChIJ4VkTAYFYpkcR5S2CQoUV7So"
          }
        ],
        "created": "2026-05-20",
        "updated": "2026-08-17",
        "sources_by_field": {
          "name": "osm",
          "address.street": "osm",
          "address.number": "osm",
          "address.postalcode": "osm",
          "address.city": "osm",
          "hours": "google"
        },
        "apple_id_attempted": "2026-07-26",
        "google_attempted": "2026-06-24",
        "hours": {
          "raw": "Tu 08:00-18:00; Th 08:00-18:00; Fr 08:00-18:00; We 08:00-18:00; Mo 08:00-18:00; Sa 08:00-12:00"
        },
        "payment": {
          "contactless": "yes"
        }
      }
    },
    {
      "type": "Feature",
      "geometry": {
        "type": "Point",
        "coordinates": [
          12.3310136,
          51.3308767
        ]
      },
      "properties": {
        "id": "tk_l_osm_n14069211601",
        "name": "Emils Späti",
        "address": {
          "street": "Karl-Heine-Straße",
          "number": "74"
        },
        "sources": [
          {
            "type": "osm",
            "id": "node/14069211601",
            "version": 0
          },
          {
            "type": "apple",
            "id": "4298046038586491748"
          }
        ],
        "created": "2026-08-03",
        "updated": "2026-08-17",
        "sources_by_field": {
          "name": "osm",
          "address.street": "osm",
          "address.number": "osm",
          "hours": "apple",
          "payment.cards": "apple",
          "payment.contactless": "apple"
        },
        "apple_attempted": "2026-08-05",
        "hours": {
          "raw": "Su 00:00-02:00,12:00-24:00; Mo-Fr 14:00-24:00; Sa 00:00-02:00,14:00-24:00"
        },
        "payment": {
          "cards": "yes",
          "contactless": "yes"
        }
      }
    },
    {
      "type": "Feature",
      "geometry": {
        "type": "Point",
        "coordinates": [
          12.4152252,
          51.3562691
        ]
      },
      "properties": {
        "id": "tk_l_osm_n1487575413",
        "name": "Lotto-Toto Karin Schwartz",
        "address": {
          "street": "Gorkistraße",
          "number": "62"
        },
        "sources": [
          {
            "type": "osm",
            "id": "node/1487575413",
            "version": 0
          },
          {
            "type": "apple",
            "id": "17216131087594812294"
          },
          {
            "type": "gmaps",
            "id": "ChIJeaTOKHH4pkcRawDMjAcMD98"
          }
        ],
        "created": "2026-05-20",
        "updated": "2026-08-17",
        "hours": {
          "raw": "Tu 09:00-18:00; Th 09:00-18:00; Fr 09:00-18:00; We 09:00-18:00"
        },
        "sources_by_field": {
          "name": "osm",
          "address.street": "osm",
          "address.number": "osm",
          "hours": "google"
        },
        "apple_attempted": "2026-07-26",
        "google_attempted": "2026-07-26",
        "payment": {}
      }
    },
    {
      "type": "Feature",
      "geometry": {
        "type": "Point",
        "coordinates": [
          12.3740986,
          51.3339665
        ]
      },
      "properties": {
        "id": "tk_l_osm_n1666646925",
        "name": "Kiosk1",
        "address": {
          "street": "Peterssteinweg",
          "number": "1",
          "postalcode": "04107",
          "city": "Leipzig",
          "district": "Mitte"
        },
        "sources": [
          {
            "type": "osm",
            "id": "node/1666646925",
            "version": 0
          },
          {
            "type": "gmaps",
            "id": "payment"
          },
          {
            "type": "hopfenstop",
            "id": "03a9035e-8582-44dd-95f6-7cc13a9fc33c"
          },
          {
            "type": "apple",
            "id": "13925854022782075014"
          }
        ],
        "created": "2026-05-20",
        "updated": "2026-08-17",
        "hours": {
          "raw": "Mo-Th 08:00-02:00, Fr 08:00-04:00, Sa 10:00-04:00, Su 10:00-02:00"
        },
        "tags": [
          "barrierefrei",
          "kaffee",
          "mate",
          "schnaps",
          "sekt",
          "snacks",
          "zeitschriften"
        ],
        "sources_by_field": {
          "name": "osm",
          "hours": "osm",
          "description": "hopfenstop",
          "address.street": "hopfenstop",
          "address.number": "hopfenstop",
          "address.postalcode": "hopfenstop",
          "address.city": "hopfenstop",
          "address.district": "hopfenstop"
        },
        "apple_id_attempted": "2026-05-23",
        "description": "Zentraler Kiosk mit großer Bierauswahl",
        "payment": {
          "cards": "no",
          "contactless": "yes",
          "girocard": "yes"
        }
      }
    },
    {
      "type": "Feature",
      "geometry": {
        "type": "Point",
        "coordinates": [
          12.378364,
          51.3216323
        ]
      },
      "properties": {
        "id": "tk_l_osm_n2167449643",
        "name": "Deutsche Post Filiale 667",
        "address": {
          "street": "Arthur-Hoffmann-Straße",
          "number": "78",
          "postalcode": "04275",
          "city": "Leipzig",
          "district": "Südvorstadt"
        },
        "sources": [
          {
            "type": "osm",
            "id": "node/2167449643",
            "version": 0
          },
          {
            "type": "gmaps",
            "id": "payment"
          }
        ],
        "created": "2026-05-20",
        "updated": "2026-08-17",
        "hours": {
          "raw": "Mo-Fr 12:00-18:00; Sa 09:00-15:00"
        },
        "sources_by_field": {
          "name": "osm",
          "hours": "osm"
        },
        "apple_id_attempted": "2026-07-26",
        "payment": {
          "cards": "yes",
          "contactless": "yes",
          "girocard": "yes"
        }
      }
    },
    {
      "type": "Feature",
      "geometry": {
        "type": "Point",
        "coordinates": [
          12.3502,
          51.3658253
        ]
      },
      "properties": {
        "id": "tk_l_osm_n2172269295",
        "name": "Seiran Kiosk",
        "address": {
          "street": "Georg-Schumann-Straße",
          "number": "185",
          "postalcode": "04159",
          "city": "Leipzig",
          "district": "Möckern"
        },
        "sources": [
          {
            "type": "osm",
            "id": "node/2172269295",
            "version": 0
          },
          {
            "type": "gmaps",
            "id": "ChIJicrgETv3pkcRtBxbNuVLd0A"
          }
        ],
        "created": "2026-05-20",
        "updated": "2026-08-17",
        "tags": [
          "barrierefrei",
          "draussen"
        ],
        "sources_by_field": {
          "name": "osm",
          "address.street": "osm",
          "address.number": "osm",
          "address.postalcode": "osm",
          "address.city": "osm",
          "address.district": "osm",
          "hours": "google"
        },
        "apple_id_attempted": "2026-07-26",
        "google_attempted": "2026-07-26",
        "hours": {
          "raw": "Tu 10:00-00:00; Th 10:00-00:00; Fr 10:00-00:00; We 10:00-00:00; Mo 10:00-00:00; Sa 10:00-00:00"
        },
        "payment": {}
      }
    },
    {
      "type": "Feature",
      "geometry": {
        "type": "Point",
        "coordinates": [
          12.3187485,
          51.3459082
        ]
      },
      "properties": {
        "id": "tk_l_osm_n2435360430",
        "name": "Lösch-Depot",
        "address": {
          "street": "Georg-Schwarz-Straße",
          "number": "92-96",
          "postalcode": "04179",
          "city": "Leipzig",
          "district": "Leutzsch"
        },
        "sources": [
          {
            "type": "osm",
            "id": "node/2435360430",
            "version": 0
          },
          {
            "type": "gmaps",
            "id": "payment"
          }
        ],
        "created": "2026-05-20",
        "updated": "2026-08-17",
        "hours": {
          "raw": "Mo-Fr 08:00-19:00; Sa 08:00-14:00; Su,PH off"
        },
        "tags": [
          "barrierefrei"
        ],
        "sources_by_field": {
          "name": "osm",
          "address.street": "osm",
          "address.number": "osm",
          "address.postalcode": "osm",
          "address.city": "osm",
          "address.district": "osm",
          "hours": "osm"
        },
        "apple_id_attempted": "2026-07-26",
        "payment": {
          "cards": "yes",
          "contactless": "yes",
          "girocard": "yes"
        }
      }
    },
    {
      "type": "Feature",
      "geometry": {
        "type": "Point",
        "coordinates": [
          12.3274526,
          51.2994314
        ]
      },
      "properties": {
        "id": "tk_l_osm_n2905723203",
        "name": "Weinstube am Brunnen",
        "address": {
          "street": "Dieskaustraße",
          "number": "222",
          "postalcode": "04249",
          "city": "Leipzig",
          "district": "Großzschocher"
        },
        "sources": [
          {
            "type": "osm",
            "id": "node/2905723203",
            "version": 0
          },
          {
            "type": "gmaps",
            "id": "ChIJybyA1UX3pkcRimcxER9YVJk"
          }
        ],
        "created": "2026-05-20",
        "updated": "2026-08-17",
        "sources_by_field": {
          "name": "osm"
        },
        "apple_id_attempted": "2026-07-26",
        "google_attempted": "2026-07-26",
        "payment": {}
      }
    },
    {
      "type": "Feature",
      "geometry": {
        "type": "Point",
        "coordinates": [
          12.3274925,
          51.3380309
        ]
      },
      "properties": {
        "id": "tk_l_osm_n4319034609",
        "name": "Schwarzmarkt Späti",
        "address": {
          "street": "Georg-Schwarz-Straße",
          "number": "6",
          "postalcode": "04177",
          "city": "Leipzig",
          "district": "Alt-West"
        },
        "sources": [
          {
            "type": "osm",
            "id": "node/4319034609",
            "version": 0
          },
          {
            "type": "apple",
            "id": "93776197693957401"
          },
          {
            "type": "hopfenstop",
            "id": "855f9365-1cec-4eec-ab40-b0756140a454"
          }
        ],
        "created": "2026-05-20",
        "updated": "2026-08-17",
        "hours": {
          "raw": "Th-Su 16:00-24:00"
        },
        "payment": {
          "cash": "yes",
          "cards": "yes",
          "contactless": "yes",
          "girocard": "yes"
        },
        "sources_by_field": {
          "name": "osm",
          "address.street": "osm",
          "address.number": "osm",
          "address.postalcode": "osm",
          "address.city": "osm",
          "hours": "osm",
          "payment.cash": "osm",
          "payment.cards": "osm",
          "payment.contactless": "osm",
          "payment.girocard": "osm",
          "description": "hopfenstop",
          "address.district": "hopfenstop"
        },
        "description": "Kiosk von außen mit Graffiti besprayt von innen sehr große Bierauswahl!"
      }
    },
    {
      "type": "Feature",
      "geometry": {
        "type": "Point",
        "coordinates": [
          12.3326013,
          51.3312635
        ]
      },
      "properties": {
        "id": "tk_l_osm_n4781999351",
        "name": "Buthwo",
        "address": {
          "street": "Karl-Heine-Straße",
          "number": "60",
          "postalcode": "04229",
          "city": "Leipzig"
        },
        "sources": [
          {
            "type": "osm",
            "id": "node/4781999351",
            "version": 0
          },
          {
            "type": "gmaps",
            "id": "ChIJbya7aZ_3pkcRaJJN0u5rNi0"
          }
        ],
        "created": "2026-05-20",
        "updated": "2026-08-17",
        "payment": {
          "cash": "unknown",
          "cards": "yes",
          "contactless": "unknown",
          "girocard": "yes"
        },
        "sources_by_field": {
          "name": "osm",
          "address.street": "osm",
          "address.number": "osm",
          "address.postalcode": "osm",
          "address.city": "osm",
          "payment.cash": "osm",
          "payment.cards": "osm",
          "payment.contactless": "osm",
          "payment.girocard": "google"
        },
        "apple_id_attempted": "2026-07-26",
        "google_attempted": "2026-07-26"
      }
    },
    {
      "type": "Feature",
      "geometry": {
        "type": "Point",
        "coordinates": [
          12.3310692,
          51.3241516
        ]
      },
      "properties": {
        "id": "tk_l_osm_n4810617821",
        "name": "Bier 'n' Roll",
        "address": {
          "street": "Markranstädter Straße",
          "number": "1a",
          "postalcode": "04229",
          "city": "Leipzig"
        },
        "sources": [
          {
            "type": "osm",
            "id": "node/4810617821",
            "version": 0
          },
          {
            "type": "gmaps",
            "id": "payment"
          },
          {
            "type": "apple",
            "id": "5772838338515044744"
          }
        ],
        "created": "2026-05-20",
        "updated": "2026-08-17",
        "hours": {
          "raw": "Mo-Th 17:00-01:00, Fr-Sa 17:00-03:00"
        },
        "tags": [
          "barrierefrei"
        ],
        "sources_by_field": {
          "name": "osm",
          "address.street": "osm",
          "address.number": "osm",
          "address.postalcode": "osm",
          "address.city": "osm",
          "hours": "osm"
        },
        "payment": {
          "cards": "yes",
          "contactless": "yes",
          "girocard": "yes"
        }
      }
    },
    {
      "type": "Feature",
      "geometry": {
        "type": "Point",
        "coordinates": [
          12.3332973,
          51.3194219
        ]
      },
      "properties": {
        "id": "tk_l_osm_n6257784336",
        "name": "Tabakwaren- Lebensmittel Obst + Gemüse Getränke",
        "address": {
          "street": "Antonienstraße",
          "number": "1"
        },
        "sources": [
          {
            "type": "osm",
            "id": "node/6257784336",
            "version": 0
          },
          {
            "type": "gmaps",
            "id": "ChIJJQQ3nUP3pkcRJDltirEM6_g"
          }
        ],
        "created": "2026-05-20",
        "updated": "2026-08-17",
        "hours": {
          "raw": "Tu 09:00-18:00; Th 09:00-18:00; Fr 09:00-18:30; We 09:00-18:00; Mo 09:00-18:00; Sa 09:00-15:00"
        },
        "tags": [
          "barrierefrei"
        ],
        "sources_by_field": {
          "name": "osm",
          "address.street": "osm",
          "address.number": "osm",
          "hours": "google"
        },
        "apple_id_attempted": "2026-07-26",
        "google_attempted": "2026-07-26",
        "payment": {}
      }
    },
    {
      "type": "Feature",
      "geometry": {
        "type": "Point",
        "coordinates": [
          12.3325895,
          51.3326831
        ]
      },
      "properties": {
        "id": "tk_l_osm_n632731073",
        "name": "Reuschel's Weineck",
        "address": {
          "street": "Aurelienstraße",
          "number": "32",
          "postalcode": "04177",
          "city": "Leipzig",
          "district": "Lindenau"
        },
        "sources": [
          {
            "type": "osm",
            "id": "node/632731073",
            "version": 0
          },
          {
            "type": "gmaps",
            "id": "payment"
          },
          {
            "type": "apple",
            "id": "17154102266215022009"
          }
        ],
        "created": "2026-05-20",
        "updated": "2026-08-17",
        "hours": {
          "raw": "Tu-Sa 18:30-24:00"
        },
        "tags": [
          "draussen",
          "sitzgelegenheiten"
        ],
        "sources_by_field": {
          "name": "osm",
          "address.street": "osm",
          "address.number": "osm",
          "address.postalcode": "osm",
          "address.city": "osm",
          "address.district": "osm",
          "hours": "osm"
        },
        "payment": {
          "cards": "no",
          "contactless": "yes",
          "girocard": "yes"
        }
      }
    },
    {
      "type": "Feature",
      "geometry": {
        "type": "Point",
        "coordinates": [
          12.3788989,
          51.3351625
        ]
      },
      "properties": {
        "id": "tk_l_osm_n634646890",
        "name": "Zum Willi",
        "address": {
          "street": "Grünewaldstraße",
          "postalcode": "04103",
          "city": "Leipzig"
        },
        "sources": [
          {
            "type": "osm",
            "id": "node/634646890",
            "version": 0
          },
          {
            "type": "gmaps",
            "id": "ChIJ_xwNSAD5pkcRLnqodCmqjxk"
          }
        ],
        "created": "2026-05-20",
        "updated": "2026-08-17",
        "hours": {
          "raw": "Tu 10:00-02:00; Th 10:00-02:00; Fr 10:00-02:00; We 10:00-02:00; Mo 10:00-02:00; Sa 10:00-02:00; Su 10:00-02:00"
        },
        "sources_by_field": {
          "name": "osm",
          "address.street": "osm",
          "address.postalcode": "osm",
          "address.city": "osm",
          "hours": "google",
          "payment.cards": "google"
        },
        "apple_id_attempted": "2026-07-26",
        "google_attempted": "2026-07-26",
        "payment": {
          "cards": "yes"
        }
      }
    },
    {
      "type": "Feature",
      "geometry": {
        "type": "Point",
        "coordinates": [
          12.3934846,
          51.3607898
        ]
      },
      "properties": {
        "id": "tk_l_osm_n6443019507",
        "name": "Lösch Depot",
        "address": {
          "street": "Hartzstraße",
          "number": "6",
          "postalcode": "04129",
          "city": "Leipzig"
        },
        "sources": [
          {
            "type": "osm",
            "id": "node/6443019507",
            "version": 0
          },
          {
            "type": "gmaps",
            "id": "payment"
          }
        ],
        "created": "2026-05-20",
        "updated": "2026-08-17",
        "hours": {
          "raw": "Mo-Fr 08:00-19:00; Sa 08:00-14:00; Su,PH off"
        },
        "tags": [
          "barrierefrei"
        ],
        "sources_by_field": {
          "name": "osm",
          "address.street": "osm",
          "address.number": "osm",
          "address.postalcode": "osm",
          "address.city": "osm",
          "hours": "osm"
        },
        "apple_id_attempted": "2026-07-26",
        "payment": {
          "cards": "yes",
          "contactless": "yes",
          "girocard": "yes"
        }
      }
    },
    {
      "type": "Feature",
      "geometry": {
        "type": "Point",
        "coordinates": [
          12.3796272,
          51.3071731
        ]
      },
      "properties": {
        "id": "tk_l_osm_n693681224",
        "name": "Pasha",
        "address": {
          "street": "Bornaische Straße",
          "number": "50",
          "postalcode": "04277",
          "city": "Leipzig",
          "district": "Connewitz"
        },
        "sources": [
          {
            "type": "osm",
            "id": "node/693681224",
            "version": 0
          },
          {
            "type": "gmaps",
            "id": "ChIJf_VaKXv5pkcRgxiyDRRtvMk"
          }
        ],
        "created": "2026-05-20",
        "updated": "2026-08-17",
        "sources_by_field": {
          "name": "osm",
          "hours": "google",
          "payment.cards": "google"
        },
        "apple_id_attempted": "2026-07-26",
        "google_attempted": "2026-06-24",
        "hours": {
          "raw": "Tu 08:30-22:00; Th 08:30-22:00; Fr 08:30-22:00; We 08:30-22:00; Sa 08:30-22:00; Su 08:30-22:00"
        },
        "payment": {
          "cards": "yes",
          "contactless": "yes",
          "girocard": "yes"
        }
      }
    },
    {
      "type": "Feature",
      "geometry": {
        "type": "Point",
        "coordinates": [
          12.4045655,
          51.3321256
        ]
      },
      "properties": {
        "id": "tk_l_osm_n7046870160",
        "name": "Café Bar Reudnitz No. 47",
        "address": {
          "street": "Oststraße",
          "number": "47",
          "postalcode": "04317",
          "city": "Leipzig"
        },
        "sources": [
          {
            "type": "osm",
            "id": "node/7046870160",
            "version": 0
          },
          {
            "type": "gmaps",
            "id": "payment"
          }
        ],
        "created": "2026-05-20",
        "updated": "2026-08-17",
        "hours": {
          "raw": "PH,Mo-Su 12:00-02:00"
        },
        "sources_by_field": {
          "name": "osm",
          "address.street": "osm",
          "address.number": "osm",
          "address.postalcode": "osm",
          "address.city": "osm",
          "hours": "osm"
        },
        "apple_id_attempted": "2026-07-26",
        "payment": {
          "cards": "no",
          "contactless": "yes",
          "girocard": "yes"
        }
      }
    },
    {
      "type": "Feature",
      "geometry": {
        "type": "Point",
        "coordinates": [
          12.3103542,
          51.3488498
        ]
      },
      "properties": {
        "id": "tk_l_osm_n727670281",
        "name": "Tabak Presse Lotto",
        "address": {
          "street": "Georg-Schwarz-Straße",
          "number": "139 - 141"
        },
        "sources": [
          {
            "type": "osm",
            "id": "node/727670281",
            "version": 0
          },
          {
            "type": "gmaps",
            "id": "payment"
          }
        ],
        "created": "2026-05-20",
        "updated": "2026-08-17",
        "hours": {
          "raw": "Mo-Fr 08:00-18:00; Sa 08:00-14:00"
        },
        "tags": [
          "barrierefrei"
        ],
        "sources_by_field": {
          "name": "osm",
          "address.street": "osm",
          "address.number": "osm",
          "hours": "osm"
        },
        "apple_id_attempted": "2026-07-26",
        "payment": {
          "cards": "yes",
          "contactless": "yes",
          "girocard": "yes"
        }
      }
    },
    {
      "type": "Feature",
      "geometry": {
        "type": "Point",
        "coordinates": [
          12.40857,
          51.3517131
        ]
      },
      "properties": {
        "id": "tk_l_osm_n7807274500",
        "name": "Kiosk Rozi",
        "address": {
          "street": "Gorkistraße",
          "number": "129",
          "postalcode": "04347",
          "city": "Leipzig",
          "district": "Schönefeld-Abtnaundorf"
        },
        "sources": [
          {
            "type": "osm",
            "id": "node/7807274500",
            "version": 0
          },
          {
            "type": "gmaps",
            "id": "payment"
          },
          {
            "type": "apple",
            "id": "3000833502104243032"
          }
        ],
        "created": "2026-05-20",
        "updated": "2026-08-17",
        "hours": {
          "raw": "Mo-Fr 08:00-12:00,15:00-18:00; Sa 08:00-12:00"
        },
        "sources_by_field": {
          "name": "osm",
          "hours": "osm"
        },
        "payment": {
          "cards": "no",
          "contactless": "yes",
          "girocard": "yes"
        }
      }
    },
    {
      "type": "Feature",
      "geometry": {
        "type": "Point",
        "coordinates": [
          12.4006499,
          51.3459058
        ]
      },
      "properties": {
        "id": "tk_l_osm_n870909946",
        "name": "Sachsenlotto",
        "address": {
          "street": "Neustädter Straße",
          "number": "18",
          "postalcode": "04315",
          "city": "Leipzig",
          "district": "Neustadt-Neuschönefeld"
        },
        "sources": [
          {
            "type": "osm",
            "id": "node/870909946",
            "version": 0
          },
          {
            "type": "gmaps",
            "id": "ChIJ01-XMGv4pkcRWWEfPLUA6oE"
          }
        ],
        "created": "2026-05-20",
        "updated": "2026-08-17",
        "sources_by_field": {
          "name": "osm",
          "payment.cards": "google"
        },
        "apple_id_attempted": "2026-07-26",
        "google_attempted": "2026-07-26",
        "payment": {
          "cards": "yes"
        }
      }
    },
    {
      "type": "Feature",
      "geometry": {
        "type": "Point",
        "coordinates": [
          12.378958,
          51.3316654
        ]
      },
      "properties": {
        "id": "tk_l_osm_n8731862488",
        "name": "Späti 4107",
        "address": {
          "street": "Windmühlenstraße",
          "number": "24",
          "postalcode": "04107",
          "city": "Leipzig",
          "district": "Zentrum-Süd"
        },
        "sources": [
          {
            "type": "osm",
            "id": "node/8731862488",
            "version": 0
          },
          {
            "type": "gmaps",
            "id": "ChIJV80f45L5pkcRYmI0YyP6oK4"
          }
        ],
        "created": "2026-05-20",
        "updated": "2026-08-17",
        "hours": {
          "raw": "Mo-Sa 12:00-22:00; Su 16:00-22:00"
        },
        "payment": {
          "cash": "unknown",
          "cards": "yes",
          "contactless": "unknown",
          "girocard": "unknown"
        },
        "sources_by_field": {
          "name": "osm",
          "hours": "osm",
          "payment.cash": "osm",
          "payment.cards": "osm",
          "payment.contactless": "osm",
          "payment.girocard": "osm"
        },
        "apple_id_attempted": "2026-07-26",
        "google_attempted": "2026-05-23"
      }
    },
    {
      "type": "Feature",
      "geometry": {
        "type": "Point",
        "coordinates": [
          12.3698135,
          51.3669858
        ]
      },
      "properties": {
        "id": "tk_l_osm_n9263407754",
        "name": "Easy's Markt",
        "address": {
          "street": "Coppistraße",
          "number": "81",
          "postalcode": "04157",
          "city": "Leipzig"
        },
        "sources": [
          {
            "type": "osm",
            "id": "node/9263407754",
            "version": 0
          },
          {
            "type": "gmaps",
            "id": "payment"
          },
          {
            "type": "apple",
            "id": "18418900833818415755"
          }
        ],
        "created": "2026-05-20",
        "updated": "2026-08-17",
        "hours": {
          "raw": "Mo-Fr 08:00-18:00; Sa 08:00-12:00"
        },
        "sources_by_field": {
          "name": "osm",
          "address.street": "osm",
          "address.number": "osm",
          "address.postalcode": "osm",
          "address.city": "osm",
          "hours": "osm"
        },
        "payment": {
          "contactless": "yes"
        }
      }
    },
    {
      "type": "Feature",
      "geometry": {
        "type": "Point",
        "coordinates": [
          12.360055,
          51.3756014
        ]
      },
      "properties": {
        "id": "tk_l_osm_n9264474274",
        "name": "Ihr persönliches Kaufhaus",
        "address": {
          "street": "Max-Liebermann-Straße",
          "number": "19F",
          "postalcode": "04157",
          "city": "Leipzig"
        },
        "sources": [
          {
            "type": "osm",
            "id": "node/9264474274",
            "version": 0
          },
          {
            "type": "gmaps",
            "id": "payment"
          },
          {
            "type": "apple",
            "id": "4812003502375772947"
          }
        ],
        "created": "2026-05-20",
        "updated": "2026-08-17",
        "hours": {
          "raw": "Mo-Fr 09:00-18:00; Sa 09:00-12:00"
        },
        "sources_by_field": {
          "name": "osm",
          "address.street": "osm",
          "address.number": "osm",
          "address.postalcode": "osm",
          "address.city": "osm",
          "hours": "osm"
        },
        "payment": {
          "cards": "no",
          "contactless": "yes",
          "girocard": "yes"
        }
      }
    },
    {
      "type": "Feature",
      "geometry": {
        "type": "Point",
        "coordinates": [
          12.3598064,
          51.3756917
        ]
      },
      "properties": {
        "id": "tk_l_osm_n9264571762",
        "name": "Tabak- & Presseshop im Gohlis-Park",
        "address": {
          "street": "Landsberger Straße",
          "number": "81a",
          "postalcode": "04157",
          "city": "Leipzig"
        },
        "sources": [
          {
            "type": "osm",
            "id": "node/9264571762",
            "version": 0
          },
          {
            "type": "gmaps",
            "id": "payment"
          },
          {
            "type": "apple",
            "id": "17283515647785739848"
          }
        ],
        "created": "2026-05-20",
        "updated": "2026-08-17",
        "hours": {
          "raw": "Mo-Fr 08:00-18:00; Sa 08:00-13:00"
        },
        "sources_by_field": {
          "name": "osm",
          "address.street": "osm",
          "address.number": "osm",
          "address.postalcode": "osm",
          "address.city": "osm",
          "hours": "osm"
        },
        "payment": {
          "cards": "yes",
          "contactless": "yes",
          "girocard": "yes"
        }
      }
    },
    {
      "type": "Feature",
      "geometry": {
        "type": "Point",
        "coordinates": [
          12.351284,
          51.365593
        ]
      },
      "properties": {
        "id": "tk_l_osm_n9727037235",
        "name": "Tabak & Whisky",
        "address": {
          "street": "Georg-Schumann-Straße",
          "number": "181",
          "postalcode": "04159",
          "city": "Leipzig"
        },
        "sources": [
          {
            "type": "osm",
            "id": "node/9727037235",
            "version": 0
          },
          {
            "type": "gmaps",
            "id": "payment"
          }
        ],
        "created": "2026-05-20",
        "updated": "2026-08-17",
        "hours": {
          "raw": "Mo-Th 08:00-17:00; Fr 08:00-15:00"
        },
        "payment": {
          "cash": "unknown",
          "cards": "yes",
          "contactless": "unknown",
          "girocard": "unknown"
        },
        "sources_by_field": {
          "name": "osm",
          "address.street": "osm",
          "address.number": "osm",
          "address.postalcode": "osm",
          "address.city": "osm",
          "hours": "osm",
          "payment.cash": "osm",
          "payment.cards": "osm",
          "payment.contactless": "osm",
          "payment.girocard": "osm"
        },
        "apple_id_attempted": "2026-07-26"
      }
    },
    {
      "type": "Feature",
      "geometry": {
        "type": "Point",
        "coordinates": [
          12.3749432,
          51.3414471
        ]
      },
      "properties": {
        "id": "tk_l_osm_n9895545691",
        "name": "Harki's",
        "address": {
          "street": "Katharinenstraße",
          "number": "3",
          "postalcode": "04109",
          "city": "Leipzig",
          "district": "Zentrum"
        },
        "sources": [
          {
            "type": "osm",
            "id": "node/9895545691",
            "version": 0
          },
          {
            "type": "gmaps",
            "id": "ChIJU65niIP5pkcR9OrpdNW-QDw"
          }
        ],
        "created": "2026-05-20",
        "updated": "2026-08-17",
        "payment": {
          "cash": "unknown",
          "cards": "yes",
          "contactless": "yes",
          "girocard": "yes"
        },
        "tags": [
          "barrierefrei"
        ],
        "sources_by_field": {
          "name": "osm",
          "payment.cash": "osm",
          "payment.cards": "osm",
          "payment.contactless": "google",
          "payment.girocard": "google",
          "hours": "google"
        },
        "apple_id_attempted": "2026-07-26",
        "google_attempted": "2026-06-24",
        "hours": {
          "raw": "Tu 09:00-20:30; Th 10:00-21:00; Fr 10:00-22:00; We 10:30-21:00; Mo 11:00-20:00; Sa 10:30-22:00; Su 11:00-19:00"
        }
      }
    },
    {
      "type": "Feature",
      "geometry": {
        "type": "Point",
        "coordinates": [
          12.3133483,
          51.3769987
        ]
      },
      "properties": {
        "id": "tk_l_osm_w123594038",
        "name": "ORLEN",
        "address": {
          "street": "Georg-Schumann-Straße",
          "number": "392"
        },
        "sources": [
          {
            "type": "osm",
            "id": "way/123594038",
            "version": 0
          },
          {
            "type": "gmaps",
            "id": "ChIJawmOPoNYpkcR3gj7OKVeKxE"
          }
        ],
        "created": "2026-05-20",
        "updated": "2026-08-17",
        "sources_by_field": {
          "name": "osm",
          "address.street": "osm",
          "address.number": "osm",
          "hours": "google"
        },
        "apple_id_attempted": "2026-07-26",
        "google_attempted": "2026-07-26",
        "hours": {
          "raw": "Tu 03:00-02:00; Th 03:00-02:00; Fr 03:00-02:00; We 03:00-02:00; Mo 03:00-02:00; Sa 03:00-02:00; Su 03:00-02:00"
        },
        "payment": {
          "cards": "yes",
          "contactless": "yes",
          "girocard": "yes"
        }
      }
    },
    {
      "type": "Feature",
      "geometry": {
        "type": "Point",
        "coordinates": [
          12.3105219,
          51.3225443
        ]
      },
      "properties": {
        "id": "tk_l_osm_w23270334",
        "name": "Getränkekultur",
        "address": {
          "street": "Brünner Straße",
          "number": "8",
          "postalcode": "04209",
          "city": "Leipzig"
        },
        "sources": [
          {
            "type": "osm",
            "id": "way/23270334",
            "version": 0
          },
          {
            "type": "gmaps",
            "id": "payment"
          }
        ],
        "created": "2026-05-20",
        "updated": "2026-08-17",
        "hours": {
          "raw": "Mo-Fr 10:00-17:00"
        },
        "sources_by_field": {
          "name": "osm",
          "address.street": "osm",
          "address.number": "osm",
          "address.postalcode": "osm",
          "address.city": "osm",
          "hours": "osm"
        },
        "apple_id_attempted": "2026-07-26",
        "payment": {
          "cards": "no",
          "contactless": "yes",
          "girocard": "yes"
        }
      }
    },
    {
      "type": "Feature",
      "geometry": {
        "type": "Point",
        "coordinates": [
          12.3739012,
          51.3206319
        ]
      },
      "properties": {
        "id": "tk_l_osm_w40088432",
        "name": "Die Insel",
        "address": {
          "street": "Karl-Liebknecht-Straße",
          "number": "103a",
          "postalcode": "04275",
          "city": "Leipzig",
          "district": "Süd"
        },
        "sources": [
          {
            "type": "osm",
            "id": "way/40088432",
            "version": 0
          },
          {
            "type": "hopfenstop",
            "id": "20ee3439-de56-42fd-bc86-9df0f0855cd6"
          },
          {
            "type": "gmaps",
            "id": "payment"
          }
        ],
        "created": "2026-05-19",
        "updated": "2026-08-17",
        "hours": {
          "raw": "Mo-Su 07:00-22:00"
        },
        "sources_by_field": {
          "name": "osm",
          "address.street": "osm",
          "address.number": "osm",
          "address.postalcode": "osm",
          "address.city": "osm",
          "hours": "osm",
          "description": "hopfenstop",
          "address.district": "hopfenstop"
        },
        "apple_id_attempted": "2026-07-26",
        "description": "Schöner Kiosk auf einer Verkehrsinsel",
        "payment": {
          "cards": "no",
          "contactless": "yes",
          "girocard": "yes"
        },
        "tags": [
          "mate",
          "sekt",
          "zeitschriften"
        ]
      }
    },
    {
      "type": "Feature",
      "geometry": {
        "type": "Point",
        "coordinates": [
          12.3655079,
          51.3620109
        ]
      },
      "properties": {
        "id": "tk_l_osm_w91674267",
        "name": "teo kiosk 20",
        "address": {
          "street": "Lindenthaler Straße",
          "number": "20",
          "postalcode": "04155",
          "city": "Leipzig"
        },
        "sources": [
          {
            "type": "osm",
            "id": "way/91674267",
            "version": 0
          },
          {
            "type": "gmaps",
            "id": "payment"
          },
          {
            "type": "apple",
            "id": "5818838576604148033"
          }
        ],
        "created": "2026-05-20",
        "updated": "2026-08-17",
        "hours": {
          "raw": "Mo-Th 11:00-24:00, Fr-Su 11:00-01:00"
        },
        "sources_by_field": {
          "name": "osm",
          "address.street": "osm",
          "address.number": "osm",
          "address.postalcode": "osm",
          "address.city": "osm",
          "hours": "osm"
        },
        "payment": {
          "cards": "no",
          "contactless": "yes",
          "girocard": "yes"
        }
      }
    },
    {
      "type": "Feature",
      "geometry": {
        "type": "Point",
        "coordinates": [
          12.3298723,
          51.339811
        ]
      },
      "properties": {
        "id": "tk_l_osm_n10053449615",
        "name": "Moro",
        "address": {
          "street": "Erich-Köhn-Straße",
          "number": "51"
        },
        "sources": [
          {
            "type": "osm",
            "id": "node/10053449615",
            "version": 0
          }
        ],
        "created": "2026-05-20",
        "updated": "2026-08-17",
        "hours": {
          "raw": "Mo-Fr 14:00-19:00"
        },
        "sources_by_field": {
          "name": "osm",
          "address.street": "osm",
          "address.number": "osm",
          "hours": "osm"
        },
        "apple_id_attempted": "2026-07-26",
        "google_attempted": "2026-07-26",
        "payment": {}
      }
    },
    {
      "type": "Feature",
      "geometry": {
        "type": "Point",
        "coordinates": [
          12.3731441,
          51.3180538
        ]
      },
      "properties": {
        "id": "tk_l_osm_n11832848670",
        "name": "Ginos",
        "address": {
          "street": "Karl-Liebknecht-Straße",
          "number": "96"
        },
        "sources": [
          {
            "type": "osm",
            "id": "node/11832848670",
            "version": 0
          }
        ],
        "created": "2026-05-20",
        "updated": "2026-08-17",
        "tags": [
          "barrierefrei",
          "draussen"
        ],
        "sources_by_field": {
          "name": "osm",
          "address.street": "osm",
          "address.number": "osm"
        },
        "apple_id_attempted": "2026-07-26",
        "google_attempted": "2026-07-26",
        "payment": {}
      }
    },
    {
      "type": "Feature",
      "geometry": {
        "type": "Point",
        "coordinates": [
          12.3798956,
          51.345678
        ]
      },
      "properties": {
        "id": "tk_l_osm_n11834454643",
        "name": "ServiceStore DB",
        "address": {},
        "sources": [
          {
            "type": "osm",
            "id": "node/11834454643",
            "version": 0
          }
        ],
        "created": "2026-05-20",
        "updated": "2026-08-17",
        "hours": {
          "raw": "Mo-Su 08:00-19:00"
        },
        "sources_by_field": {
          "name": "osm",
          "hours": "osm"
        },
        "apple_id_attempted": "2026-07-26",
        "google_attempted": "2026-08-05",
        "payment": {}
      }
    },
    {
      "type": "Feature",
      "geometry": {
        "type": "Point",
        "coordinates": [
          12.3979398,
          51.3458922
        ]
      },
      "properties": {
        "id": "tk_l_osm_n12869390484",
        "name": "Endstation Kiosk",
        "address": {},
        "sources": [
          {
            "type": "osm",
            "id": "node/12869390484",
            "version": 0
          }
        ],
        "created": "2026-07-20",
        "updated": "2026-08-17",
        "sources_by_field": {
          "name": "osm"
        },
        "apple_id_attempted": "2026-07-26",
        "google_attempted": "2026-07-26",
        "payment": {}
      }
    },
    {
      "type": "Feature",
      "geometry": {
        "type": "Point",
        "coordinates": [
          12.3950507,
          51.3366342
        ]
      },
      "properties": {
        "id": "tk_l_osm_n13123485689",
        "name": "ippuku Pop-Up",
        "address": {
          "street": "Täubchenweg",
          "number": "10",
          "postalcode": "04317",
          "city": "Leipzig"
        },
        "sources": [
          {
            "type": "osm",
            "id": "node/13123485689",
            "version": 0
          }
        ],
        "created": "2026-05-20",
        "updated": "2026-08-17",
        "hours": {
          "raw": "Sa,Su 12:00-20:00"
        },
        "sources_by_field": {
          "name": "osm",
          "address.street": "osm",
          "address.number": "osm",
          "address.postalcode": "osm",
          "address.city": "osm",
          "hours": "osm"
        },
        "apple_id_attempted": "2026-07-26",
        "google_attempted": "2026-08-05",
        "payment": {}
      }
    },
    {
      "type": "Feature",
      "geometry": {
        "type": "Point",
        "coordinates": [
          12.3201417,
          51.3702512
        ]
      },
      "properties": {
        "id": "tk_l_osm_n5826711120",
        "name": "Schmalzbäckerei",
        "address": {},
        "sources": [
          {
            "type": "osm",
            "id": "node/5826711120",
            "version": 0
          }
        ],
        "created": "2026-05-20",
        "updated": "2026-08-17",
        "payment": {
          "cash": "unknown",
          "cards": "no",
          "contactless": "unknown",
          "girocard": "unknown"
        },
        "tags": [
          "barrierefrei"
        ],
        "sources_by_field": {
          "name": "osm",
          "payment.cash": "osm",
          "payment.cards": "osm",
          "payment.contactless": "osm",
          "payment.girocard": "osm"
        },
        "apple_id_attempted": "2026-07-26",
        "google_attempted": "2026-08-05"
      }
    },
    {
      "type": "Feature",
      "geometry": {
        "type": "Point",
        "coordinates": [
          12.329602,
          51.320465
        ]
      },
      "properties": {
        "id": "tk_l_osm_n624604098",
        "name": "Adlernest",
        "address": {
          "street": "Antonienstraße",
          "number": "24a",
          "postalcode": "04229",
          "city": "Leipzig"
        },
        "sources": [
          {
            "type": "osm",
            "id": "node/624604098",
            "version": 0
          }
        ],
        "created": "2026-05-20",
        "updated": "2026-08-17",
        "hours": {
          "raw": "PH,Mo-Su 09:30-20:30"
        },
        "tags": [
          "barrierefrei"
        ],
        "sources_by_field": {
          "name": "osm",
          "address.street": "osm",
          "address.number": "osm",
          "address.postalcode": "osm",
          "address.city": "osm",
          "hours": "osm"
        },
        "apple_id_attempted": "2026-07-26",
        "google_attempted": "2026-08-05",
        "payment": {}
      }
    },
    {
      "type": "Feature",
      "geometry": {
        "type": "Point",
        "coordinates": [
          12.3438411,
          51.3233191
        ]
      },
      "properties": {
        "id": "tk_l_osm_n671557833",
        "name": "Lösch Depot",
        "address": {},
        "sources": [
          {
            "type": "osm",
            "id": "node/671557833",
            "version": 0
          }
        ],
        "created": "2026-05-20",
        "updated": "2026-08-17",
        "hours": {
          "raw": "Sa 08:00-14:00; Mo-Fr 08:00-19:00"
        },
        "payment": {
          "cash": "yes",
          "cards": "yes",
          "contactless": "unknown",
          "girocard": "unknown"
        },
        "tags": [
          "barrierefrei"
        ],
        "sources_by_field": {
          "name": "osm",
          "hours": "osm",
          "payment.cash": "osm",
          "payment.cards": "osm",
          "payment.contactless": "osm",
          "payment.girocard": "osm"
        },
        "apple_id_attempted": "2026-07-26"
      }
    },
    {
      "type": "Feature",
      "geometry": {
        "type": "Point",
        "coordinates": [
          12.3746267,
          51.3327622
        ]
      },
      "properties": {
        "id": "tk_l_osm_n683113769",
        "name": "Getränkefeinkost",
        "address": {
          "street": "Härtelstraße",
          "number": "23",
          "postalcode": "04107",
          "city": "Leipzig"
        },
        "sources": [
          {
            "type": "osm",
            "id": "node/683113769",
            "version": 0
          }
        ],
        "created": "2026-05-20",
        "updated": "2026-08-17",
        "hours": {
          "raw": "Mo-Fr 13:00-20:00; Sa 11:00-20:00"
        },
        "payment": {
          "cash": "yes",
          "cards": "yes",
          "contactless": "unknown",
          "girocard": "yes"
        },
        "sources_by_field": {
          "name": "osm",
          "address.street": "osm",
          "address.number": "osm",
          "address.postalcode": "osm",
          "address.city": "osm",
          "hours": "osm",
          "payment.cash": "osm",
          "payment.cards": "osm",
          "payment.contactless": "osm",
          "payment.girocard": "osm"
        },
        "apple_id_attempted": "2026-07-26"
      }
    },
    {
      "type": "Feature",
      "geometry": {
        "type": "Point",
        "coordinates": [
          12.4264565,
          51.3045924
        ]
      },
      "properties": {
        "id": "tk_l_osm_n9914794452",
        "name": "Lösch Depot",
        "address": {
          "street": "Bockstraße",
          "number": "5",
          "postalcode": "04289",
          "city": "Leipzig"
        },
        "sources": [
          {
            "type": "osm",
            "id": "node/9914794452",
            "version": 0
          }
        ],
        "created": "2026-05-20",
        "updated": "2026-08-17",
        "hours": {
          "raw": "Mo-Fr 08:00-19:00; Sa 08:00-14:00"
        },
        "payment": {
          "cash": "yes",
          "cards": "yes",
          "contactless": "unknown",
          "girocard": "unknown"
        },
        "tags": [
          "barrierefrei"
        ],
        "sources_by_field": {
          "name": "osm",
          "address.street": "osm",
          "address.number": "osm",
          "address.postalcode": "osm",
          "address.city": "osm",
          "hours": "osm",
          "payment.cash": "osm",
          "payment.cards": "osm",
          "payment.contactless": "osm",
          "payment.girocard": "osm"
        },
        "apple_id_attempted": "2026-07-26"
      }
    },
    {
      "type": "Feature",
      "geometry": {
        "type": "Point",
        "coordinates": [
          12.3865085,
          51.3432934
        ]
      },
      "properties": {
        "id": "tk_l_osm_n9965516782",
        "name": "Wa & Mi Kiosk",
        "address": {},
        "sources": [
          {
            "type": "osm",
            "id": "node/9965516782",
            "version": 0
          }
        ],
        "created": "2026-05-20",
        "updated": "2026-08-17",
        "hours": {
          "raw": "PH,Mo-Su 09:00-01:00"
        },
        "sources_by_field": {
          "name": "osm",
          "hours": "osm"
        },
        "apple_id_attempted": "2026-07-26",
        "google_attempted": "2026-08-05",
        "payment": {}
      }
    },
    {
      "type": "Feature",
      "geometry": {
        "type": "Point",
        "coordinates": [
          12.4100133,
          51.3395644
        ]
      },
      "properties": {
        "id": "tk_l_osm_n9992772908",
        "name": "Brezel's Kiosk & GLS pick up",
        "address": {
          "street": "Bernhardstraße",
          "number": "25",
          "postalcode": "04315",
          "city": "Leipzig"
        },
        "sources": [
          {
            "type": "osm",
            "id": "node/9992772908",
            "version": 0
          }
        ],
        "created": "2026-05-20",
        "updated": "2026-08-17",
        "hours": {
          "raw": "Mo-Sa 14:00-22:00; Su 16:00-22:00"
        },
        "payment": {
          "cash": "yes",
          "cards": "yes",
          "contactless": "yes",
          "girocard": "unknown"
        },
        "sources_by_field": {
          "name": "osm",
          "address.street": "osm",
          "address.number": "osm",
          "address.postalcode": "osm",
          "address.city": "osm",
          "hours": "osm",
          "payment.cash": "osm",
          "payment.cards": "osm",
          "payment.contactless": "osm",
          "payment.girocard": "osm"
        },
        "apple_id_attempted": "2026-07-26"
      }
    },
    {
      "type": "Feature",
      "geometry": {
        "type": "Point",
        "coordinates": [
          12.3377787,
          51.3351706
        ]
      },
      "properties": {
        "id": "tk_l_osm_w239285011",
        "name": "Total access",
        "address": {
          "street": "Lützner Straße",
          "city": "Leipzig"
        },
        "sources": [
          {
            "type": "osm",
            "id": "way/239285011",
            "version": 0
          }
        ],
        "created": "2026-05-20",
        "updated": "2026-08-17",
        "hours": {
          "raw": "Mo-Fr 06:00-20:30; Sa,Su,PH 09:00-20:30"
        },
        "tags": [
          "barrierefrei"
        ],
        "sources_by_field": {
          "name": "osm",
          "address.street": "osm",
          "address.city": "osm",
          "hours": "osm"
        },
        "apple_id_attempted": "2026-07-26",
        "google_attempted": "2026-08-05",
        "payment": {}
      }
    },
    {
      "type": "Feature",
      "geometry": {
        "type": "Point",
        "coordinates": [
          12.3766889,
          51.3689807
        ]
      },
      "properties": {
        "id": "tk_l_osm_w319156162",
        "name": "Blauer Kiosk",
        "address": {
          "street": "Virchowstraße",
          "number": "30",
          "postalcode": "04157",
          "city": "Leipzig"
        },
        "sources": [
          {
            "type": "osm",
            "id": "way/319156162",
            "version": 0
          }
        ],
        "created": "2026-05-20",
        "updated": "2026-08-17",
        "hours": {
          "raw": "Mo-Fr 06:00-21:00; Sa 07:00-21:00"
        },
        "sources_by_field": {
          "name": "osm",
          "address.street": "osm",
          "address.number": "osm",
          "address.postalcode": "osm",
          "address.city": "osm",
          "hours": "osm"
        },
        "apple_id_attempted": "2026-07-26",
        "google_attempted": "2026-08-05",
        "payment": {}
      }
    }
  ]
}
