{
  "type": "FeatureCollection",
  "features": [
    {
      "type": "Feature",
      "geometry": {
        "type": "Point",
        "coordinates": [
          12.1411162,
          54.0873198
        ]
      },
      "properties": {
        "id": "tk_fr_0773",
        "name": "Imbiss am Steintor",
        "description": "Asia-Imbiss",
        "address": {
          "street": "Steinstraße",
          "number": "12",
          "postalcode": "18055",
          "city": "Rostock",
          "district": "Mitte"
        },
        "sources": [
          {
            "type": "hopfenstop",
            "id": "383b85b3-f7cb-4138-b84c-d2fd6156c137"
          }
        ],
        "created": "2026-05-19",
        "updated": "2026-05-19"
      }
    }
  ]
}
