{
  "type": "FeatureCollection",
  "features": [
    {
      "type": "Feature",
      "geometry": {
        "type": "Point",
        "coordinates": [
          6.1323881,
          49.8544085
        ]
      },
      "properties": {
        "id": "tk_lur_osm_n12163277971",
        "name": "Munhowen Drinx",
        "address": {},
        "sources": [
          {
            "type": "osm",
            "id": "node/12163277971",
            "version": 0
          },
          {
            "type": "gmaps",
            "id": "ChIJATM7lgNWlUcRO8nFMidmcOo"
          }
        ],
        "created": "2026-05-29",
        "updated": "2026-06-01",
        "hours": {
          "raw": "Tu 09:30-13:30,14:00-18:00; Th 09:30-13:30,14:00-18:00; Fr 09:30-13:30,14:00-18:00; We 09:30-13:30,14:00-18:00; Mo 09:30-13:30,14:00-18:00; Sa 09:30-13:30,14:00-18:00"
        },
        "sources_by_field": {
          "name": "osm",
          "hours": "google",
          "payment.cards": "google",
          "payment.contactless": "google",
          "payment.girocard": "google"
        },
        "apple_id_attempted": "2026-05-29",
        "google_attempted": "2026-05-29",
        "payment": {
          "cards": "no",
          "contactless": "yes",
          "girocard": "yes"
        }
      }
    },
    {
      "type": "Feature",
      "geometry": {
        "type": "Point",
        "coordinates": [
          6.107038,
          49.5999166
        ]
      },
      "properties": {
        "id": "tk_lur_osm_n13078213888",
        "name": "kkiosk",
        "address": {},
        "sources": [
          {
            "type": "osm",
            "id": "node/13078213888",
            "version": 0
          },
          {
            "type": "gmaps",
            "id": "ChIJu_pAxTpJlUcRM8pbpV9SLCQ"
          }
        ],
        "created": "2026-05-29",
        "updated": "2026-06-01",
        "hours": {
          "raw": "Tu 06:00-18:00; Th 06:00-18:00; Fr 06:00-18:00; We 06:00-18:00; Mo 06:00-18:00"
        },
        "sources_by_field": {
          "name": "osm",
          "hours": "google",
          "payment.cards": "google",
          "payment.contactless": "google",
          "payment.girocard": "google"
        },
        "apple_id_attempted": "2026-05-29",
        "google_attempted": "2026-05-29",
        "payment": {
          "cards": "yes",
          "contactless": "yes",
          "girocard": "yes"
        }
      }
    },
    {
      "type": "Feature",
      "geometry": {
        "type": "Point",
        "coordinates": [
          6.0090987,
          49.5050815
        ]
      },
      "properties": {
        "id": "tk_lur_osm_n1775056856",
        "name": "Maison Schneider",
        "address": {},
        "sources": [
          {
            "type": "osm",
            "id": "node/1775056856",
            "version": 0
          },
          {
            "type": "apple",
            "id": "8907710737569056339"
          }
        ],
        "created": "2026-05-29",
        "updated": "2026-06-01",
        "sources_by_field": {
          "name": "osm",
          "hours": "apple",
          "payment.cards": "apple",
          "payment.contactless": "apple"
        },
        "apple_attempted": "2026-05-29",
        "hours": {
          "raw": "Mo-Fr 07:00-12:00,13:45-18:15; Sa 08:00-12:00"
        },
        "payment": {
          "cards": "yes",
          "contactless": "yes"
        }
      }
    },
    {
      "type": "Feature",
      "geometry": {
        "type": "Point",
        "coordinates": [
          6.1334298,
          49.6025895
        ]
      },
      "properties": {
        "id": "tk_lur_osm_n1798571654",
        "name": "Tabac & Shop",
        "address": {},
        "sources": [
          {
            "type": "osm",
            "id": "node/1798571654",
            "version": 0
          },
          {
            "type": "gmaps",
            "id": "ChIJIcgsKtBIlUcRfYEhihIeZgo"
          }
        ],
        "created": "2026-05-29",
        "updated": "2026-06-01",
        "hours": {
          "raw": "Tu 08:30-18:00; Th 08:30-18:00; Fr 08:30-18:00; We 08:30-18:00; Mo 08:30-18:00; Sa 08:30-18:00"
        },
        "sources_by_field": {
          "name": "osm",
          "hours": "google",
          "payment.cards": "google",
          "payment.contactless": "google",
          "payment.girocard": "google"
        },
        "apple_id_attempted": "2026-05-29",
        "google_attempted": "2026-05-29",
        "payment": {
          "cards": "no",
          "contactless": "yes",
          "girocard": "yes"
        }
      }
    },
    {
      "type": "Feature",
      "geometry": {
        "type": "Point",
        "coordinates": [
          5.8973515,
          49.561616
        ]
      },
      "properties": {
        "id": "tk_lur_osm_n265746893",
        "name": "Total Bascharage",
        "address": {
          "street": "Avenue de Luxembourg",
          "number": "2",
          "city": "Bascharage"
        },
        "sources": [
          {
            "type": "osm",
            "id": "node/265746893",
            "version": 0
          },
          {
            "type": "apple",
            "id": "2516165841713058110"
          },
          {
            "type": "gmaps",
            "id": "ChIJg9LlUqS16kcRf2QtVFJQRbs"
          }
        ],
        "created": "2026-05-29",
        "updated": "2026-06-01",
        "tags": [
          "barrierefrei"
        ],
        "sources_by_field": {
          "name": "osm",
          "address.street": "osm",
          "address.number": "osm",
          "address.city": "osm",
          "hours": "google",
          "payment.cards": "google",
          "payment.contactless": "google",
          "payment.girocard": "google"
        },
        "apple_attempted": "2026-05-29",
        "google_attempted": "2026-05-29",
        "hours": {
          "raw": "Tu 04:30-00:00; Th 04:30-00:00; Fr 04:30-00:00; We 04:30-00:00; Mo 04:30-00:00; Sa 04:30-00:00; Su 04:30-00:00"
        },
        "payment": {
          "cards": "no",
          "contactless": "yes",
          "girocard": "yes"
        }
      }
    },
    {
      "type": "Feature",
      "geometry": {
        "type": "Point",
        "coordinates": [
          5.8983407,
          49.5623539
        ]
      },
      "properties": {
        "id": "tk_lur_osm_n267495881",
        "name": "Esso",
        "address": {
          "street": "Avenue de Luxembourg",
          "number": "5",
          "city": "Bascharage"
        },
        "sources": [
          {
            "type": "osm",
            "id": "node/267495881",
            "version": 0
          },
          {
            "type": "gmaps",
            "id": "ChIJg9LlUqS16kcR4lfAMv7ErhY"
          }
        ],
        "created": "2026-05-29",
        "updated": "2026-06-01",
        "tags": [
          "barrierefrei"
        ],
        "sources_by_field": {
          "name": "osm",
          "address.street": "osm",
          "address.number": "osm",
          "address.city": "osm",
          "hours": "google",
          "payment.cards": "google",
          "payment.contactless": "google",
          "payment.girocard": "google"
        },
        "apple_id_attempted": "2026-05-29",
        "google_attempted": "2026-05-29",
        "hours": {
          "raw": "Tu 05:00-23:00; Th 05:00-23:00; Fr 05:00-23:00; We 05:00-23:00; Mo 05:00-23:00; Sa 05:00-23:00; Su 05:00-23:00"
        },
        "payment": {
          "cards": "yes",
          "contactless": "yes",
          "girocard": "yes"
        }
      }
    },
    {
      "type": "Feature",
      "geometry": {
        "type": "Point",
        "coordinates": [
          6.20395,
          49.9370293
        ]
      },
      "properties": {
        "id": "tk_lur_osm_n290096356",
        "name": "Veiner Gedrinkshandel",
        "address": {
          "street": "Rue du Vieux Marché",
          "number": "27",
          "city": "Vianden"
        },
        "sources": [
          {
            "type": "osm",
            "id": "node/290096356",
            "version": 0
          },
          {
            "type": "apple",
            "id": "989088838968060719"
          }
        ],
        "created": "2026-05-29",
        "updated": "2026-06-01",
        "sources_by_field": {
          "name": "osm",
          "address.street": "osm",
          "address.number": "osm",
          "address.city": "osm",
          "hours": "apple"
        },
        "apple_attempted": "2026-05-29",
        "google_attempted": "2026-05-29",
        "hours": {
          "raw": "Mo-Fr 08:00-17:00"
        },
        "payment": {}
      }
    },
    {
      "type": "Feature",
      "geometry": {
        "type": "Point",
        "coordinates": [
          6.0873213,
          49.4835549
        ]
      },
      "properties": {
        "id": "tk_lur_osm_n4069880593",
        "name": "Le Monde du Livre",
        "address": {},
        "sources": [
          {
            "type": "osm",
            "id": "node/4069880593",
            "version": 0
          },
          {
            "type": "gmaps",
            "id": "ChIJL31cvPs2lUcRMQhee4IRlI0"
          }
        ],
        "created": "2026-05-29",
        "updated": "2026-06-01",
        "hours": {
          "raw": "Mo-Th 07:00-15:00; Fr 07:00-14:00"
        },
        "sources_by_field": {
          "name": "osm",
          "hours": "osm",
          "payment.cards": "google",
          "payment.contactless": "google",
          "payment.girocard": "google"
        },
        "apple_id_attempted": "2026-05-29",
        "google_attempted": "2026-05-29",
        "payment": {
          "cards": "no",
          "contactless": "yes",
          "girocard": "yes"
        }
      }
    },
    {
      "type": "Feature",
      "geometry": {
        "type": "Point",
        "coordinates": [
          6.2096726,
          49.6162358
        ]
      },
      "properties": {
        "id": "tk_lur_osm_n4365535390",
        "name": "drinx",
        "address": {},
        "sources": [
          {
            "type": "osm",
            "id": "node/4365535390",
            "version": 0
          },
          {
            "type": "gmaps",
            "id": "ChIJnxB6otJFlUcRWcOqgleZhhE"
          }
        ],
        "created": "2026-05-29",
        "updated": "2026-06-01",
        "sources_by_field": {
          "name": "osm",
          "hours": "google",
          "payment.cards": "google",
          "payment.contactless": "google",
          "payment.girocard": "google"
        },
        "apple_id_attempted": "2026-05-29",
        "google_attempted": "2026-05-29",
        "hours": {
          "raw": "Tu 09:00-18:00; Th 09:00-18:00; Fr 09:00-18:00; We 09:00-18:00; Mo 09:00-18:00; Sa 09:00-18:00"
        },
        "payment": {
          "cards": "no",
          "contactless": "yes",
          "girocard": "yes"
        }
      }
    },
    {
      "type": "Feature",
      "geometry": {
        "type": "Point",
        "coordinates": [
          6.2185238,
          49.925855
        ]
      },
      "properties": {
        "id": "tk_lur_osm_n9671610841",
        "name": "Veiner Gedrinkshandel",
        "address": {
          "street": "Zone d'Activité Économique route de Bettel",
          "number": "3",
          "city": "Vianden"
        },
        "sources": [
          {
            "type": "osm",
            "id": "node/9671610841",
            "version": 0
          },
          {
            "type": "gmaps",
            "id": "ChIJdTHyCH37v0cRB7nOibfEyWE"
          }
        ],
        "created": "2026-05-29",
        "updated": "2026-06-01",
        "sources_by_field": {
          "name": "osm",
          "address.street": "osm",
          "address.number": "osm",
          "address.city": "osm",
          "hours": "google"
        },
        "apple_id_attempted": "2026-05-29",
        "google_attempted": "2026-05-29",
        "hours": {
          "raw": "Tu 08:00-12:00,13:00-17:00; Th 08:00-12:00,13:00-17:00; Fr 08:00-12:00,13:00-17:00; We 08:00-12:00,13:00-17:00; Mo 08:00-12:00,13:00-17:00"
        },
        "payment": {}
      }
    },
    {
      "type": "Feature",
      "geometry": {
        "type": "Point",
        "coordinates": [
          6.2194341,
          49.932569
        ]
      },
      "properties": {
        "id": "tk_lur_osm_w158932301",
        "name": "Q8 Shop Vinandy",
        "address": {
          "street": "Rue de la Frontière",
          "number": "11",
          "city": "Vianden"
        },
        "sources": [
          {
            "type": "osm",
            "id": "way/158932301",
            "version": 0
          },
          {
            "type": "apple",
            "id": "4640397985707963621"
          }
        ],
        "created": "2026-05-29",
        "updated": "2026-06-01",
        "hours": {
          "raw": "Mo-Su 00:00-24:00"
        },
        "sources_by_field": {
          "name": "osm",
          "address.street": "osm",
          "address.number": "osm",
          "address.city": "osm",
          "hours": "apple",
          "payment.cards": "apple",
          "payment.contactless": "apple"
        },
        "apple_attempted": "2026-05-29",
        "payment": {
          "cards": "yes",
          "contactless": "yes"
        }
      }
    },
    {
      "type": "Feature",
      "geometry": {
        "type": "Point",
        "coordinates": [
          6.1074625,
          49.6068678
        ]
      },
      "properties": {
        "id": "tk_lur_osm_w197848520",
        "name": "MANZOKU Shop",
        "address": {
          "street": "Avenue du 10 septembre",
          "number": "162",
          "city": "Luxembourg"
        },
        "sources": [
          {
            "type": "osm",
            "id": "way/197848520",
            "version": 0
          },
          {
            "type": "apple",
            "id": "1738440737383298634"
          }
        ],
        "created": "2026-05-29",
        "updated": "2026-06-01",
        "sources_by_field": {
          "name": "osm",
          "address.street": "osm",
          "address.number": "osm",
          "address.city": "osm",
          "hours": "apple",
          "payment.cards": "apple",
          "payment.contactless": "apple"
        },
        "apple_attempted": "2026-05-29",
        "hours": {
          "raw": "Tu-Fr 11:00-18:30; Sa 10:00-17:30"
        },
        "payment": {
          "cards": "yes",
          "contactless": "yes"
        }
      }
    },
    {
      "type": "Feature",
      "geometry": {
        "type": "Point",
        "coordinates": [
          5.8861988,
          49.5326809
        ]
      },
      "properties": {
        "id": "tk_lur_osm_w25586929",
        "name": "Hôpital Intercommunal Princesse Marie-Astrid",
        "address": {
          "street": "Avenue de la Liberté",
          "number": "187",
          "city": "Niederkorn"
        },
        "sources": [
          {
            "type": "osm",
            "id": "way/25586929",
            "version": 0
          },
          {
            "type": "apple",
            "id": "14300763342390649932"
          },
          {
            "type": "gmaps",
            "id": "ChIJvbymXXLK6kcRimxZiJMHF1M"
          }
        ],
        "created": "2026-05-29",
        "updated": "2026-06-01",
        "hours": {
          "raw": "Sa-Su 08:00-20:00; Mo-Fr 07:00-20:00"
        },
        "tags": [
          "barrierefrei"
        ],
        "sources_by_field": {
          "name": "osm",
          "address.street": "osm",
          "address.number": "osm",
          "address.city": "osm",
          "hours": "apple",
          "payment.cards": "google",
          "payment.contactless": "google",
          "payment.girocard": "google"
        },
        "apple_attempted": "2026-05-29",
        "google_attempted": "2026-05-29",
        "payment": {
          "cards": "yes",
          "contactless": "yes",
          "girocard": "yes"
        }
      }
    },
    {
      "type": "Feature",
      "geometry": {
        "type": "Point",
        "coordinates": [
          6.3973545,
          49.6530887
        ]
      },
      "properties": {
        "id": "tk_lur_osm_w263208967",
        "name": "Ruppert Sarl Oberdonven",
        "address": {
          "street": "Rue Brill",
          "number": "6C",
          "city": "Oberdonven"
        },
        "sources": [
          {
            "type": "osm",
            "id": "way/263208967",
            "version": 0
          },
          {
            "type": "apple",
            "id": "16428289194254482957"
          }
        ],
        "created": "2026-05-29",
        "updated": "2026-06-01",
        "hours": {
          "raw": "Mo-Fr 09:00-12:00,13:00-18:00; Sa 08:00-17:00"
        },
        "sources_by_field": {
          "name": "osm",
          "address.street": "osm",
          "address.number": "osm",
          "address.city": "osm",
          "hours": "apple",
          "payment.cards": "apple",
          "payment.contactless": "apple"
        },
        "apple_attempted": "2026-05-29",
        "payment": {
          "cards": "yes",
          "contactless": "yes"
        }
      }
    },
    {
      "type": "Feature",
      "geometry": {
        "type": "Point",
        "coordinates": [
          6.1256596,
          50.0497417
        ]
      },
      "properties": {
        "id": "tk_lur_osm_w474519044",
        "name": "Station Service Q8 SA",
        "address": {
          "street": "Dosberbréck",
          "number": "1",
          "city": "Rodershausen"
        },
        "sources": [
          {
            "type": "osm",
            "id": "way/474519044",
            "version": 0
          },
          {
            "type": "apple",
            "id": "5416199290002648418"
          }
        ],
        "created": "2026-05-29",
        "updated": "2026-06-01",
        "hours": {
          "raw": "Sa-Su 08:00-20:00; Mo-Fr 07:00-20:00"
        },
        "sources_by_field": {
          "name": "osm",
          "address.street": "osm",
          "address.number": "osm",
          "address.city": "osm",
          "hours": "apple",
          "payment.cards": "apple",
          "payment.contactless": "apple"
        },
        "apple_attempted": "2026-05-29",
        "payment": {
          "cards": "yes",
          "contactless": "yes"
        }
      }
    },
    {
      "type": "Feature",
      "geometry": {
        "type": "Point",
        "coordinates": [
          5.8213007,
          49.5463583
        ]
      },
      "properties": {
        "id": "tk_lur_osm_n1072258222",
        "name": "DrinX by Munhowen",
        "address": {},
        "sources": [
          {
            "type": "osm",
            "id": "node/1072258222",
            "version": 0
          }
        ],
        "created": "2026-05-29",
        "updated": "2026-06-01",
        "sources_by_field": {
          "name": "osm"
        },
        "apple_id_attempted": "2026-05-29",
        "google_attempted": "2026-05-29",
        "payment": {}
      }
    },
    {
      "type": "Feature",
      "geometry": {
        "type": "Point",
        "coordinates": [
          5.8673686,
          49.5555163
        ]
      },
      "properties": {
        "id": "tk_lur_osm_n11929384970",
        "name": "Cactus Drink Shop",
        "address": {},
        "sources": [
          {
            "type": "osm",
            "id": "node/11929384970",
            "version": 0
          }
        ],
        "created": "2026-05-29",
        "updated": "2026-06-01",
        "sources_by_field": {
          "name": "osm"
        },
        "apple_id_attempted": "2026-05-29",
        "google_attempted": "2026-05-29",
        "payment": {}
      }
    },
    {
      "type": "Feature",
      "geometry": {
        "type": "Point",
        "coordinates": [
          6.1274931,
          49.850008
        ]
      },
      "properties": {
        "id": "tk_lur_osm_n12450064949",
        "name": "Drinkshop",
        "address": {},
        "sources": [
          {
            "type": "osm",
            "id": "node/12450064949",
            "version": 0
          }
        ],
        "created": "2026-05-29",
        "updated": "2026-06-01",
        "sources_by_field": {
          "name": "osm"
        },
        "apple_id_attempted": "2026-05-29",
        "google_attempted": "2026-05-29",
        "payment": {}
      }
    },
    {
      "type": "Feature",
      "geometry": {
        "type": "Point",
        "coordinates": [
          6.1273949,
          49.6119754
        ]
      },
      "properties": {
        "id": "tk_lur_osm_n13281370029",
        "name": "Douros",
        "address": {
          "street": "Rue Beck",
          "number": "16",
          "city": "Luxembourg"
        },
        "sources": [
          {
            "type": "osm",
            "id": "node/13281370029",
            "version": 0
          }
        ],
        "created": "2026-05-29",
        "updated": "2026-06-01",
        "hours": {
          "raw": "Mo-Fr 05:45-18:00; Sa 07:00-18:00; Su off; PH off"
        },
        "sources_by_field": {
          "name": "osm",
          "address.street": "osm",
          "address.number": "osm",
          "address.city": "osm",
          "hours": "osm"
        },
        "apple_id_attempted": "2026-05-29",
        "google_attempted": "2026-05-29",
        "payment": {}
      }
    },
    {
      "type": "Feature",
      "geometry": {
        "type": "Point",
        "coordinates": [
          6.1307282,
          49.5983006
        ]
      },
      "properties": {
        "id": "tk_lur_osm_n13788221678",
        "name": "kkiosk",
        "address": {},
        "sources": [
          {
            "type": "osm",
            "id": "node/13788221678",
            "version": 0
          }
        ],
        "created": "2026-05-29",
        "updated": "2026-06-01",
        "sources_by_field": {
          "name": "osm"
        },
        "apple_id_attempted": "2026-05-29",
        "google_attempted": "2026-05-29",
        "payment": {}
      }
    },
    {
      "type": "Feature",
      "geometry": {
        "type": "Point",
        "coordinates": [
          6.0636384,
          49.6012383
        ]
      },
      "properties": {
        "id": "tk_lur_osm_n2022240661",
        "name": "K Kiosk",
        "address": {},
        "sources": [
          {
            "type": "osm",
            "id": "node/2022240661",
            "version": 0
          }
        ],
        "created": "2026-05-29",
        "updated": "2026-06-01",
        "tags": [
          "barrierefrei"
        ],
        "sources_by_field": {
          "name": "osm"
        },
        "apple_id_attempted": "2026-05-29",
        "google_attempted": "2026-05-29",
        "payment": {}
      }
    },
    {
      "type": "Feature",
      "geometry": {
        "type": "Point",
        "coordinates": [
          6.1395996,
          49.5930106
        ]
      },
      "properties": {
        "id": "tk_lur_osm_n2056803097",
        "name": "Tabacs & Journaux",
        "address": {},
        "sources": [
          {
            "type": "osm",
            "id": "node/2056803097",
            "version": 0
          }
        ],
        "created": "2026-05-29",
        "updated": "2026-06-01",
        "sources_by_field": {
          "name": "osm"
        },
        "apple_id_attempted": "2026-05-29",
        "google_attempted": "2026-05-29",
        "payment": {}
      }
    },
    {
      "type": "Feature",
      "geometry": {
        "type": "Point",
        "coordinates": [
          6.0496877,
          49.6242378
        ]
      },
      "properties": {
        "id": "tk_lur_osm_n2070940878",
        "name": "Cactus Drink Shop",
        "address": {},
        "sources": [
          {
            "type": "osm",
            "id": "node/2070940878",
            "version": 0
          }
        ],
        "created": "2026-05-29",
        "updated": "2026-06-01",
        "tags": [
          "barrierefrei"
        ],
        "sources_by_field": {
          "name": "osm"
        },
        "apple_id_attempted": "2026-05-29",
        "google_attempted": "2026-05-29",
        "payment": {}
      }
    },
    {
      "type": "Feature",
      "geometry": {
        "type": "Point",
        "coordinates": [
          6.1319176,
          49.6022649
        ]
      },
      "properties": {
        "id": "tk_lur_osm_n2130487406",
        "name": "Liberté",
        "address": {},
        "sources": [
          {
            "type": "osm",
            "id": "node/2130487406",
            "version": 0
          }
        ],
        "created": "2026-05-29",
        "updated": "2026-06-01",
        "sources_by_field": {
          "name": "osm"
        },
        "apple_id_attempted": "2026-05-29",
        "google_attempted": "2026-05-29",
        "payment": {}
      }
    },
    {
      "type": "Feature",
      "geometry": {
        "type": "Point",
        "coordinates": [
          6.2870795,
          49.8337235
        ]
      },
      "properties": {
        "id": "tk_lur_osm_n2588062714",
        "name": "Cassis de Beaufort",
        "address": {},
        "sources": [
          {
            "type": "osm",
            "id": "node/2588062714",
            "version": 0
          }
        ],
        "created": "2026-05-29",
        "updated": "2026-06-01",
        "hours": {
          "raw": "apr-nov 09:00-17:30"
        },
        "sources_by_field": {
          "name": "osm",
          "hours": "osm"
        },
        "apple_id_attempted": "2026-05-29",
        "google_attempted": "2026-05-29",
        "payment": {}
      }
    },
    {
      "type": "Feature",
      "geometry": {
        "type": "Point",
        "coordinates": [
          5.9015986,
          49.5613757
        ]
      },
      "properties": {
        "id": "tk_lur_osm_n3597010447",
        "name": "Cactus Drink Shop",
        "address": {},
        "sources": [
          {
            "type": "osm",
            "id": "node/3597010447",
            "version": 0
          }
        ],
        "created": "2026-05-29",
        "updated": "2026-06-01",
        "tags": [
          "barrierefrei"
        ],
        "sources_by_field": {
          "name": "osm"
        },
        "apple_id_attempted": "2026-05-29",
        "google_attempted": "2026-05-29",
        "payment": {}
      }
    },
    {
      "type": "Feature",
      "geometry": {
        "type": "Point",
        "coordinates": [
          6.0836223,
          49.4770447
        ]
      },
      "properties": {
        "id": "tk_lur_osm_n4153283990",
        "name": "Kiosk",
        "address": {},
        "sources": [
          {
            "type": "osm",
            "id": "node/4153283990",
            "version": 0
          }
        ],
        "created": "2026-05-29",
        "updated": "2026-06-01",
        "hours": {
          "raw": "Mo-Sa 08:00-20:00"
        },
        "sources_by_field": {
          "name": "osm",
          "hours": "osm"
        },
        "apple_id_attempted": "2026-05-29",
        "google_attempted": "2026-05-29",
        "payment": {}
      }
    },
    {
      "type": "Feature",
      "geometry": {
        "type": "Point",
        "coordinates": [
          5.8577657,
          49.76314
        ]
      },
      "properties": {
        "id": "tk_lur_osm_n4382074292",
        "name": "Diederich-Linden Edmond",
        "address": {},
        "sources": [
          {
            "type": "osm",
            "id": "node/4382074292",
            "version": 0
          }
        ],
        "created": "2026-05-29",
        "updated": "2026-06-01",
        "sources_by_field": {
          "name": "osm"
        },
        "apple_id_attempted": "2026-05-29",
        "google_attempted": "2026-05-29",
        "payment": {}
      }
    },
    {
      "type": "Feature",
      "geometry": {
        "type": "Point",
        "coordinates": [
          6.1266482,
          49.6505462
        ]
      },
      "properties": {
        "id": "tk_lur_osm_n5589119899",
        "name": "k kiosk",
        "address": {},
        "sources": [
          {
            "type": "osm",
            "id": "node/5589119899",
            "version": 0
          }
        ],
        "created": "2026-05-29",
        "updated": "2026-06-01",
        "hours": {
          "raw": "Mo-Sa 08:00-19:00; Su 08:00-13:00"
        },
        "sources_by_field": {
          "name": "osm",
          "hours": "osm"
        },
        "apple_id_attempted": "2026-05-29",
        "google_attempted": "2026-05-29",
        "payment": {}
      }
    },
    {
      "type": "Feature",
      "geometry": {
        "type": "Point",
        "coordinates": [
          6.2758894,
          49.5056182
        ]
      },
      "properties": {
        "id": "tk_lur_osm_n5981172761",
        "name": "Kiosk",
        "address": {},
        "sources": [
          {
            "type": "osm",
            "id": "node/5981172761",
            "version": 0
          }
        ],
        "created": "2026-05-29",
        "updated": "2026-06-01",
        "sources_by_field": {
          "name": "osm"
        },
        "apple_id_attempted": "2026-05-29",
        "google_attempted": "2026-05-29",
        "payment": {}
      }
    },
    {
      "type": "Feature",
      "geometry": {
        "type": "Point",
        "coordinates": [
          6.4040342,
          49.8048038
        ]
      },
      "properties": {
        "id": "tk_lur_osm_n6010851100",
        "name": "REWE:XL Getränkemarkt",
        "address": {},
        "sources": [
          {
            "type": "osm",
            "id": "node/6010851100",
            "version": 0
          }
        ],
        "created": "2026-05-29",
        "updated": "2026-06-01",
        "tags": [
          "barrierefrei"
        ],
        "sources_by_field": {
          "name": "osm"
        },
        "apple_id_attempted": "2026-05-29",
        "google_attempted": "2026-05-29",
        "payment": {}
      }
    },
    {
      "type": "Feature",
      "geometry": {
        "type": "Point",
        "coordinates": [
          6.1299861,
          49.6094219
        ]
      },
      "properties": {
        "id": "tk_lur_osm_n647495785",
        "name": "Souvenirs",
        "address": {},
        "sources": [
          {
            "type": "osm",
            "id": "node/647495785",
            "version": 0
          }
        ],
        "created": "2026-05-29",
        "updated": "2026-06-01",
        "sources_by_field": {
          "name": "osm"
        },
        "apple_id_attempted": "2026-05-29",
        "google_attempted": "2026-05-29",
        "payment": {}
      }
    },
    {
      "type": "Feature",
      "geometry": {
        "type": "Point",
        "coordinates": [
          6.0511141,
          49.6231596
        ]
      },
      "properties": {
        "id": "tk_lur_osm_n952497491",
        "name": "K Kiosk",
        "address": {},
        "sources": [
          {
            "type": "osm",
            "id": "node/952497491",
            "version": 0
          }
        ],
        "created": "2026-05-29",
        "updated": "2026-06-01",
        "sources_by_field": {
          "name": "osm"
        },
        "apple_id_attempted": "2026-05-29",
        "google_attempted": "2026-05-29",
        "payment": {}
      }
    },
    {
      "type": "Feature",
      "geometry": {
        "type": "Point",
        "coordinates": [
          5.9105896,
          49.5208462
        ]
      },
      "properties": {
        "id": "tk_lur_osm_w118792189",
        "name": "Aral",
        "address": {
          "street": "Rue de Soleuvre",
          "number": "182",
          "city": "Differdange"
        },
        "sources": [
          {
            "type": "osm",
            "id": "way/118792189",
            "version": 0
          }
        ],
        "created": "2026-05-29",
        "updated": "2026-06-01",
        "hours": {
          "raw": "Mo-Sa 05:30-22:00; Su 07:00-22:00"
        },
        "tags": [
          "barrierefrei"
        ],
        "sources_by_field": {
          "name": "osm",
          "address.street": "osm",
          "address.number": "osm",
          "address.city": "osm",
          "hours": "osm"
        },
        "apple_id_attempted": "2026-05-29",
        "google_attempted": "2026-05-29",
        "payment": {}
      }
    },
    {
      "type": "Feature",
      "geometry": {
        "type": "Point",
        "coordinates": [
          6.4442517,
          49.8037387
        ]
      },
      "properties": {
        "id": "tk_lur_osm_w135463979",
        "name": "Weber",
        "address": {
          "street": "Rue Jean Bertels",
          "number": "2",
          "city": "Echternach"
        },
        "sources": [
          {
            "type": "osm",
            "id": "way/135463979",
            "version": 0
          }
        ],
        "created": "2026-05-29",
        "updated": "2026-06-01",
        "sources_by_field": {
          "name": "osm",
          "address.street": "osm",
          "address.number": "osm",
          "address.city": "osm"
        },
        "apple_id_attempted": "2026-05-29",
        "google_attempted": "2026-05-29",
        "payment": {}
      }
    },
    {
      "type": "Feature",
      "geometry": {
        "type": "Point",
        "coordinates": [
          6.3614068,
          49.5481908
        ]
      },
      "properties": {
        "id": "tk_lur_osm_w139159790",
        "name": "Cactus",
        "address": {},
        "sources": [
          {
            "type": "osm",
            "id": "way/139159790",
            "version": 0
          }
        ],
        "created": "2026-05-29",
        "updated": "2026-06-01",
        "sources_by_field": {
          "name": "osm"
        },
        "apple_id_attempted": "2026-05-29",
        "google_attempted": "2026-05-29",
        "payment": {}
      }
    },
    {
      "type": "Feature",
      "geometry": {
        "type": "Point",
        "coordinates": [
          6.0925436,
          49.5067287
        ]
      },
      "properties": {
        "id": "tk_lur_osm_w151089485",
        "name": "Munhowen Drinx",
        "address": {
          "street": "Zone d'Activité Économique Wolser A",
          "number": "278",
          "city": "Bettembourg"
        },
        "sources": [
          {
            "type": "osm",
            "id": "way/151089485",
            "version": 0
          }
        ],
        "created": "2026-05-29",
        "updated": "2026-06-01",
        "sources_by_field": {
          "name": "osm",
          "address.street": "osm",
          "address.number": "osm",
          "address.city": "osm"
        },
        "apple_id_attempted": "2026-05-29",
        "google_attempted": "2026-05-29",
        "payment": {}
      }
    },
    {
      "type": "Feature",
      "geometry": {
        "type": "Point",
        "coordinates": [
          5.9214028,
          49.9624726
        ]
      },
      "properties": {
        "id": "tk_lur_osm_w964095670",
        "name": "Aral",
        "address": {
          "street": "Rue Michel Thilges",
          "number": "38",
          "city": "Wiltz"
        },
        "sources": [
          {
            "type": "osm",
            "id": "way/964095670",
            "version": 0
          }
        ],
        "created": "2026-05-29",
        "updated": "2026-06-01",
        "sources_by_field": {
          "name": "osm",
          "address.street": "osm",
          "address.number": "osm",
          "address.city": "osm"
        },
        "apple_id_attempted": "2026-05-29",
        "google_attempted": "2026-05-29",
        "payment": {}
      }
    }
  ]
}
