{
  "type": "FeatureCollection",
  "features": [
    {
      "type": "Feature",
      "geometry": {
        "type": "Point",
        "coordinates": [
          10.8258934,
          48.392809
        ]
      },
      "properties": {
        "id": "tk_a_osm_n1042865693",
        "name": "Sobi Getränkemärkte",
        "address": {
          "street": "Daimlerstraße",
          "number": "13",
          "postalcode": "86356",
          "city": "Neusäß"
        },
        "sources": [
          {
            "type": "osm",
            "id": "node/1042865693",
            "version": 0
          },
          {
            "type": "gmaps",
            "id": "ChIJfxJusTJtCUERR2LjrPt7U14"
          }
        ],
        "created": "2026-05-20",
        "updated": "2026-05-21",
        "hours": {
          "raw": "Mo-Sa 08:00-20:00"
        },
        "payment": {
          "cash": "unknown",
          "cards": "yes",
          "contactless": "unknown",
          "girocard": "unknown"
        },
        "tags": [
          "barrierefrei"
        ],
        "apple_id_attempted": "2026-05-22"
      }
    },
    {
      "type": "Feature",
      "geometry": {
        "type": "Point",
        "coordinates": [
          10.8682684,
          48.3404606
        ]
      },
      "properties": {
        "id": "tk_a_osm_n1121320115",
        "name": "Hello",
        "address": {
          "street": "Bürgermeister-Aurnhammer-Straße",
          "number": "13",
          "postalcode": "86199",
          "city": "Augsburg"
        },
        "sources": [
          {
            "type": "osm",
            "id": "node/1121320115",
            "version": 0
          },
          {
            "type": "gmaps",
            "id": "ChIJfciLc1ajnkcROMaGwcFyKYY"
          }
        ],
        "created": "2026-05-20",
        "updated": "2026-05-21",
        "hours": {
          "raw": "Mo-Fr 08:00-22:00; Sa 09:00-22:00; Su,PH 10:00-22:00"
        },
        "payment": {
          "cards": "yes",
          "girocard": "yes"
        },
        "apple_id_attempted": "2026-05-22"
      }
    },
    {
      "type": "Feature",
      "geometry": {
        "type": "Point",
        "coordinates": [
          10.9097506,
          48.3134085
        ]
      },
      "properties": {
        "id": "tk_a_osm_n1124752346",
        "name": "Peter Schmid Getränkemarkt",
        "address": {
          "street": "Bürgermeister-Widmeier-Straße",
          "number": "42",
          "postalcode": "86179",
          "city": "Augsburg",
          "district": "Haunstetten-Siebenbrunn"
        },
        "sources": [
          {
            "type": "osm",
            "id": "node/1124752346",
            "version": 0
          },
          {
            "type": "apple",
            "id": "1781579025397770700"
          }
        ],
        "created": "2026-05-20",
        "updated": "2026-05-23",
        "payment_attempted": "2026-05-22",
        "gmaps_id_attempted": "2026-05-22",
        "google_attempted": "2026-05-22",
        "apple_attempted": "2026-05-24"
      }
    },
    {
      "type": "Feature",
      "geometry": {
        "type": "Point",
        "coordinates": [
          10.9842517,
          48.3824139
        ]
      },
      "properties": {
        "id": "tk_a_osm_n11279952425",
        "name": "Getränkemarkt Spengler",
        "address": {
          "street": "Hochbergstraße",
          "number": "4",
          "postalcode": "86316",
          "city": "Friedberg",
          "district": "Wulfertshausen"
        },
        "sources": [
          {
            "type": "osm",
            "id": "node/11279952425",
            "version": 0
          },
          {
            "type": "gmaps",
            "id": "ChIJKQ6qIReXnkcRQxcyO73kKnY"
          },
          {
            "type": "apple",
            "id": "4599712432537806164"
          }
        ],
        "created": "2026-05-20",
        "updated": "2026-05-22",
        "payment": {
          "cards": "yes",
          "girocard": "yes",
          "contactless": "yes"
        },
        "hours": {
          "raw": "Mo,We,Fr 09:00-12:00,14:30-18:00; Tu,Th,Sa 09:00-12:00"
        }
      }
    },
    {
      "type": "Feature",
      "geometry": {
        "type": "Point",
        "coordinates": [
          10.9780198,
          48.3925374
        ]
      },
      "properties": {
        "id": "tk_a_osm_n11286336730",
        "name": "Getränkemarkt Stätzling",
        "address": {
          "street": "Haberskircher Straße",
          "number": "11",
          "postalcode": "86316",
          "city": "Friedberg",
          "district": "Stätzling"
        },
        "sources": [
          {
            "type": "osm",
            "id": "node/11286336730",
            "version": 0
          },
          {
            "type": "gmaps",
            "id": "ChIJGRs7BQOXnkcRnAOlchaMAiw"
          }
        ],
        "created": "2026-05-20",
        "updated": "2026-05-21",
        "payment_attempted": "2026-05-22",
        "apple_id_attempted": "2026-05-22",
        "google_attempted": "2026-05-25"
      }
    },
    {
      "type": "Feature",
      "geometry": {
        "type": "Point",
        "coordinates": [
          10.9015439,
          48.3120399
        ]
      },
      "properties": {
        "id": "tk_a_osm_n1129482570",
        "name": "Lotto-Totto",
        "address": {
          "street": "Hofackerstraße",
          "number": "28",
          "postalcode": "86179",
          "city": "Augsburg"
        },
        "sources": [
          {
            "type": "osm",
            "id": "node/1129482570",
            "version": 0
          },
          {
            "type": "gmaps",
            "id": "ChIJ__zUcgSZnkcRlxo_-BmgLQg"
          }
        ],
        "created": "2026-05-20",
        "updated": "2026-05-21",
        "hours": {
          "raw": "Tu-Th,Sa 08:00-12:00, Mo 09:00-12:00, Mo-Th 14:00-18:00, Fr 08:00-18:00"
        },
        "payment": {
          "cards": "yes",
          "girocard": "yes"
        },
        "apple_id_attempted": "2026-05-22"
      }
    },
    {
      "type": "Feature",
      "geometry": {
        "type": "Point",
        "coordinates": [
          10.9444621,
          48.3552807
        ]
      },
      "properties": {
        "id": "tk_a_osm_n11559695168",
        "name": "Kaktus Kiosk",
        "address": {
          "street": "Zugspitzstraße",
          "number": "2",
          "postalcode": "86163",
          "city": "Augsburg"
        },
        "sources": [
          {
            "type": "osm",
            "id": "node/11559695168",
            "version": 0
          },
          {
            "type": "gmaps",
            "id": "ChIJjynmdACZnkcRfPl8M9Si8q4"
          },
          {
            "type": "apple",
            "id": "5960242715005933219"
          }
        ],
        "created": "2026-05-20",
        "updated": "2026-05-22",
        "payment": {
          "girocard": "yes",
          "cards": "no",
          "contactless": "yes"
        },
        "hours": {
          "raw": "Mo-Sa 09:00-19:00"
        }
      }
    },
    {
      "type": "Feature",
      "geometry": {
        "type": "Point",
        "coordinates": [
          10.8983997,
          48.3690616
        ]
      },
      "properties": {
        "id": "tk_a_osm_n1160733248",
        "name": "Perlach Tankstelle",
        "address": {
          "street": "Rathausplatz",
          "number": "6",
          "postalcode": "86150",
          "city": "Augsburg"
        },
        "sources": [
          {
            "type": "osm",
            "id": "node/1160733248",
            "version": 0
          },
          {
            "type": "gmaps",
            "id": "ChIJbzXbtYO9nkcRbXKDMtXps1U"
          },
          {
            "type": "apple",
            "id": "1185280955926187171"
          }
        ],
        "created": "2026-05-20",
        "updated": "2026-05-21",
        "hours": {
          "raw": "Mo-Su 09:00-23:00, PH 09:00-23:00"
        },
        "payment": {
          "cards": "no",
          "girocard": "yes",
          "contactless": "yes"
        }
      }
    },
    {
      "type": "Feature",
      "geometry": {
        "type": "Point",
        "coordinates": [
          10.8958398,
          48.3683478
        ]
      },
      "properties": {
        "id": "tk_a_osm_n11623628809",
        "name": "Sailer",
        "address": {
          "street": "Annastraße",
          "number": "16",
          "postalcode": "86150",
          "city": "Augsburg",
          "district": "Innenstadt"
        },
        "sources": [
          {
            "type": "osm",
            "id": "node/11623628809",
            "version": 0
          },
          {
            "type": "gmaps",
            "id": "ChIJsciK-mC9nkcRTsAiYD8CTqQ"
          }
        ],
        "created": "2026-05-20",
        "updated": "2026-05-25",
        "payment": {
          "cards": "no",
          "girocard": "yes",
          "contactless": "yes"
        },
        "apple_id_attempted": "2026-05-22",
        "hours": {
          "raw": "Tu 08:00-18:00; Th 08:00-18:00; Fr 08:00-18:00; We 08:00-18:00; Mo 08:00-18:00; Sa 07:00-14:00"
        },
        "sources_by_field": {
          "hours": "google"
        },
        "google_attempted": "2026-05-25"
      }
    },
    {
      "type": "Feature",
      "geometry": {
        "type": "Point",
        "coordinates": [
          10.9430331,
          48.3550627
        ]
      },
      "properties": {
        "id": "tk_a_osm_n1185741689",
        "name": "Naddl‘s Lädle",
        "address": {
          "street": "Friedberger Straße",
          "number": "121",
          "postalcode": "86163",
          "city": "Augsburg"
        },
        "sources": [
          {
            "type": "osm",
            "id": "node/1185741689",
            "version": 0
          },
          {
            "type": "gmaps",
            "id": "ChIJpwC0GymYnkcRqTU6As1xltc"
          }
        ],
        "created": "2026-05-20",
        "updated": "2026-05-25",
        "hours": {
          "raw": "Tu 07:30-23:00; Th 07:30-23:00; Fr 07:30-23:00; We 07:30-23:00; Mo 07:30-23:00; Sa 07:30-23:00; Su 08:00-23:00"
        },
        "tags": [
          "barrierefrei"
        ],
        "payment_attempted": "2026-05-22",
        "apple_id_attempted": "2026-05-22",
        "sources_by_field": {
          "hours": "google"
        },
        "google_attempted": "2026-05-25"
      }
    },
    {
      "type": "Feature",
      "geometry": {
        "type": "Point",
        "coordinates": [
          10.9112916,
          48.3689977
        ]
      },
      "properties": {
        "id": "tk_a_osm_n1189334329",
        "name": "REWE Getränkemarkt",
        "address": {
          "street": "Jakoberwallstraße",
          "number": "9-11",
          "postalcode": "86153",
          "city": "Augsburg"
        },
        "sources": [
          {
            "type": "osm",
            "id": "node/1189334329",
            "version": 0
          },
          {
            "type": "gmaps",
            "id": "payment"
          }
        ],
        "created": "2026-05-20",
        "updated": "2026-05-21",
        "hours": {
          "raw": "Mo-Sa 08:30-20:00"
        },
        "payment": {
          "cards": "yes",
          "girocard": "yes",
          "contactless": "yes"
        },
        "apple_id_attempted": "2026-05-22"
      }
    },
    {
      "type": "Feature",
      "geometry": {
        "type": "Point",
        "coordinates": [
          10.8677712,
          48.3511867
        ]
      },
      "properties": {
        "id": "tk_a_osm_n11919517193",
        "name": "Kulperhütte Biergarten SB",
        "address": {
          "street": "Pfarrer-Bogner-Straße",
          "number": "0",
          "postalcode": "86199",
          "city": "Augsburg"
        },
        "sources": [
          {
            "type": "osm",
            "id": "node/11919517193",
            "version": 0
          },
          {
            "type": "gmaps",
            "id": "payment"
          }
        ],
        "created": "2026-05-20",
        "updated": "2026-05-21",
        "hours": {
          "raw": "Mo-Su 11:00-18:00+; 24:00-11:00 off"
        },
        "tags": [
          "barrierefrei"
        ],
        "payment": {
          "cards": "no",
          "girocard": "yes",
          "contactless": "yes"
        },
        "apple_id_attempted": "2026-05-22"
      }
    },
    {
      "type": "Feature",
      "geometry": {
        "type": "Point",
        "coordinates": [
          10.9054762,
          48.3698712
        ]
      },
      "properties": {
        "id": "tk_a_osm_n12070377190",
        "name": "Jakobertor Kiosk",
        "address": {
          "street": "Jakoberstraße",
          "number": "38",
          "postalcode": "86152",
          "city": "Augsburg"
        },
        "sources": [
          {
            "type": "osm",
            "id": "node/12070377190",
            "version": 0
          },
          {
            "type": "gmaps",
            "id": "payment"
          },
          {
            "type": "apple",
            "id": "8925056812495245944"
          }
        ],
        "created": "2026-05-20",
        "updated": "2026-05-22",
        "payment": {
          "cards": "no",
          "girocard": "yes",
          "contactless": "yes"
        },
        "hours": {
          "raw": "Su 10:00-22:00; Mo-Th 09:00-22:00; Fr-Sa 09:00-23:00"
        }
      }
    },
    {
      "type": "Feature",
      "geometry": {
        "type": "Point",
        "coordinates": [
          10.9333674,
          48.4406612
        ]
      },
      "properties": {
        "id": "tk_a_osm_n12410424499",
        "name": "Getränke Gutmann",
        "address": {
          "street": "Am Anger",
          "number": "4",
          "postalcode": "86444",
          "city": "Affing",
          "district": "Mühlhausen"
        },
        "sources": [
          {
            "type": "osm",
            "id": "node/12410424499",
            "version": 0
          },
          {
            "type": "gmaps",
            "id": "ChIJqSj--P-VnkcRyuPyJLyt6kQ"
          }
        ],
        "created": "2026-05-20",
        "updated": "2026-05-21",
        "payment_attempted": "2026-05-22",
        "apple_id_attempted": "2026-05-22",
        "google_attempted": "2026-05-22"
      }
    },
    {
      "type": "Feature",
      "geometry": {
        "type": "Point",
        "coordinates": [
          10.9161655,
          48.3817798
        ]
      },
      "properties": {
        "id": "tk_a_osm_n12514821147",
        "name": "Lotto Presse Heigemeir Sandra",
        "address": {
          "street": "Widderstraße",
          "number": "1",
          "postalcode": "86167",
          "city": "Augsburg",
          "district": "Lechhausen"
        },
        "sources": [
          {
            "type": "osm",
            "id": "node/12514821147",
            "version": 0
          },
          {
            "type": "gmaps",
            "id": "payment"
          },
          {
            "type": "apple",
            "id": "1359212687588725288"
          }
        ],
        "created": "2026-05-20",
        "updated": "2026-05-23",
        "hours": {
          "raw": "Mo-Fr 07:00-18:00; Sa 08:00-12:00"
        },
        "payment": {
          "cards": "yes",
          "girocard": "yes"
        }
      }
    },
    {
      "type": "Feature",
      "geometry": {
        "type": "Point",
        "coordinates": [
          10.996202,
          48.349273
        ]
      },
      "properties": {
        "id": "tk_a_osm_n12650813717",
        "name": "Sobi",
        "address": {
          "street": "Marquardtstraße",
          "number": "11",
          "postalcode": "86316",
          "city": "Friedberg"
        },
        "sources": [
          {
            "type": "osm",
            "id": "node/12650813717",
            "version": 0
          },
          {
            "type": "gmaps",
            "id": "payment"
          }
        ],
        "created": "2026-05-20",
        "updated": "2026-05-21",
        "hours": {
          "raw": "Mo-Sa 08:00-20:00"
        },
        "payment": {
          "girocard": "yes",
          "cards": "no",
          "contactless": "yes"
        },
        "apple_id_attempted": "2026-05-22"
      }
    },
    {
      "type": "Feature",
      "geometry": {
        "type": "Point",
        "coordinates": [
          10.8471138,
          48.3697998
        ]
      },
      "properties": {
        "id": "tk_a_osm_n1279325110",
        "name": "Sobi",
        "address": {
          "street": "Hagenmähderstraße",
          "number": "10",
          "postalcode": "86391",
          "city": "Stadtbergen"
        },
        "sources": [
          {
            "type": "osm",
            "id": "node/1279325110",
            "version": 0
          },
          {
            "type": "gmaps",
            "id": "payment"
          }
        ],
        "created": "2026-05-20",
        "updated": "2026-05-21",
        "hours": {
          "raw": "Mo-Sa 08:00-20:00"
        },
        "tags": [
          "barrierefrei"
        ],
        "payment": {
          "girocard": "yes",
          "cards": "no",
          "contactless": "yes"
        },
        "apple_id_attempted": "2026-05-22"
      }
    },
    {
      "type": "Feature",
      "geometry": {
        "type": "Point",
        "coordinates": [
          10.8998608,
          48.3633164
        ]
      },
      "properties": {
        "id": "tk_a_osm_n12919137402",
        "name": "Max Kiosk",
        "address": {
          "street": "Maximilianstraße",
          "number": "68",
          "postalcode": "86150",
          "city": "Augsburg",
          "district": "Innenstadt"
        },
        "sources": [
          {
            "type": "osm",
            "id": "node/12919137402",
            "version": 0
          },
          {
            "type": "gmaps",
            "id": "ChIJUW3uHT69nkcRp2kMtZRricI"
          }
        ],
        "created": "2026-05-20",
        "updated": "2026-05-23",
        "payment": {
          "cards": "no",
          "girocard": "yes",
          "contactless": "yes"
        },
        "apple_id_attempted": "2026-05-22",
        "google_attempted": "2026-05-22"
      }
    },
    {
      "type": "Feature",
      "geometry": {
        "type": "Point",
        "coordinates": [
          10.8392949,
          48.2653843
        ]
      },
      "properties": {
        "id": "tk_a_osm_n12920357802",
        "name": "Fristo",
        "address": {
          "street": "Königsbrunner Straße",
          "number": "7",
          "postalcode": "86399",
          "city": "Bobingen"
        },
        "sources": [
          {
            "type": "osm",
            "id": "node/12920357802",
            "version": 0
          },
          {
            "type": "gmaps",
            "id": "payment"
          }
        ],
        "created": "2026-05-20",
        "updated": "2026-05-21",
        "hours": {
          "raw": "Mo-Sa 08:00-20:00; Su,PH off"
        },
        "payment": {
          "cards": "no",
          "girocard": "yes",
          "contactless": "yes"
        },
        "apple_id_attempted": "2026-05-22"
      }
    },
    {
      "type": "Feature",
      "geometry": {
        "type": "Point",
        "coordinates": [
          10.8730823,
          48.361878
        ]
      },
      "properties": {
        "id": "tk_a_osm_n13416044904",
        "name": "El Clasico Shop",
        "address": {
          "street": "Franz-Kobinger-Straße",
          "number": "9a",
          "postalcode": "86157",
          "city": "Augsburg"
        },
        "sources": [
          {
            "type": "osm",
            "id": "node/13416044904",
            "version": 0
          },
          {
            "type": "gmaps",
            "id": "ChIJESGjTMqinkcRTS9ZiGUDj88"
          }
        ],
        "created": "2026-05-20",
        "updated": "2026-05-21",
        "hours": {
          "raw": "Mo-Sa 08:00-20:00"
        },
        "payment_attempted": "2026-05-22",
        "apple_id_attempted": "2026-05-22",
        "google_attempted": "2026-05-22"
      }
    },
    {
      "type": "Feature",
      "geometry": {
        "type": "Point",
        "coordinates": [
          10.9181222,
          48.3551021
        ]
      },
      "properties": {
        "id": "tk_a_osm_n13534536227",
        "name": "Südtiroler Weinladen",
        "address": {
          "street": "Gentnerstraße",
          "number": "67a",
          "postalcode": "86161",
          "city": "Augsburg"
        },
        "sources": [
          {
            "type": "osm",
            "id": "node/13534536227",
            "version": 0
          },
          {
            "type": "gmaps",
            "id": "payment"
          },
          {
            "type": "apple",
            "id": "3553380687238591779"
          }
        ],
        "created": "2026-05-20",
        "updated": "2026-05-21",
        "hours": {
          "raw": "Mo-Th 09:00-13:00,14:30-18:00; Fr 09:00-18:00; Sa 09:00-13:00"
        },
        "payment": {
          "cards": "no",
          "girocard": "yes",
          "contactless": "yes"
        }
      }
    },
    {
      "type": "Feature",
      "geometry": {
        "type": "Point",
        "coordinates": [
          10.8418847,
          48.2651599
        ]
      },
      "properties": {
        "id": "tk_a_osm_n262443500",
        "name": "Sobi",
        "address": {
          "street": "Gutenbergstraße",
          "number": "7a",
          "postalcode": "86399",
          "city": "Bobingen"
        },
        "sources": [
          {
            "type": "osm",
            "id": "node/262443500",
            "version": 0
          },
          {
            "type": "gmaps",
            "id": "payment"
          }
        ],
        "created": "2026-05-20",
        "updated": "2026-05-21",
        "hours": {
          "raw": "Mo-Sa 08:00-20:00; Su off"
        },
        "tags": [
          "barrierefrei"
        ],
        "payment": {
          "girocard": "yes",
          "cards": "no",
          "contactless": "yes"
        },
        "apple_id_attempted": "2026-05-22"
      }
    },
    {
      "type": "Feature",
      "geometry": {
        "type": "Point",
        "coordinates": [
          10.8848879,
          48.3675927
        ]
      },
      "properties": {
        "id": "tk_a_osm_n2725508044",
        "name": "Riegele Bierladen",
        "address": {
          "street": "Frölichstraße",
          "number": "26"
        },
        "sources": [
          {
            "type": "osm",
            "id": "node/2725508044",
            "version": 0
          },
          {
            "type": "gmaps",
            "id": "payment"
          }
        ],
        "created": "2026-05-20",
        "updated": "2026-05-22",
        "hours": {
          "raw": "Mo-Sa 11:00-20:00"
        },
        "payment": {
          "cards": "no",
          "girocard": "yes",
          "contactless": "yes"
        },
        "apple_id_attempted": "2026-05-22"
      }
    },
    {
      "type": "Feature",
      "geometry": {
        "type": "Point",
        "coordinates": [
          10.9377022,
          48.3781164
        ]
      },
      "properties": {
        "id": "tk_a_osm_n282964910",
        "name": "Aral",
        "address": {
          "street": "Stätzlinger Straße",
          "number": "86",
          "postalcode": "86165",
          "city": "Augsburg",
          "district": "Lechhausen"
        },
        "sources": [
          {
            "type": "osm",
            "id": "node/282964910",
            "version": 0
          },
          {
            "type": "gmaps",
            "id": "payment"
          }
        ],
        "created": "2026-05-20",
        "updated": "2026-05-23",
        "hours": {
          "raw": "Mo-Su 06:00-24:00"
        },
        "tags": [
          "barrierefrei"
        ],
        "payment": {
          "cards": "no",
          "girocard": "yes",
          "contactless": "yes"
        },
        "apple_id_attempted": "2026-05-22"
      }
    },
    {
      "type": "Feature",
      "geometry": {
        "type": "Point",
        "coordinates": [
          10.9443073,
          48.348213
        ]
      },
      "properties": {
        "id": "tk_a_osm_n2979951604",
        "name": "Späti Kiosk",
        "address": {
          "street": "Trettachstraße",
          "number": "48",
          "postalcode": "86163",
          "city": "Augsburg"
        },
        "sources": [
          {
            "type": "osm",
            "id": "node/2979951604",
            "version": 0
          },
          {
            "type": "gmaps",
            "id": "payment"
          },
          {
            "type": "apple",
            "id": "5362648906370151349"
          }
        ],
        "created": "2026-05-20",
        "updated": "2026-05-21",
        "hours": {
          "raw": "Mo-Th 07:00-13:00,14:30-18:00; Fr 07:00-18:00; Sa 07:00-12:00"
        },
        "tags": [
          "barrierefrei"
        ],
        "payment": {
          "cards": "no",
          "girocard": "yes",
          "contactless": "yes"
        }
      }
    },
    {
      "type": "Feature",
      "geometry": {
        "type": "Point",
        "coordinates": [
          10.8883997,
          48.3779893
        ]
      },
      "properties": {
        "id": "tk_a_osm_n315746386",
        "name": "Kiosk am Senkelbach",
        "address": {
          "street": "Heinrich-von-Buz-Straße",
          "number": "1",
          "postalcode": "86153",
          "city": "Augsburg",
          "district": "Oberhausen"
        },
        "sources": [
          {
            "type": "osm",
            "id": "node/315746386",
            "version": 0
          },
          {
            "type": "apple",
            "id": "9334044278265882202"
          }
        ],
        "created": "2026-05-20",
        "updated": "2026-05-23",
        "payment_attempted": "2026-05-22",
        "google_attempted": "2026-05-22",
        "apple_attempted": "2026-05-24"
      }
    },
    {
      "type": "Feature",
      "geometry": {
        "type": "Point",
        "coordinates": [
          10.8370851,
          48.3927378
        ]
      },
      "properties": {
        "id": "tk_a_osm_n3176667261",
        "name": "Neusäßer Getränkemarkt",
        "address": {
          "street": "Remboldstraße",
          "number": "22",
          "postalcode": "86356",
          "city": "Neusäß"
        },
        "sources": [
          {
            "type": "osm",
            "id": "node/3176667261",
            "version": 0
          },
          {
            "type": "gmaps",
            "id": "payment"
          },
          {
            "type": "apple",
            "id": "11995238011440802620"
          }
        ],
        "created": "2026-05-20",
        "updated": "2026-05-21",
        "payment": {
          "cash": "yes"
        },
        "google_attempted": "2026-05-22",
        "apple_attempted": "2026-05-24"
      }
    },
    {
      "type": "Feature",
      "geometry": {
        "type": "Point",
        "coordinates": [
          10.9613606,
          48.3043861
        ]
      },
      "properties": {
        "id": "tk_a_osm_n3201404041",
        "name": "Tabak Pfeffer",
        "address": {
          "street": "Grünzweigstraße",
          "number": "1",
          "postalcode": "86438",
          "city": "Kissing"
        },
        "sources": [
          {
            "type": "osm",
            "id": "node/3201404041",
            "version": 0
          },
          {
            "type": "gmaps",
            "id": "payment"
          },
          {
            "type": "apple",
            "id": "16740304538413160756"
          }
        ],
        "created": "2026-05-20",
        "updated": "2026-05-23",
        "tags": [
          "barrierefrei"
        ],
        "payment": {
          "girocard": "yes",
          "cards": "yes",
          "contactless": "yes"
        },
        "hours": {
          "raw": "Mo-Sa 08:00-19:00"
        }
      }
    },
    {
      "type": "Feature",
      "geometry": {
        "type": "Point",
        "coordinates": [
          10.9635281,
          48.305272
        ]
      },
      "properties": {
        "id": "tk_a_osm_n3878640738",
        "name": "Ehrenreich Getränke Center",
        "address": {
          "street": "Kornstraße",
          "number": "1",
          "postalcode": "86438",
          "city": "Kissing"
        },
        "sources": [
          {
            "type": "osm",
            "id": "node/3878640738",
            "version": 0
          },
          {
            "type": "gmaps",
            "id": "payment"
          }
        ],
        "created": "2026-05-20",
        "updated": "2026-05-21",
        "hours": {
          "raw": "Mo-Fr 08:30-19:00; Sa 08:30-16:00"
        },
        "payment": {
          "cards": "no",
          "girocard": "yes",
          "contactless": "yes"
        },
        "apple_id_attempted": "2026-05-22"
      }
    },
    {
      "type": "Feature",
      "geometry": {
        "type": "Point",
        "coordinates": [
          10.8870493,
          48.3415873
        ]
      },
      "properties": {
        "id": "tk_a_osm_n4316546090",
        "name": "EDEKA Getränkemarkt",
        "address": {
          "street": "Bergiusstraße",
          "number": "1",
          "postalcode": "86199",
          "city": "Augsburg",
          "district": "Göggingen"
        },
        "sources": [
          {
            "type": "osm",
            "id": "node/4316546090",
            "version": 0
          },
          {
            "type": "gmaps",
            "id": "payment"
          }
        ],
        "created": "2026-05-20",
        "updated": "2026-05-23",
        "hours": {
          "raw": "Mo-Sa 07:00-20:00"
        },
        "tags": [
          "barrierefrei"
        ],
        "payment": {
          "cards": "yes",
          "girocard": "yes",
          "contactless": "yes"
        },
        "apple_id_attempted": "2026-05-22"
      }
    },
    {
      "type": "Feature",
      "geometry": {
        "type": "Point",
        "coordinates": [
          10.8622091,
          48.3175931
        ]
      },
      "properties": {
        "id": "tk_a_osm_n473156523",
        "name": "Netto Getränke-Discount",
        "address": {
          "street": "Bobinger Straße",
          "number": "37a",
          "postalcode": "86199",
          "city": "Augsburg"
        },
        "sources": [
          {
            "type": "osm",
            "id": "node/473156523",
            "version": 0
          },
          {
            "type": "gmaps",
            "id": "payment"
          }
        ],
        "created": "2026-05-20",
        "updated": "2026-05-21",
        "hours": {
          "raw": "Mo-Sa 07:00-20:00"
        },
        "payment": {
          "cards": "yes"
        },
        "apple_id_attempted": "2026-05-22"
      }
    },
    {
      "type": "Feature",
      "geometry": {
        "type": "Point",
        "coordinates": [
          10.8918633,
          48.366201
        ]
      },
      "properties": {
        "id": "tk_a_osm_n485057732",
        "name": "Wintergerster",
        "address": {
          "street": "Bahnhofstraße",
          "number": "7",
          "postalcode": "86150",
          "city": "Augsburg",
          "district": "Innenstadt"
        },
        "sources": [
          {
            "type": "osm",
            "id": "node/485057732",
            "version": 0
          },
          {
            "type": "gmaps",
            "id": "ChIJCz5011K9nkcRJhuICkTne-E"
          }
        ],
        "created": "2026-05-20",
        "updated": "2026-05-23",
        "payment_attempted": "2026-05-22",
        "apple_id_attempted": "2026-05-22",
        "google_attempted": "2026-05-22"
      }
    },
    {
      "type": "Feature",
      "geometry": {
        "type": "Point",
        "coordinates": [
          10.8675733,
          48.3628339
        ]
      },
      "properties": {
        "id": "tk_a_osm_n494273906",
        "name": "Presse-Papier-Pfersee",
        "address": {
          "street": "Spicherer Straße",
          "number": "1",
          "postalcode": "86157",
          "city": "Augsburg"
        },
        "sources": [
          {
            "type": "osm",
            "id": "node/494273906",
            "version": 0
          },
          {
            "type": "gmaps",
            "id": "ChIJCSHXUMyinkcRlp-mRjQ-q0s"
          }
        ],
        "created": "2026-05-20",
        "updated": "2026-05-21",
        "payment": {
          "girocard": "yes",
          "cards": "yes"
        },
        "apple_id_attempted": "2026-05-22",
        "google_attempted": "2026-05-22"
      }
    },
    {
      "type": "Feature",
      "geometry": {
        "type": "Point",
        "coordinates": [
          10.844241,
          48.2655973
        ]
      },
      "properties": {
        "id": "tk_a_osm_n5437691034",
        "name": "V-Getränkemarkt",
        "address": {
          "street": "Gutenbergstraße",
          "number": "4",
          "postalcode": "86399",
          "city": "Bobingen"
        },
        "sources": [
          {
            "type": "osm",
            "id": "node/5437691034",
            "version": 0
          },
          {
            "type": "gmaps",
            "id": "payment"
          }
        ],
        "created": "2026-05-20",
        "updated": "2026-05-23",
        "payment": {
          "cards": "yes",
          "girocard": "yes",
          "contactless": "yes"
        },
        "apple_id_attempted": "2026-05-22",
        "google_attempted": "2026-05-22"
      }
    },
    {
      "type": "Feature",
      "geometry": {
        "type": "Point",
        "coordinates": [
          10.8068464,
          48.4260098
        ]
      },
      "properties": {
        "id": "tk_a_osm_n619354244",
        "name": "Getränkemarkt Lorenz",
        "address": {
          "street": "Lindenbergstraße",
          "number": "7",
          "postalcode": "86368",
          "city": "Gersthofen",
          "district": "Edenbergen"
        },
        "sources": [
          {
            "type": "osm",
            "id": "node/619354244",
            "version": 0
          },
          {
            "type": "gmaps",
            "id": "payment"
          },
          {
            "type": "apple",
            "id": "17289412303188745898"
          }
        ],
        "created": "2026-05-20",
        "updated": "2026-05-22",
        "payment": {
          "cards": "yes",
          "girocard": "yes",
          "contactless": "yes"
        },
        "hours": {
          "raw": "Mo,We-Fr 15:00-19:00; Sa 09:00-14:00"
        }
      }
    },
    {
      "type": "Feature",
      "geometry": {
        "type": "Point",
        "coordinates": [
          10.881898,
          48.3662037
        ]
      },
      "properties": {
        "id": "tk_a_osm_n6584482545",
        "name": "Norzais Kiosk",
        "address": {
          "street": "Johannes-Rösle-Straße",
          "number": "2",
          "postalcode": "86152",
          "city": "Augsburg"
        },
        "sources": [
          {
            "type": "osm",
            "id": "node/6584482545",
            "version": 0
          },
          {
            "type": "gmaps",
            "id": "payment"
          }
        ],
        "created": "2026-05-20",
        "updated": "2026-05-21",
        "hours": {
          "raw": "Mo-Fr 08:00-20:30; Sa 10:00-20:30; Su 13:00-19:00"
        },
        "tags": [
          "draussen"
        ],
        "payment": {
          "cards": "no",
          "girocard": "yes",
          "contactless": "yes"
        },
        "apple_id_attempted": "2026-05-22"
      }
    },
    {
      "type": "Feature",
      "geometry": {
        "type": "Point",
        "coordinates": [
          10.8576253,
          48.3956408
        ]
      },
      "properties": {
        "id": "tk_a_osm_n6633071011",
        "name": "Lotto-Toto Cordhilgenkamp",
        "address": {
          "street": "Lerchenweg",
          "number": "59",
          "postalcode": "86156",
          "city": "Augsburg"
        },
        "sources": [
          {
            "type": "osm",
            "id": "node/6633071011",
            "version": 0
          },
          {
            "type": "gmaps",
            "id": "ChIJEzttZ2S9nkcRdo2yj-X0wwo"
          }
        ],
        "created": "2026-05-20",
        "updated": "2026-05-21",
        "payment": {
          "cards": "yes",
          "girocard": "yes"
        },
        "apple_id_attempted": "2026-05-22",
        "google_attempted": "2026-05-22"
      }
    },
    {
      "type": "Feature",
      "geometry": {
        "type": "Point",
        "coordinates": [
          10.8896178,
          48.3136216
        ]
      },
      "properties": {
        "id": "tk_a_osm_n724956438",
        "name": "Sobi Getränkemarkt",
        "address": {
          "street": "Unterer Talweg",
          "number": "113 1/2",
          "postalcode": "86179"
        },
        "sources": [
          {
            "type": "osm",
            "id": "node/724956438",
            "version": 0
          },
          {
            "type": "gmaps",
            "id": "payment"
          }
        ],
        "created": "2026-05-20",
        "updated": "2026-05-21",
        "hours": {
          "raw": "Mo-Sa 08:00-20:00"
        },
        "payment": {
          "girocard": "yes",
          "cards": "no",
          "contactless": "yes"
        },
        "apple_id_attempted": "2026-05-22"
      }
    },
    {
      "type": "Feature",
      "geometry": {
        "type": "Point",
        "coordinates": [
          10.8889552,
          48.3760659
        ]
      },
      "properties": {
        "id": "tk_a_osm_n7365925059",
        "name": "Thorbräu Getränkemarkt",
        "address": {
          "street": "Wertachbrucker-Tor-Straße",
          "number": "9",
          "postalcode": "86152",
          "city": "Augsburg"
        },
        "sources": [
          {
            "type": "osm",
            "id": "node/7365925059",
            "version": 0
          },
          {
            "type": "gmaps",
            "id": "payment"
          }
        ],
        "created": "2026-05-20",
        "updated": "2026-05-21",
        "hours": {
          "raw": "Mo-Fr 08:00-18:00; Sa 08:00-14:00"
        },
        "tags": [
          "barrierefrei"
        ],
        "payment": {
          "cards": "yes"
        },
        "apple_id_attempted": "2026-05-22"
      }
    },
    {
      "type": "Feature",
      "geometry": {
        "type": "Point",
        "coordinates": [
          10.9862885,
          48.2558863
        ]
      },
      "properties": {
        "id": "tk_a_osm_n7572720316",
        "name": "Sobi",
        "address": {
          "street": "Wallbergstraße",
          "number": "14",
          "postalcode": "86415",
          "city": "Mering"
        },
        "sources": [
          {
            "type": "osm",
            "id": "node/7572720316",
            "version": 0
          },
          {
            "type": "gmaps",
            "id": "payment"
          }
        ],
        "created": "2026-05-20",
        "updated": "2026-05-23",
        "hours": {
          "raw": "Mo-Sa 08:00-20:00; Su,PH off"
        },
        "payment": {
          "girocard": "yes",
          "cards": "no",
          "contactless": "yes"
        },
        "apple_id_attempted": "2026-05-22"
      }
    },
    {
      "type": "Feature",
      "geometry": {
        "type": "Point",
        "coordinates": [
          10.8403087,
          48.2765232
        ]
      },
      "properties": {
        "id": "tk_a_osm_n8284072734",
        "name": "Kiosk am Wendelinmarkt",
        "address": {
          "street": "Bischof-Ulrich-Straße",
          "number": "2",
          "postalcode": "86399",
          "city": "Bobingen"
        },
        "sources": [
          {
            "type": "osm",
            "id": "node/8284072734",
            "version": 0
          },
          {
            "type": "apple",
            "id": "1253620746080729158"
          }
        ],
        "created": "2026-05-20",
        "updated": "2026-05-23",
        "payment_attempted": "2026-05-22",
        "payment": {
          "cards": "yes",
          "contactless": "yes"
        },
        "hours": {
          "raw": "Mo-Sa 08:30-19:00"
        }
      }
    },
    {
      "type": "Feature",
      "geometry": {
        "type": "Point",
        "coordinates": [
          10.910618,
          48.3399068
        ]
      },
      "properties": {
        "id": "tk_a_osm_n841769838",
        "name": "Waldgaststätte Viktoria",
        "address": {
          "street": "Ilsungstraße",
          "number": "15a",
          "postalcode": "86161",
          "city": "Augsburg",
          "district": "Hochfeld"
        },
        "sources": [
          {
            "type": "osm",
            "id": "node/841769838",
            "version": 0
          },
          {
            "type": "apple",
            "id": "17075905425248947190"
          }
        ],
        "created": "2026-05-20",
        "updated": "2026-05-23",
        "hours": {
          "raw": "Tu-Fr 14:00-22:00; Mo off; Su 11:00-20:00"
        },
        "tags": [
          "barrierefrei"
        ],
        "payment_attempted": "2026-05-22",
        "payment": {
          "cards": "yes",
          "contactless": "yes"
        }
      }
    },
    {
      "type": "Feature",
      "geometry": {
        "type": "Point",
        "coordinates": [
          10.8688949,
          48.35655
        ]
      },
      "properties": {
        "id": "tk_a_osm_n851126684",
        "name": "Hell Getränkemarkt",
        "address": {
          "street": "Droste-Hülshoff-Straße",
          "number": "1",
          "postalcode": "86157",
          "city": "Augsburg"
        },
        "sources": [
          {
            "type": "osm",
            "id": "node/851126684",
            "version": 0
          },
          {
            "type": "gmaps",
            "id": "payment"
          }
        ],
        "created": "2026-05-20",
        "updated": "2026-05-21",
        "hours": {
          "raw": "Mo-Fr 09:00-18:00; Sa 09:00-14:00; Su,PH off"
        },
        "payment": {
          "cards": "no",
          "girocard": "yes",
          "contactless": "yes"
        },
        "apple_id_attempted": "2026-05-22"
      }
    },
    {
      "type": "Feature",
      "geometry": {
        "type": "Point",
        "coordinates": [
          10.9284906,
          48.3785264
        ]
      },
      "properties": {
        "id": "tk_a_osm_n948160864",
        "name": "Fristo",
        "address": {
          "street": "Stätzlinger Straße",
          "number": "35",
          "postalcode": "86165",
          "city": "Augsburg"
        },
        "sources": [
          {
            "type": "osm",
            "id": "node/948160864",
            "version": 0
          },
          {
            "type": "gmaps",
            "id": "payment"
          }
        ],
        "created": "2026-05-20",
        "updated": "2026-05-21",
        "hours": {
          "raw": "Mo-Sa 08:00-20:00"
        },
        "payment": {
          "cards": "no",
          "girocard": "yes",
          "contactless": "yes"
        },
        "apple_id_attempted": "2026-05-22"
      }
    },
    {
      "type": "Feature",
      "geometry": {
        "type": "Point",
        "coordinates": [
          10.9176203,
          48.3558211
        ]
      },
      "properties": {
        "id": "tk_a_osm_w105469809",
        "name": "Sobi",
        "address": {
          "street": "Friedberger Straße",
          "number": "45 1/2",
          "postalcode": "86161",
          "city": "Augsburg"
        },
        "sources": [
          {
            "type": "osm",
            "id": "way/105469809",
            "version": 0
          },
          {
            "type": "gmaps",
            "id": "payment"
          }
        ],
        "created": "2026-05-20",
        "updated": "2026-05-21",
        "hours": {
          "raw": "Mo-Sa 08:00-20:00"
        },
        "payment": {
          "girocard": "yes",
          "cards": "no",
          "contactless": "yes"
        },
        "apple_id_attempted": "2026-05-22"
      }
    },
    {
      "type": "Feature",
      "geometry": {
        "type": "Point",
        "coordinates": [
          10.9303453,
          48.3747685
        ]
      },
      "properties": {
        "id": "tk_a_osm_w1073555606",
        "name": "Sobi",
        "address": {
          "street": "Bauernfeld",
          "number": "5a",
          "postalcode": "86165",
          "city": "Augsburg",
          "district": "Lechhausen"
        },
        "sources": [
          {
            "type": "osm",
            "id": "way/1073555606",
            "version": 0
          },
          {
            "type": "gmaps",
            "id": "payment"
          }
        ],
        "created": "2026-05-20",
        "updated": "2026-05-23",
        "payment": {
          "cards": "no",
          "girocard": "yes",
          "contactless": "yes"
        },
        "apple_id_attempted": "2026-05-22",
        "google_attempted": "2026-05-25"
      }
    },
    {
      "type": "Feature",
      "geometry": {
        "type": "Point",
        "coordinates": [
          10.9020978,
          48.35852
        ]
      },
      "properties": {
        "id": "tk_a_osm_w110530417",
        "name": "Bahnsteig",
        "address": {
          "street": "Am Roten Tor",
          "postalcode": "86150",
          "city": "Augsburg",
          "district": "Innenstadt"
        },
        "sources": [
          {
            "type": "osm",
            "id": "way/110530417",
            "version": 0
          },
          {
            "type": "gmaps",
            "id": "ChIJO-LtmQCYnkcRKseWSBZ1XXw"
          }
        ],
        "created": "2026-05-20",
        "updated": "2026-05-23",
        "hours": {
          "raw": "07:00-18:00"
        },
        "tags": [
          "barrierefrei"
        ],
        "payment": {
          "cash": "yes"
        },
        "apple_id_attempted": "2026-05-22",
        "google_attempted": "2026-05-25"
      }
    },
    {
      "type": "Feature",
      "geometry": {
        "type": "Point",
        "coordinates": [
          10.9167397,
          48.3830786
        ]
      },
      "properties": {
        "id": "tk_a_osm_w110996985",
        "name": "Sobi",
        "address": {
          "street": "Neuburger Straße",
          "number": "71",
          "postalcode": "86167",
          "city": "Augsburg"
        },
        "sources": [
          {
            "type": "osm",
            "id": "way/110996985",
            "version": 0
          },
          {
            "type": "gmaps",
            "id": "payment"
          }
        ],
        "created": "2026-05-20",
        "updated": "2026-05-21",
        "hours": {
          "raw": "Mo-Sa 08:00-20:00; PH off"
        },
        "tags": [
          "barrierefrei"
        ],
        "payment": {
          "girocard": "yes",
          "cards": "no",
          "contactless": "yes"
        },
        "apple_id_attempted": "2026-05-22"
      }
    },
    {
      "type": "Feature",
      "geometry": {
        "type": "Point",
        "coordinates": [
          10.8765781,
          48.3585963
        ]
      },
      "properties": {
        "id": "tk_a_osm_w1292796540",
        "name": "Sonnenglück",
        "address": {
          "street": "Stadionstraße",
          "number": "11",
          "postalcode": "86159",
          "city": "Augsburg"
        },
        "sources": [
          {
            "type": "osm",
            "id": "way/1292796540",
            "version": 0
          },
          {
            "type": "gmaps",
            "id": "ChIJT_UsPrainkcR1N34eRHBnes"
          }
        ],
        "created": "2026-05-20",
        "updated": "2026-05-25",
        "hours": {
          "raw": "Tu 12:00-21:30; Th 11:30-22:30; Fr 11:30-22:30; We 12:00-21:30; Mo 12:00-21:30; Sa 11:30-22:30; Su 12:00-21:30"
        },
        "payment": {
          "cash": "yes"
        },
        "apple_id_attempted": "2026-05-22",
        "sources_by_field": {
          "hours": "google"
        },
        "google_attempted": "2026-05-25"
      }
    },
    {
      "type": "Feature",
      "geometry": {
        "type": "Point",
        "coordinates": [
          10.8647346,
          48.4356499
        ]
      },
      "properties": {
        "id": "tk_a_osm_w206812655",
        "name": "Sobi",
        "address": {
          "street": "Messerschmittstraße",
          "number": "3",
          "postalcode": "86368",
          "city": "Gersthofen"
        },
        "sources": [
          {
            "type": "osm",
            "id": "way/206812655",
            "version": 0
          },
          {
            "type": "gmaps",
            "id": "payment"
          }
        ],
        "created": "2026-05-20",
        "updated": "2026-05-21",
        "hours": {
          "raw": "Mo-Fr 08:30-19:00; Sa 08:00-18:00; Su off"
        },
        "payment": {
          "girocard": "yes",
          "cards": "no",
          "contactless": "yes"
        },
        "apple_id_attempted": "2026-05-22"
      }
    },
    {
      "type": "Feature",
      "geometry": {
        "type": "Point",
        "coordinates": [
          10.8703398,
          48.3733592
        ]
      },
      "properties": {
        "id": "tk_a_osm_w210851648",
        "name": "Sobi",
        "address": {
          "street": "Reinöhlstraße",
          "number": "101",
          "postalcode": "86156",
          "city": "Augsburg"
        },
        "sources": [
          {
            "type": "osm",
            "id": "way/210851648",
            "version": 0
          },
          {
            "type": "gmaps",
            "id": "payment"
          }
        ],
        "created": "2026-05-20",
        "updated": "2026-05-21",
        "hours": {
          "raw": "Mo-Sa 08:00-20:00"
        },
        "tags": [
          "barrierefrei"
        ],
        "payment": {
          "girocard": "yes",
          "cards": "no",
          "contactless": "yes"
        },
        "apple_id_attempted": "2026-05-22"
      }
    },
    {
      "type": "Feature",
      "geometry": {
        "type": "Point",
        "coordinates": [
          10.8855001,
          48.2839994
        ]
      },
      "properties": {
        "id": "tk_a_osm_w34026473",
        "name": "Fristo",
        "address": {
          "street": "Guldenstraße",
          "number": "31",
          "postalcode": "86343",
          "city": "Königsbrunn"
        },
        "sources": [
          {
            "type": "osm",
            "id": "way/34026473",
            "version": 0
          },
          {
            "type": "gmaps",
            "id": "payment"
          }
        ],
        "created": "2026-05-20",
        "updated": "2026-05-21",
        "hours": {
          "raw": "Mo-Sa 08:00-20:00"
        },
        "payment": {
          "cards": "no",
          "girocard": "yes",
          "contactless": "yes"
        },
        "apple_id_attempted": "2026-05-22"
      }
    },
    {
      "type": "Feature",
      "geometry": {
        "type": "Point",
        "coordinates": [
          10.8766376,
          48.3854461
        ]
      },
      "properties": {
        "id": "tk_a_osm_w77611491",
        "name": "Kiosk Döner",
        "address": {
          "street": "Zollernstraße",
          "number": "38",
          "postalcode": "86154",
          "city": "Augsburg",
          "district": "Oberhausen"
        },
        "sources": [
          {
            "type": "osm",
            "id": "way/77611491",
            "version": 0
          },
          {
            "type": "apple",
            "id": "9375058011497499277"
          }
        ],
        "created": "2026-05-20",
        "updated": "2026-05-24",
        "payment_attempted": "2026-05-22",
        "payment": {
          "cards": "yes",
          "contactless": "yes"
        },
        "hours": {
          "raw": "Su 10:00-14:00; Th,Sa 10:00-20:00"
        },
        "apple_attempted": "2026-05-24"
      }
    },
    {
      "type": "Feature",
      "geometry": {
        "type": "Point",
        "coordinates": [
          10.8863267,
          48.3487976
        ]
      },
      "properties": {
        "id": "tk_a_osm_w90292743",
        "name": "Sobi",
        "address": {
          "street": "Eichleitnerstraße",
          "number": "14 1/2",
          "postalcode": "86199",
          "city": "Augsburg"
        },
        "sources": [
          {
            "type": "osm",
            "id": "way/90292743",
            "version": 0
          },
          {
            "type": "gmaps",
            "id": "payment"
          }
        ],
        "created": "2026-05-20",
        "updated": "2026-05-21",
        "hours": {
          "raw": "Mo-Sa 07:00-20:00; Su,PH off"
        },
        "tags": [
          "barrierefrei"
        ],
        "payment": {
          "cards": "no",
          "girocard": "yes",
          "contactless": "yes"
        },
        "apple_id_attempted": "2026-05-22"
      }
    },
    {
      "type": "Feature",
      "geometry": {
        "type": "Point",
        "coordinates": [
          10.9935351,
          48.4335565
        ]
      },
      "properties": {
        "id": "tk_a_osm_w96239023",
        "name": "Getränkestadl Funk",
        "address": {
          "number": "1",
          "postalcode": "86444",
          "city": "Affing",
          "street": "Frechholzhausen",
          "district": "Frechholzhausen"
        },
        "sources": [
          {
            "type": "osm",
            "id": "way/96239023",
            "version": 0
          },
          {
            "type": "gmaps",
            "id": "payment"
          },
          {
            "type": "apple",
            "id": "10481443700310913997"
          }
        ],
        "created": "2026-05-20",
        "updated": "2026-05-23",
        "hours": {
          "raw": "Fr 13:00-18:00; Sa 09:00-16:00; PH off"
        },
        "payment": {
          "cards": "no",
          "girocard": "yes",
          "contactless": "yes"
        }
      }
    },
    {
      "type": "Feature",
      "geometry": {
        "type": "Point",
        "coordinates": [
          10.8994827,
          48.2806846
        ]
      },
      "properties": {
        "id": "tk_a_osm_w99868790",
        "name": "Sunrise",
        "address": {
          "street": "Lechstraße",
          "city": "Augsburg",
          "postalcode": "86343"
        },
        "sources": [
          {
            "type": "osm",
            "id": "way/99868790",
            "version": 0
          },
          {
            "type": "gmaps",
            "id": "payment"
          }
        ],
        "created": "2026-05-20",
        "updated": "2026-05-23",
        "hours": {
          "raw": "Tu-Su 13:00-20:00: Mo off"
        },
        "tags": [
          "barrierefrei"
        ],
        "payment": {
          "girocard": "yes",
          "cards": "yes"
        },
        "apple_id_attempted": "2026-05-22"
      }
    },
    {
      "type": "Feature",
      "geometry": {
        "type": "Point",
        "coordinates": [
          10.890799,
          48.2869543
        ]
      },
      "properties": {
        "id": "tk_a_osm_n1156088634",
        "name": "Lotto-Tabak-Zeitschriften",
        "address": {
          "street": "Germanenstraße",
          "number": "16",
          "postalcode": "86343",
          "city": "Königsbrunn"
        },
        "sources": [
          {
            "type": "osm",
            "id": "node/1156088634",
            "version": 0
          }
        ],
        "created": "2026-05-20",
        "updated": "2026-05-25",
        "tags": [
          "barrierefrei"
        ],
        "apple_id_attempted": "2026-05-25",
        "google_attempted": "2026-05-25"
      }
    },
    {
      "type": "Feature",
      "geometry": {
        "type": "Point",
        "coordinates": [
          10.8754342,
          48.3504516
        ]
      },
      "properties": {
        "id": "tk_a_osm_n2660984172",
        "name": "Jürgen Sommer - Schreibwaren",
        "address": {
          "street": "Bergstraße",
          "number": "14",
          "postalcode": "86199",
          "city": "Augsburg"
        },
        "sources": [
          {
            "type": "osm",
            "id": "node/2660984172",
            "version": 0
          }
        ],
        "created": "2026-05-20",
        "updated": "2026-05-25",
        "hours": {
          "raw": "Mo-Fr 06:00-13:00,15:00-18:00, Sa 07:00-13:00"
        },
        "apple_id_attempted": "2026-05-25",
        "google_attempted": "2026-05-25"
      }
    },
    {
      "type": "Feature",
      "geometry": {
        "type": "Point",
        "coordinates": [
          10.8948674,
          48.3670209
        ]
      },
      "properties": {
        "id": "tk_a_osm_n3516043774",
        "name": "City Kiosk",
        "address": {
          "street": "Annastraße",
          "number": "32",
          "postalcode": "86150",
          "city": "Augsburg"
        },
        "sources": [
          {
            "type": "osm",
            "id": "node/3516043774",
            "version": 0
          },
          {
            "type": "gmaps",
            "id": "ChIJAz7k_d29nkcRKCvfE7cEapU"
          }
        ],
        "created": "2026-05-20",
        "updated": "2026-05-25",
        "apple_id_attempted": "2026-05-25",
        "hours": {
          "raw": "Tu 08:00-23:00; Th 08:00-23:00; Fr 08:00-23:00; We 08:00-23:00; Mo 08:00-23:00; Sa 08:00-23:00; Su 08:00-23:00"
        },
        "sources_by_field": {
          "hours": "google"
        },
        "google_attempted": "2026-05-25"
      }
    },
    {
      "type": "Feature",
      "geometry": {
        "type": "Point",
        "coordinates": [
          10.9087689,
          48.3650976
        ]
      },
      "properties": {
        "id": "tk_a_osm_n3584242123",
        "name": "Wörl",
        "address": {},
        "sources": [
          {
            "type": "osm",
            "id": "node/3584242123",
            "version": 0
          }
        ],
        "created": "2026-05-20",
        "updated": "2026-05-25",
        "hours": {
          "raw": "Mo-Th 10:00-20:00; Fr,Sa 09:30-20:00"
        },
        "tags": [
          "barrierefrei"
        ],
        "apple_id_attempted": "2026-05-25",
        "google_attempted": "2026-05-25"
      }
    },
    {
      "type": "Feature",
      "geometry": {
        "type": "Point",
        "coordinates": [
          10.9883666,
          48.2631202
        ]
      },
      "properties": {
        "id": "tk_a_osm_n3623854685",
        "name": "ServiceStore DB",
        "address": {},
        "sources": [
          {
            "type": "osm",
            "id": "node/3623854685",
            "version": 0
          }
        ],
        "created": "2026-05-20",
        "updated": "2026-05-25",
        "hours": {
          "raw": "Mo-Fr 04:45-19:30; Sa 06:30-19:00; PH,Su off"
        },
        "tags": [
          "barrierefrei"
        ],
        "apple_id_attempted": "2026-05-25",
        "google_attempted": "2026-05-25"
      }
    },
    {
      "type": "Feature",
      "geometry": {
        "type": "Point",
        "coordinates": [
          10.8902743,
          48.2862352
        ]
      },
      "properties": {
        "id": "tk_a_osm_n5022129135",
        "name": "Sobi",
        "address": {
          "street": "Wandalenstraße",
          "number": "22",
          "city": "Königsbrunn"
        },
        "sources": [
          {
            "type": "osm",
            "id": "node/5022129135",
            "version": 0
          }
        ],
        "created": "2026-05-20",
        "updated": "2026-05-25",
        "hours": {
          "raw": "Mo-Sa 08:00-20:00"
        },
        "tags": [
          "barrierefrei"
        ],
        "apple_id_attempted": "2026-05-25",
        "google_attempted": "2026-05-25"
      }
    },
    {
      "type": "Feature",
      "geometry": {
        "type": "Point",
        "coordinates": [
          10.9087875,
          48.3705698
        ]
      },
      "properties": {
        "id": "tk_a_osm_n6830246756",
        "name": "Kiosk Corner",
        "address": {
          "street": "Untere Jakobermauer",
          "number": "2",
          "postalcode": "86152",
          "city": "Augsburg"
        },
        "sources": [
          {
            "type": "osm",
            "id": "node/6830246756",
            "version": 0
          },
          {
            "type": "gmaps",
            "id": "ChIJd5rDJ2KXnkcRGdbntZkJ0Nk"
          }
        ],
        "created": "2026-05-20",
        "updated": "2026-05-25",
        "hours": {
          "raw": "Mo-Fr 06:00-18:00; Sa 09:00-16:00; Su,PH off"
        },
        "apple_id_attempted": "2026-05-25",
        "google_attempted": "2026-05-25"
      }
    },
    {
      "type": "Feature",
      "geometry": {
        "type": "Point",
        "coordinates": [
          10.9768834,
          48.2728132
        ]
      },
      "properties": {
        "id": "tk_a_osm_n6934436973",
        "name": "Fristo",
        "address": {},
        "sources": [
          {
            "type": "osm",
            "id": "node/6934436973",
            "version": 0
          }
        ],
        "created": "2026-05-20",
        "updated": "2026-05-25",
        "hours": {
          "raw": "Mo-Sa 08:00-20:00; PH off"
        },
        "payment": {
          "cash": "yes",
          "cards": "unknown",
          "contactless": "yes",
          "girocard": "yes"
        },
        "tags": [
          "barrierefrei"
        ],
        "apple_id_attempted": "2026-05-25"
      }
    },
    {
      "type": "Feature",
      "geometry": {
        "type": "Point",
        "coordinates": [
          10.8882395,
          48.3693238
        ]
      },
      "properties": {
        "id": "tk_a_osm_n773502351",
        "name": "Frölichlädle",
        "address": {
          "street": "Frölichstraße",
          "number": "10",
          "postalcode": "86150",
          "city": "Augsburg"
        },
        "sources": [
          {
            "type": "osm",
            "id": "node/773502351",
            "version": 0
          }
        ],
        "created": "2026-05-20",
        "updated": "2026-05-25",
        "apple_id_attempted": "2026-05-25",
        "google_attempted": "2026-05-25"
      }
    },
    {
      "type": "Feature",
      "geometry": {
        "type": "Point",
        "coordinates": [
          10.9884927,
          48.2719612
        ]
      },
      "properties": {
        "id": "tk_a_osm_n7923889813",
        "name": "Getränke Widmann",
        "address": {},
        "sources": [
          {
            "type": "osm",
            "id": "node/7923889813",
            "version": 0
          }
        ],
        "created": "2026-05-20",
        "updated": "2026-05-25",
        "hours": {
          "raw": "Mo-Fr 08:30-19:00; Sa 08:00-16:00"
        },
        "payment": {
          "cash": "yes",
          "cards": "unknown",
          "contactless": "unknown",
          "girocard": "yes"
        },
        "apple_id_attempted": "2026-05-25"
      }
    },
    {
      "type": "Feature",
      "geometry": {
        "type": "Point",
        "coordinates": [
          10.9093827,
          48.3170726
        ]
      },
      "properties": {
        "id": "tk_a_osm_n8551755776",
        "name": "Lotto / Fee",
        "address": {
          "street": "Haunstetter Straße",
          "postalcode": "86179",
          "city": "Augsburg"
        },
        "sources": [
          {
            "type": "osm",
            "id": "node/8551755776",
            "version": 0
          }
        ],
        "created": "2026-05-20",
        "updated": "2026-05-25",
        "hours": {
          "raw": "Mo-Fr 08:00-18:00, Sa 08:00-13:00"
        },
        "apple_id_attempted": "2026-05-25",
        "google_attempted": "2026-05-25"
      }
    },
    {
      "type": "Feature",
      "geometry": {
        "type": "Point",
        "coordinates": [
          10.8593999,
          48.3134665
        ]
      },
      "properties": {
        "id": "tk_a_osm_n9371028789",
        "name": "Getränke Böck",
        "address": {
          "street": "Oktavianstraße",
          "number": "5",
          "postalcode": "86199",
          "city": "Augsburg",
          "district": "Inningen"
        },
        "sources": [
          {
            "type": "osm",
            "id": "node/9371028789",
            "version": 0
          },
          {
            "type": "gmaps",
            "id": "ChIJX300NWiinkcR1Oo8JepkeD8"
          }
        ],
        "created": "2026-05-20",
        "updated": "2026-05-25",
        "apple_id_attempted": "2026-05-25",
        "google_attempted": "2026-05-25"
      }
    },
    {
      "type": "Feature",
      "geometry": {
        "type": "Point",
        "coordinates": [
          10.8594527,
          48.3138421
        ]
      },
      "properties": {
        "id": "tk_a_osm_n9371028807",
        "name": "Oktavian No 1",
        "address": {
          "street": "Oktavianstraße",
          "number": "1",
          "postalcode": "86199",
          "city": "Augsburg",
          "district": "Inningen"
        },
        "sources": [
          {
            "type": "osm",
            "id": "node/9371028807",
            "version": 0
          }
        ],
        "created": "2026-05-20",
        "updated": "2026-05-25",
        "hours": {
          "raw": "Tu-Fr 08:00-13:00,14:00-18:00; Mo,Sa 08:00-14:00"
        },
        "apple_id_attempted": "2026-05-25",
        "google_attempted": "2026-05-25"
      }
    },
    {
      "type": "Feature",
      "geometry": {
        "type": "Point",
        "coordinates": [
          10.9652167,
          48.3644909
        ]
      },
      "properties": {
        "id": "tk_a_osm_w110403335",
        "name": "Kiosk",
        "address": {},
        "sources": [
          {
            "type": "osm",
            "id": "way/110403335",
            "version": 0
          }
        ],
        "created": "2026-05-20",
        "updated": "2026-05-25",
        "payment": {
          "cash": "yes",
          "cards": "no",
          "contactless": "unknown",
          "girocard": "no"
        },
        "apple_id_attempted": "2026-05-25",
        "google_attempted": "2026-05-25"
      }
    },
    {
      "type": "Feature",
      "geometry": {
        "type": "Point",
        "coordinates": [
          10.9668011,
          48.3608191
        ]
      },
      "properties": {
        "id": "tk_a_osm_w110403343",
        "name": "Kiosk",
        "address": {},
        "sources": [
          {
            "type": "osm",
            "id": "way/110403343",
            "version": 0
          }
        ],
        "created": "2026-05-20",
        "updated": "2026-05-25",
        "apple_id_attempted": "2026-05-25",
        "google_attempted": "2026-05-25"
      }
    },
    {
      "type": "Feature",
      "geometry": {
        "type": "Point",
        "coordinates": [
          10.8715839,
          48.3761379
        ]
      },
      "properties": {
        "id": "tk_a_osm_w116398646",
        "name": "Getränke-Walter",
        "address": {
          "street": "Offinger Straße",
          "number": "4",
          "postalcode": "86156",
          "city": "Augsburg"
        },
        "sources": [
          {
            "type": "osm",
            "id": "way/116398646",
            "version": 0
          },
          {
            "type": "gmaps",
            "id": "ChIJ9dAvjzq9nkcR-V1Azd5EQI0"
          }
        ],
        "created": "2026-05-20",
        "updated": "2026-05-25",
        "hours": {
          "raw": "Mo-Fr 08:30-12:00,13:30-17:00, Sa 08:30-12:00"
        },
        "apple_id_attempted": "2026-05-25",
        "google_attempted": "2026-05-25"
      }
    },
    {
      "type": "Feature",
      "geometry": {
        "type": "Point",
        "coordinates": [
          10.8582808,
          48.397499
        ]
      },
      "properties": {
        "id": "tk_a_osm_w133562466",
        "name": "Zugspitz Stub'n",
        "address": {},
        "sources": [
          {
            "type": "osm",
            "id": "way/133562466",
            "version": 0
          }
        ],
        "created": "2026-05-20",
        "updated": "2026-05-25",
        "apple_id_attempted": "2026-05-25",
        "google_attempted": "2026-05-25"
      }
    },
    {
      "type": "Feature",
      "geometry": {
        "type": "Point",
        "coordinates": [
          10.8576163,
          48.3910157
        ]
      },
      "properties": {
        "id": "tk_a_osm_w161231741",
        "name": "Fristo",
        "address": {
          "street": "Holzweg",
          "number": "45a",
          "postalcode": "86156",
          "city": "Augsburg"
        },
        "sources": [
          {
            "type": "osm",
            "id": "way/161231741",
            "version": 0
          }
        ],
        "created": "2026-05-20",
        "updated": "2026-05-25",
        "tags": [
          "barrierefrei"
        ],
        "apple_id_attempted": "2026-05-25",
        "google_attempted": "2026-05-25"
      }
    },
    {
      "type": "Feature",
      "geometry": {
        "type": "Point",
        "coordinates": [
          11.0480389,
          48.4472645
        ]
      },
      "properties": {
        "id": "tk_a_osm_w203298608",
        "name": "Zeller Getränkemarkt",
        "address": {
          "street": "Haunswieser Straße",
          "number": "23",
          "postalcode": "86551",
          "city": "Aichach",
          "district": "Griesbeckerzell"
        },
        "sources": [
          {
            "type": "osm",
            "id": "way/203298608",
            "version": 0
          }
        ],
        "created": "2026-05-20",
        "updated": "2026-05-25",
        "apple_id_attempted": "2026-05-25",
        "google_attempted": "2026-05-25"
      }
    }
  ]
}
