{
  "type": "FeatureCollection",
  "features": [
    {
      "type": "Feature",
      "geometry": {
        "type": "Point",
        "coordinates": [
          11.4379446,
          48.7658032
        ]
      },
      "properties": {
        "id": "tk_in_osm_n10209224050",
        "name": "Markgrafen Getränkemarkt",
        "address": {},
        "sources": [
          {
            "type": "osm",
            "id": "node/10209224050",
            "version": 0
          },
          {
            "type": "gmaps",
            "id": "ChIJpx9ELgr_nkcRKUanW9VyYWI"
          }
        ],
        "created": "2026-05-21",
        "updated": "2026-05-21",
        "payment": {
          "cards": "no",
          "girocard": "yes",
          "contactless": "yes"
        },
        "apple_id_attempted": "2026-05-22",
        "google_attempted": "2026-05-22"
      }
    },
    {
      "type": "Feature",
      "geometry": {
        "type": "Point",
        "coordinates": [
          11.3163554,
          48.8268881
        ]
      },
      "properties": {
        "id": "tk_in_osm_n10587991302",
        "name": "Hörl",
        "address": {
          "street": "Carl-Benz-Straße",
          "number": "2",
          "postalcode": "85117",
          "city": "Eitensheim"
        },
        "sources": [
          {
            "type": "osm",
            "id": "node/10587991302",
            "version": 0
          },
          {
            "type": "gmaps",
            "id": "ChIJCQfnySkDn0cRWqcwkEiBnKs"
          }
        ],
        "created": "2026-05-21",
        "updated": "2026-05-21",
        "payment": {
          "cards": "no",
          "girocard": "yes",
          "contactless": "yes"
        },
        "apple_id_attempted": "2026-05-22",
        "google_attempted": "2026-05-22"
      }
    },
    {
      "type": "Feature",
      "geometry": {
        "type": "Point",
        "coordinates": [
          11.4240944,
          48.7640773
        ]
      },
      "properties": {
        "id": "tk_in_osm_n11951798451",
        "name": "iRepairStore",
        "address": {},
        "sources": [
          {
            "type": "osm",
            "id": "node/11951798451",
            "version": 0
          },
          {
            "type": "gmaps",
            "id": "payment"
          }
        ],
        "created": "2026-05-21",
        "updated": "2026-05-21",
        "hours": {
          "raw": "Mo-Fr 10:00-18:00; Sa 10:00-16:00; PH off"
        },
        "tags": [
          "barrierefrei"
        ],
        "payment": {
          "girocard": "yes",
          "cards": "no",
          "contactless": "yes"
        },
        "apple_id_attempted": "2026-05-22"
      }
    },
    {
      "type": "Feature",
      "geometry": {
        "type": "Point",
        "coordinates": [
          11.4229198,
          48.8217826
        ]
      },
      "properties": {
        "id": "tk_in_osm_n1204233336",
        "name": "Hoerl",
        "address": {
          "street": "Dr.-Kurt-Schumacher-Ring",
          "number": "3",
          "postalcode": "85139",
          "city": "Wettstetten"
        },
        "sources": [
          {
            "type": "osm",
            "id": "node/1204233336",
            "version": 0
          },
          {
            "type": "gmaps",
            "id": "payment"
          }
        ],
        "created": "2026-05-21",
        "updated": "2026-05-22",
        "hours": {
          "raw": "Mo-Tu 08:30-18:00; We 08:30-13:30; Th-Fr 08:30-18:00; Sa 08:00-14:00"
        },
        "tags": [
          "barrierefrei"
        ],
        "payment": {
          "cards": "no",
          "girocard": "yes",
          "contactless": "yes"
        },
        "apple_id_attempted": "2026-05-22"
      }
    },
    {
      "type": "Feature",
      "geometry": {
        "type": "Point",
        "coordinates": [
          11.3995605,
          48.8075371
        ]
      },
      "properties": {
        "id": "tk_in_osm_n12254833931",
        "name": "REWE Getränkemarkt",
        "address": {},
        "sources": [
          {
            "type": "osm",
            "id": "node/12254833931",
            "version": 0
          },
          {
            "type": "gmaps",
            "id": "payment"
          }
        ],
        "created": "2026-05-21",
        "updated": "2026-05-21",
        "hours": {
          "raw": "Mo-Sa 07:00-20:00"
        },
        "payment": {
          "cards": "no",
          "girocard": "yes",
          "contactless": "yes"
        },
        "apple_id_attempted": "2026-05-22"
      }
    },
    {
      "type": "Feature",
      "geometry": {
        "type": "Point",
        "coordinates": [
          11.4428677,
          48.7284156
        ]
      },
      "properties": {
        "id": "tk_in_osm_n1286927220",
        "name": "Getränke Häusler",
        "address": {
          "street": "Münchener Straße",
          "number": "235",
          "postalcode": "85051",
          "city": "Ingolstadt"
        },
        "sources": [
          {
            "type": "osm",
            "id": "node/1286927220",
            "version": 0
          },
          {
            "type": "gmaps",
            "id": "ChIJ-YioszrnC0ERQi5xkZdfAJ8"
          }
        ],
        "created": "2026-05-21",
        "updated": "2026-05-21",
        "payment": {
          "cards": "no",
          "girocard": "yes",
          "contactless": "yes"
        },
        "apple_id_attempted": "2026-05-22",
        "google_attempted": "2026-05-22"
      }
    },
    {
      "type": "Feature",
      "geometry": {
        "type": "Point",
        "coordinates": [
          11.3767558,
          48.7787678
        ]
      },
      "properties": {
        "id": "tk_in_osm_n12949373952",
        "name": "Hörl",
        "address": {
          "street": "Schultheißstraße",
          "number": "86",
          "postalcode": "85049",
          "city": "Ingolstadt"
        },
        "sources": [
          {
            "type": "osm",
            "id": "node/12949373952",
            "version": 0
          },
          {
            "type": "gmaps",
            "id": "payment"
          }
        ],
        "created": "2026-05-21",
        "updated": "2026-05-21",
        "hours": {
          "raw": "Mo-FR 09:00-18:00;Sa 09:00-12:00"
        },
        "payment": {
          "cards": "no",
          "girocard": "yes",
          "contactless": "yes"
        },
        "apple_id_attempted": "2026-05-22"
      }
    },
    {
      "type": "Feature",
      "geometry": {
        "type": "Point",
        "coordinates": [
          11.4225652,
          48.7051229
        ]
      },
      "properties": {
        "id": "tk_in_osm_n13351421421",
        "name": "trinkgut",
        "address": {
          "street": "Am Hochfeldweg",
          "number": "2d",
          "postalcode": "85051",
          "city": "Ingolstadt"
        },
        "sources": [
          {
            "type": "osm",
            "id": "node/13351421421",
            "version": 0
          }
        ],
        "created": "2026-05-21",
        "updated": "2026-05-21",
        "hours": {
          "raw": "Mo-Sa 08:00-20:00"
        },
        "tags": [
          "barrierefrei"
        ],
        "payment_attempted": "2026-05-22",
        "apple_id_attempted": "2026-05-22",
        "google_attempted": "2026-05-22"
      }
    },
    {
      "type": "Feature",
      "geometry": {
        "type": "Point",
        "coordinates": [
          11.3733392,
          48.7952366
        ]
      },
      "properties": {
        "id": "tk_in_osm_n1614654776",
        "name": "Hörl",
        "address": {},
        "sources": [
          {
            "type": "osm",
            "id": "node/1614654776",
            "version": 0
          },
          {
            "type": "gmaps",
            "id": "payment"
          }
        ],
        "created": "2026-05-21",
        "updated": "2026-05-21",
        "payment": {
          "cards": "no",
          "girocard": "yes",
          "contactless": "yes"
        },
        "apple_id_attempted": "2026-05-22",
        "google_attempted": "2026-05-22"
      }
    },
    {
      "type": "Feature",
      "geometry": {
        "type": "Point",
        "coordinates": [
          11.4906813,
          48.7171866
        ]
      },
      "properties": {
        "id": "tk_in_osm_n2429380560",
        "name": "Rohm Tabakladen",
        "address": {
          "street": "Ingolstädter Straße",
          "number": "24",
          "postalcode": "85077",
          "city": "Manching"
        },
        "sources": [
          {
            "type": "osm",
            "id": "node/2429380560",
            "version": 0
          },
          {
            "type": "gmaps",
            "id": "ChIJeZXD-eZVnkcRIhLR6UJ-NcY"
          }
        ],
        "created": "2026-05-21",
        "updated": "2026-05-21",
        "payment": {
          "girocard": "yes",
          "cards": "yes"
        },
        "apple_id_attempted": "2026-05-22",
        "google_attempted": "2026-05-22"
      }
    },
    {
      "type": "Feature",
      "geometry": {
        "type": "Point",
        "coordinates": [
          11.3698742,
          48.8020361
        ]
      },
      "properties": {
        "id": "tk_in_osm_n244040625",
        "name": "Tankstelle Knapp",
        "address": {
          "street": "Ingolstädter Straße",
          "number": "28",
          "postalcode": "85080",
          "city": "Gaimersheim"
        },
        "sources": [
          {
            "type": "osm",
            "id": "node/244040625",
            "version": 0
          },
          {
            "type": "gmaps",
            "id": "payment"
          }
        ],
        "created": "2026-05-21",
        "updated": "2026-05-21",
        "hours": {
          "raw": "Mo-Sa 07:00-21:00; Su 08:00-20:00; PH 08:00-20:00"
        },
        "payment": {
          "cards": "no",
          "girocard": "yes",
          "contactless": "yes"
        },
        "apple_id_attempted": "2026-05-22"
      }
    },
    {
      "type": "Feature",
      "geometry": {
        "type": "Point",
        "coordinates": [
          11.4443238,
          48.7294315
        ]
      },
      "properties": {
        "id": "tk_in_osm_n2788825374",
        "name": "Getränke Hörl",
        "address": {},
        "sources": [
          {
            "type": "osm",
            "id": "node/2788825374",
            "version": 0
          },
          {
            "type": "gmaps",
            "id": "payment"
          }
        ],
        "created": "2026-05-21",
        "updated": "2026-05-21",
        "payment": {
          "cards": "no",
          "girocard": "yes",
          "contactless": "yes"
        },
        "apple_id_attempted": "2026-05-22",
        "google_attempted": "2026-05-22"
      }
    },
    {
      "type": "Feature",
      "geometry": {
        "type": "Point",
        "coordinates": [
          11.588074,
          48.8300003
        ]
      },
      "properties": {
        "id": "tk_in_osm_n290800469",
        "name": "Dollinger Getränkestad'l",
        "address": {},
        "sources": [
          {
            "type": "osm",
            "id": "node/290800469",
            "version": 0
          },
          {
            "type": "apple",
            "id": "15601833802032246627"
          },
          {
            "type": "gmaps",
            "id": "ChIJ9b8CfqOrn0cR7zTy1ry0pqc"
          }
        ],
        "created": "2026-05-21",
        "updated": "2026-05-22",
        "payment_attempted": "2026-05-22",
        "hours": {
          "raw": "Mo-Tu 09:00-12:00; Th-Fr 09:00-12:00,15:00-18:00; Sa 09:00-12:30"
        },
        "google_attempted": "2026-05-22",
        "apple_attempted": "2026-05-23"
      }
    },
    {
      "type": "Feature",
      "geometry": {
        "type": "Point",
        "coordinates": [
          11.440501,
          48.7225733
        ]
      },
      "properties": {
        "id": "tk_in_osm_n296374436",
        "name": "Agip",
        "address": {
          "street": "Münchener Straße",
          "number": "284",
          "postalcode": "85051",
          "city": "Ingolstadt"
        },
        "sources": [
          {
            "type": "osm",
            "id": "node/296374436",
            "version": 0
          },
          {
            "type": "gmaps",
            "id": "ChIJhy5vrDf_nkcRK19Tj0CUJ7k"
          }
        ],
        "created": "2026-05-21",
        "updated": "2026-05-21",
        "payment": {
          "cards": "no",
          "girocard": "yes",
          "contactless": "yes"
        },
        "apple_id_attempted": "2026-05-22",
        "google_attempted": "2026-05-22"
      }
    },
    {
      "type": "Feature",
      "geometry": {
        "type": "Point",
        "coordinates": [
          11.5338782,
          48.7660969
        ]
      },
      "properties": {
        "id": "tk_in_osm_n314461517",
        "name": "Getränke Hörl",
        "address": {
          "street": "Starkstraße",
          "number": "5",
          "postalcode": "85098",
          "city": "Großmehring"
        },
        "sources": [
          {
            "type": "osm",
            "id": "node/314461517",
            "version": 0
          },
          {
            "type": "gmaps",
            "id": "payment"
          }
        ],
        "created": "2026-05-21",
        "updated": "2026-05-21",
        "payment": {
          "cards": "yes",
          "girocard": "yes",
          "contactless": "yes"
        },
        "apple_id_attempted": "2026-05-22",
        "google_attempted": "2026-05-22"
      }
    },
    {
      "type": "Feature",
      "geometry": {
        "type": "Point",
        "coordinates": [
          11.5382136,
          48.7682836
        ]
      },
      "properties": {
        "id": "tk_in_osm_n314461528",
        "name": "Getränke Abholmarkt Steinberger",
        "address": {
          "street": "Regensburger Straße",
          "number": "25",
          "postalcode": "85098",
          "city": "Großmehring"
        },
        "sources": [
          {
            "type": "osm",
            "id": "node/314461528",
            "version": 0
          },
          {
            "type": "gmaps",
            "id": "payment"
          },
          {
            "type": "apple",
            "id": "18425634790641496678"
          }
        ],
        "created": "2026-05-21",
        "updated": "2026-05-22",
        "payment": {
          "cards": "yes",
          "girocard": "yes"
        },
        "hours": {
          "raw": "Mo-Th 08:00-12:00,14:00-18:00; Fr 08:00-18:00; Sa 08:00-13:00"
        }
      }
    },
    {
      "type": "Feature",
      "geometry": {
        "type": "Point",
        "coordinates": [
          11.4221961,
          48.7683153
        ]
      },
      "properties": {
        "id": "tk_in_osm_n334332757",
        "name": "Kiosk61",
        "address": {},
        "sources": [
          {
            "type": "osm",
            "id": "node/334332757",
            "version": 0
          }
        ],
        "created": "2026-05-21",
        "updated": "2026-05-21",
        "tags": [
          "barrierefrei"
        ],
        "payment_attempted": "2026-05-22",
        "apple_id_attempted": "2026-05-22",
        "google_attempted": "2026-05-22"
      }
    },
    {
      "type": "Feature",
      "geometry": {
        "type": "Point",
        "coordinates": [
          11.4383343,
          48.7910579
        ]
      },
      "properties": {
        "id": "tk_in_osm_n360815622",
        "name": "Getränkemarkt Bimbo",
        "address": {
          "street": "Beilngrieser Straße",
          "number": "77",
          "postalcode": "85055",
          "city": "Ingolstadt",
          "district": "Oberhaunstadt"
        },
        "sources": [
          {
            "type": "osm",
            "id": "node/360815622",
            "version": 0
          }
        ],
        "created": "2026-05-21",
        "updated": "2026-05-21",
        "payment_attempted": "2026-05-22",
        "apple_id_attempted": "2026-05-22",
        "google_attempted": "2026-05-22"
      }
    },
    {
      "type": "Feature",
      "geometry": {
        "type": "Point",
        "coordinates": [
          11.5007965,
          48.8105731
        ]
      },
      "properties": {
        "id": "tk_in_osm_n521990052",
        "name": "Hörl",
        "address": {},
        "sources": [
          {
            "type": "osm",
            "id": "node/521990052",
            "version": 0
          },
          {
            "type": "gmaps",
            "id": "payment"
          }
        ],
        "created": "2026-05-21",
        "updated": "2026-05-21",
        "hours": {
          "raw": "Mo-Fr 08:30-12:00,14:00-18:00;Sa 08:00-12:30"
        },
        "payment": {
          "cards": "no",
          "girocard": "yes",
          "contactless": "yes"
        },
        "apple_id_attempted": "2026-05-22"
      }
    },
    {
      "type": "Feature",
      "geometry": {
        "type": "Point",
        "coordinates": [
          11.5981746,
          48.8296959
        ]
      },
      "properties": {
        "id": "tk_in_osm_n538027333",
        "name": "Getränkemarkt Raith",
        "address": {},
        "sources": [
          {
            "type": "osm",
            "id": "node/538027333",
            "version": 0
          },
          {
            "type": "apple",
            "id": "8828312667064707471"
          },
          {
            "type": "gmaps",
            "id": "ChIJld7DtJmrn0cRZzeuhCQC1D4"
          }
        ],
        "created": "2026-05-21",
        "updated": "2026-05-22",
        "payment_attempted": "2026-05-22",
        "hours": {
          "raw": "Mo-Fr 09:00-12:00,14:00-18:00; Sa 09:00-13:00"
        },
        "google_attempted": "2026-05-22",
        "apple_attempted": "2026-05-23"
      }
    },
    {
      "type": "Feature",
      "geometry": {
        "type": "Point",
        "coordinates": [
          11.4246272,
          48.763332
        ]
      },
      "properties": {
        "id": "tk_in_osm_n6087878467",
        "name": "Kiosk am Rathaus",
        "address": {},
        "sources": [
          {
            "type": "osm",
            "id": "node/6087878467",
            "version": 0
          },
          {
            "type": "gmaps",
            "id": "ChIJMcMOP1H-nkcRjk6uZds-o4E"
          }
        ],
        "created": "2026-05-21",
        "updated": "2026-05-21",
        "tags": [
          "barrierefrei"
        ],
        "payment": {
          "contactless": "yes",
          "cards": "no"
        },
        "apple_id_attempted": "2026-05-22",
        "google_attempted": "2026-05-22"
      }
    },
    {
      "type": "Feature",
      "geometry": {
        "type": "Point",
        "coordinates": [
          11.5549819,
          48.7024627
        ]
      },
      "properties": {
        "id": "tk_in_osm_n6598504358",
        "name": "Kiosk Haus Feilenmoos",
        "address": {},
        "sources": [
          {
            "type": "osm",
            "id": "node/6598504358",
            "version": 0
          },
          {
            "type": "gmaps",
            "id": "payment"
          },
          {
            "type": "apple",
            "id": "3418206747160339311"
          }
        ],
        "created": "2026-05-21",
        "updated": "2026-05-22",
        "payment": {
          "girocard": "yes",
          "cards": "yes",
          "contactless": "yes"
        },
        "hours": {
          "raw": "Mo,Th-Fr,Su 11:00-20:00; Tu 14:00-19:00; We 15:00-21:00; Sa 14:00-20:00"
        }
      }
    },
    {
      "type": "Feature",
      "geometry": {
        "type": "Point",
        "coordinates": [
          11.4762821,
          48.7488621
        ]
      },
      "properties": {
        "id": "tk_in_osm_n7223110687",
        "name": "Hörl",
        "address": {},
        "sources": [
          {
            "type": "osm",
            "id": "node/7223110687",
            "version": 0
          },
          {
            "type": "gmaps",
            "id": "payment"
          }
        ],
        "created": "2026-05-21",
        "updated": "2026-05-21",
        "hours": {
          "raw": "Mo-Fr 08:30-19:00; Sa 08:00-18:00"
        },
        "payment": {
          "cards": "no",
          "girocard": "yes",
          "contactless": "yes"
        },
        "apple_id_attempted": "2026-05-22"
      }
    },
    {
      "type": "Feature",
      "geometry": {
        "type": "Point",
        "coordinates": [
          11.4240801,
          48.7621914
        ]
      },
      "properties": {
        "id": "tk_in_osm_n7305256278",
        "name": "Schiller",
        "address": {},
        "sources": [
          {
            "type": "osm",
            "id": "node/7305256278",
            "version": 0
          }
        ],
        "created": "2026-05-21",
        "updated": "2026-05-21",
        "hours": {
          "raw": "Tu-Sa 12:00-19:00"
        },
        "payment_attempted": "2026-05-22",
        "apple_id_attempted": "2026-05-22",
        "google_attempted": "2026-05-22"
      }
    },
    {
      "type": "Feature",
      "geometry": {
        "type": "Point",
        "coordinates": [
          11.4643425,
          48.6709864
        ]
      },
      "properties": {
        "id": "tk_in_osm_w1004525390",
        "name": "Hörl",
        "address": {},
        "sources": [
          {
            "type": "osm",
            "id": "way/1004525390",
            "version": 0
          },
          {
            "type": "gmaps",
            "id": "ChIJaUQ-O81XnkcR5gMNhgpHsJI"
          }
        ],
        "created": "2026-05-21",
        "updated": "2026-05-21",
        "payment": {
          "cards": "no",
          "girocard": "yes",
          "contactless": "yes"
        },
        "apple_id_attempted": "2026-05-22",
        "google_attempted": "2026-05-22"
      }
    },
    {
      "type": "Feature",
      "geometry": {
        "type": "Point",
        "coordinates": [
          11.4401059,
          48.7542685
        ]
      },
      "properties": {
        "id": "tk_in_osm_w103434076",
        "name": "Orterer Getränkemarkt",
        "address": {
          "street": "Feselenstraße",
          "number": "1a",
          "postalcode": "85053",
          "city": "Ingolstadt"
        },
        "sources": [
          {
            "type": "osm",
            "id": "way/103434076",
            "version": 0
          }
        ],
        "created": "2026-05-21",
        "updated": "2026-05-21",
        "hours": {
          "raw": "Mo-Fr 08:00-19:00; Sa 08:00-16:00; PH,Su off"
        },
        "tags": [
          "barrierefrei"
        ],
        "payment_attempted": "2026-05-22",
        "apple_id_attempted": "2026-05-22",
        "google_attempted": "2026-05-22"
      }
    },
    {
      "type": "Feature",
      "geometry": {
        "type": "Point",
        "coordinates": [
          11.4379597,
          48.7387369
        ]
      },
      "properties": {
        "id": "tk_in_osm_w121462345",
        "name": "trinkgut",
        "address": {
          "street": "Münchener Straße",
          "number": "140",
          "postalcode": "85051",
          "city": "Ingolstadt"
        },
        "sources": [
          {
            "type": "osm",
            "id": "way/121462345",
            "version": 0
          },
          {
            "type": "gmaps",
            "id": "ChIJSU8AbOf_nkcRDAwVog7mjBY"
          }
        ],
        "created": "2026-05-21",
        "updated": "2026-05-21",
        "payment": {
          "cards": "no",
          "girocard": "yes",
          "contactless": "yes"
        },
        "apple_id_attempted": "2026-05-22",
        "google_attempted": "2026-05-22"
      }
    },
    {
      "type": "Feature",
      "geometry": {
        "type": "Point",
        "coordinates": [
          11.3463647,
          48.7587479
        ]
      },
      "properties": {
        "id": "tk_in_osm_w125419135",
        "name": "Hörl",
        "address": {
          "street": "Dünzlauer Straße",
          "number": "36",
          "postalcode": "85049",
          "city": "Ingolstadt"
        },
        "sources": [
          {
            "type": "osm",
            "id": "way/125419135",
            "version": 0
          },
          {
            "type": "gmaps",
            "id": "payment"
          }
        ],
        "created": "2026-05-21",
        "updated": "2026-05-21",
        "tags": [
          "barrierefrei"
        ],
        "payment": {
          "cards": "no",
          "girocard": "yes",
          "contactless": "yes"
        },
        "apple_id_attempted": "2026-05-22",
        "google_attempted": "2026-05-22"
      }
    },
    {
      "type": "Feature",
      "geometry": {
        "type": "Point",
        "coordinates": [
          11.4589703,
          48.8025978
        ]
      },
      "properties": {
        "id": "tk_in_osm_w147934700",
        "name": "Getränke Gabler",
        "address": {
          "street": "Gänsberg",
          "number": "4",
          "postalcode": "85101",
          "city": "Lenting"
        },
        "sources": [
          {
            "type": "osm",
            "id": "way/147934700",
            "version": 0
          }
        ],
        "created": "2026-05-21",
        "updated": "2026-05-21",
        "hours": {
          "raw": "Tu-Fr 08:00-18:30; Sa 08:00-13:00"
        },
        "payment_attempted": "2026-05-22",
        "apple_id_attempted": "2026-05-22",
        "google_attempted": "2026-05-22"
      }
    },
    {
      "type": "Feature",
      "geometry": {
        "type": "Point",
        "coordinates": [
          11.4515665,
          48.7528286
        ]
      },
      "properties": {
        "id": "tk_in_osm_w174533473",
        "name": "Total",
        "address": {
          "street": "Manchinger Straße",
          "number": "84",
          "postalcode": "85053",
          "city": "Ingolstadt"
        },
        "sources": [
          {
            "type": "osm",
            "id": "way/174533473",
            "version": 0
          }
        ],
        "created": "2026-05-21",
        "updated": "2026-05-21",
        "hours": {
          "raw": "24/7"
        },
        "payment": {
          "cash": "unknown",
          "cards": "yes",
          "contactless": "unknown",
          "girocard": "unknown",
          "mobile": "unknown"
        },
        "apple_id_attempted": "2026-05-22"
      }
    },
    {
      "type": "Feature",
      "geometry": {
        "type": "Point",
        "coordinates": [
          11.4798711,
          48.6536861
        ]
      },
      "properties": {
        "id": "tk_in_osm_w181614953",
        "name": "Getränke Hörl",
        "address": {
          "street": "Wackerstraße",
          "number": "5",
          "postalcode": "85084",
          "city": "Reichertshofen"
        },
        "sources": [
          {
            "type": "osm",
            "id": "way/181614953",
            "version": 0
          },
          {
            "type": "gmaps",
            "id": "payment"
          }
        ],
        "created": "2026-05-21",
        "updated": "2026-05-21",
        "hours": {
          "raw": "Mo-Fr 08:30-18:00; Sa 08:00-14:00"
        },
        "tags": [
          "barrierefrei"
        ],
        "payment": {
          "cards": "no",
          "girocard": "yes",
          "contactless": "yes"
        },
        "apple_id_attempted": "2026-05-22"
      }
    },
    {
      "type": "Feature",
      "geometry": {
        "type": "Point",
        "coordinates": [
          11.4103333,
          48.7738257
        ]
      },
      "properties": {
        "id": "tk_in_osm_w206394003",
        "name": "KioskHaus",
        "address": {},
        "sources": [
          {
            "type": "osm",
            "id": "way/206394003",
            "version": 0
          },
          {
            "type": "gmaps",
            "id": "payment"
          },
          {
            "type": "apple",
            "id": "9039834847459978531"
          }
        ],
        "created": "2026-05-21",
        "updated": "2026-05-22",
        "payment": {
          "cards": "no",
          "girocard": "yes",
          "contactless": "yes"
        },
        "hours": {
          "raw": "Mo-Sa 14:00-20:00"
        }
      }
    },
    {
      "type": "Feature",
      "geometry": {
        "type": "Point",
        "coordinates": [
          11.4051133,
          48.7104063
        ]
      },
      "properties": {
        "id": "tk_in_osm_w222019033",
        "name": "Hörl",
        "address": {},
        "sources": [
          {
            "type": "osm",
            "id": "way/222019033",
            "version": 0
          }
        ],
        "created": "2026-05-21",
        "updated": "2026-05-21",
        "hours": {
          "raw": "Mo-Fr 07:45-12:00, 14:00-18:00; Sa 07:00-12:30"
        },
        "payment": {
          "cash": "yes",
          "cards": "yes",
          "contactless": "unknown",
          "girocard": "unknown",
          "mobile": "unknown"
        },
        "tags": [
          "barrierefrei"
        ],
        "apple_id_attempted": "2026-05-22"
      }
    },
    {
      "type": "Feature",
      "geometry": {
        "type": "Point",
        "coordinates": [
          11.4589058,
          48.8132966
        ]
      },
      "properties": {
        "id": "tk_in_osm_w27839029",
        "name": "Hörl",
        "address": {
          "street": "Bernd-Rosemeyer-Straße",
          "number": "15",
          "postalcode": "85101",
          "city": "Lenting"
        },
        "sources": [
          {
            "type": "osm",
            "id": "way/27839029",
            "version": 0
          }
        ],
        "created": "2026-05-21",
        "updated": "2026-05-21",
        "hours": {
          "raw": "Mo-Fr 08:00-18:00; Sa 08:00-16:00"
        },
        "payment": {
          "cash": "yes",
          "cards": "yes",
          "contactless": "unknown",
          "girocard": "unknown",
          "mobile": "unknown"
        },
        "apple_id_attempted": "2026-05-22"
      }
    },
    {
      "type": "Feature",
      "geometry": {
        "type": "Point",
        "coordinates": [
          11.3881436,
          48.7756312
        ]
      },
      "properties": {
        "id": "tk_in_osm_w30072153",
        "name": "Edeka Tankstelle",
        "address": {
          "street": "Am Westpark",
          "number": "8",
          "postalcode": "85057",
          "city": "Ingolstadt"
        },
        "sources": [
          {
            "type": "osm",
            "id": "way/30072153",
            "version": 0
          },
          {
            "type": "gmaps",
            "id": "ChIJ8TIDh3b-nkcRCDUSyG3VHGg"
          },
          {
            "type": "apple",
            "id": "13831760723608685097"
          }
        ],
        "created": "2026-05-21",
        "updated": "2026-05-21",
        "tags": [
          "barrierefrei"
        ],
        "payment": {
          "cards": "no",
          "girocard": "yes",
          "contactless": "yes"
        },
        "google_attempted": "2026-05-22",
        "apple_attempted": "2026-05-23"
      }
    },
    {
      "type": "Feature",
      "geometry": {
        "type": "Point",
        "coordinates": [
          11.4596749,
          48.6653429
        ]
      },
      "properties": {
        "id": "tk_in_osm_w30478498",
        "name": "Hausler",
        "address": {},
        "sources": [
          {
            "type": "osm",
            "id": "way/30478498",
            "version": 0
          },
          {
            "type": "gmaps",
            "id": "ChIJ8Yea2dFXnkcR5arzUh8lxDk"
          }
        ],
        "created": "2026-05-21",
        "updated": "2026-05-21",
        "payment": {
          "cards": "yes",
          "girocard": "yes",
          "contactless": "yes"
        },
        "apple_id_attempted": "2026-05-22",
        "google_attempted": "2026-05-22"
      }
    },
    {
      "type": "Feature",
      "geometry": {
        "type": "Point",
        "coordinates": [
          11.4545167,
          48.7717037
        ]
      },
      "properties": {
        "id": "tk_in_osm_w31620296",
        "name": "trinkgut",
        "address": {},
        "sources": [
          {
            "type": "osm",
            "id": "way/31620296",
            "version": 0
          },
          {
            "type": "gmaps",
            "id": "payment"
          }
        ],
        "created": "2026-05-21",
        "updated": "2026-05-21",
        "hours": {
          "raw": "Mo-Sa 08:00-20:00"
        },
        "payment": {
          "cards": "no",
          "girocard": "yes",
          "contactless": "yes"
        },
        "apple_id_attempted": "2026-05-22"
      }
    },
    {
      "type": "Feature",
      "geometry": {
        "type": "Point",
        "coordinates": [
          11.4897295,
          48.7739739
        ]
      },
      "properties": {
        "id": "tk_in_osm_w42490491",
        "name": "Hörl",
        "address": {},
        "sources": [
          {
            "type": "osm",
            "id": "way/42490491",
            "version": 0
          },
          {
            "type": "gmaps",
            "id": "payment"
          }
        ],
        "created": "2026-05-21",
        "updated": "2026-05-21",
        "hours": {
          "raw": "Mo-Fr 08:30-18:00; Sa 08:00-14:00"
        },
        "payment": {
          "cards": "no",
          "girocard": "yes",
          "contactless": "yes"
        },
        "apple_id_attempted": "2026-05-22"
      }
    },
    {
      "type": "Feature",
      "geometry": {
        "type": "Point",
        "coordinates": [
          11.4129562,
          48.7750277
        ]
      },
      "properties": {
        "id": "tk_in_osm_w53898165",
        "name": "Getränke Hausler",
        "address": {
          "street": "Richard-Wagner-Straße",
          "number": "23",
          "city": "Ingolstadt"
        },
        "sources": [
          {
            "type": "osm",
            "id": "way/53898165",
            "version": 0
          },
          {
            "type": "gmaps",
            "id": "payment"
          }
        ],
        "created": "2026-05-21",
        "updated": "2026-05-21",
        "hours": {
          "raw": "Mo-Fr 08:30-12:00, Sa 08:30-14:00, Mo-Fr 13:00-18:30; PH off"
        },
        "payment": {
          "cards": "yes",
          "girocard": "yes",
          "contactless": "yes"
        },
        "apple_id_attempted": "2026-05-22"
      }
    }
  ]
}
