{
  "type": "FeatureCollection",
  "features": [
    {
      "type": "Feature",
      "geometry": {
        "type": "Point",
        "coordinates": [
          11.5762,
          48.12763
        ]
      },
      "properties": {
        "id": "tk_fr_0513",
        "name": "Kiosk an der Reichenbachbrücke",
        "description": "Snacks und Bier. ",
        "address": {
          "street": "Fraunhoferstraße",
          "number": "46",
          "postalcode": "80469",
          "city": "München",
          "district": "Ludwigsvorstadt-Isarvorstadt"
        },
        "hours": {
          "raw": "Mo-Sa 06:00-05:00; Su 06:00-00:00"
        },
        "tags": [
          "snacks",
          "klassiker",
          "craft_bier",
          "wc",
          "gemischte_tuete",
          "innenraum",
          "kuchen",
          "mate",
          "sekt",
          "sitzgelegenheiten",
          "sonne",
          "ueberdacht",
          "wein",
          "gemuetlich"
        ],
        "sources": [
          {
            "type": "hopfenstop",
            "id": "2c638be1-781c-4fd7-a958-ead128232d4f"
          }
        ],
        "created": "2026-05-19",
        "updated": "2026-05-19"
      }
    },
    {
      "type": "Feature",
      "geometry": {
        "type": "Point",
        "coordinates": [
          11.5475595,
          48.1009618
        ]
      },
      "properties": {
        "id": "tk_fr_0517",
        "name": "Kiosk 1917",
        "description": "Kaffe, Kuchen und Münchener Rösterei. Sitzmöglichkeit draussen",
        "address": {
          "street": "Tierparkstraße",
          "number": "2",
          "postalcode": "81379",
          "city": "München",
          "district": "Thalkirchen-Obersendling-Forstenried-Fürstenried-Solln"
        },
        "hours": {
          "raw": "Mo-Su 09:00-22:00"
        },
        "tags": [
          "kuchen",
          "wc",
          "snacks",
          "sitzgelegenheiten"
        ],
        "sources": [
          {
            "type": "hopfenstop",
            "id": "4dd7e97b-96b3-4e9b-a321-3061ca2519ca"
          }
        ],
        "created": "2026-05-19",
        "updated": "2026-05-19"
      }
    },
    {
      "type": "Feature",
      "geometry": {
        "type": "Point",
        "coordinates": [
          11.5889896,
          48.1436234
        ]
      },
      "properties": {
        "id": "tk_fr_0520",
        "name": "Fräulein Grüneis",
        "description": "Essen und Bio-Bier. Stehtische draussen",
        "address": {
          "street": "Lerchenfeldstraße",
          "number": "1a",
          "postalcode": "80538",
          "city": "München",
          "district": "Altstadt-Lehel"
        },
        "hours": {
          "raw": "Mo-Fr 08:00-21:00; Sa-Su 10:00-21:00"
        },
        "tags": [
          "kaffee",
          "wc",
          "gemischte_tuete",
          "kuchen",
          "sitzgelegenheiten",
          "sonne",
          "ueberdacht"
        ],
        "sources": [
          {
            "type": "hopfenstop",
            "id": "c1353dec-2e4a-4da6-b3c4-ba1577f74a85"
          }
        ],
        "created": "2026-05-19",
        "updated": "2026-05-19"
      }
    },
    {
      "type": "Feature",
      "geometry": {
        "type": "Point",
        "coordinates": [
          11.5480607,
          48.09219299999999
        ]
      },
      "properties": {
        "id": "tk_fr_0521",
        "name": "Flaucherstandl",
        "description": "Snacks, Eis und Bier. ",
        "address": {
          "street": "Zentralländstraße",
          "number": "35",
          "postalcode": "81379",
          "city": "München",
          "district": "Thalkirchen-Obersendling-Forstenried-Fürstenried-Solln"
        },
        "hours": {
          "raw": "Mo-Su 12:00-20:00"
        },
        "tags": [
          "eis",
          "snacks"
        ],
        "sources": [
          {
            "type": "hopfenstop",
            "id": "c2aec14e-553e-4ba6-a433-5c91575d03d1"
          }
        ],
        "created": "2026-05-19",
        "updated": "2026-05-19"
      }
    },
    {
      "type": "Feature",
      "geometry": {
        "type": "Point",
        "coordinates": [
          11.56357,
          48.11684
        ]
      },
      "properties": {
        "id": "tk_fr_0523",
        "name": "Kiosk Braunauer Eisenbahnbrücke",
        "description": "Süssigkeiten, Snacks und Bier. ",
        "address": {
          "street": "Teutoburger Straße",
          "number": "11",
          "postalcode": "81543",
          "city": "München",
          "district": "Untergiesing-Harlaching"
        },
        "hours": {
          "raw": "Mo-Fr 12:00-22:00; Sa-Su 11:00-22:00"
        },
        "tags": [
          "snacks"
        ],
        "sources": [
          {
            "type": "hopfenstop",
            "id": "00b9ee82-cd14-419a-b6ce-1f802646c0b9"
          }
        ],
        "created": "2026-05-19",
        "updated": "2026-05-19"
      }
    },
    {
      "type": "Feature",
      "geometry": {
        "type": "Point",
        "coordinates": [
          11.5670487,
          48.1342514
        ]
      },
      "properties": {
        "id": "tk_fr_0524",
        "name": "Fachpresse Kiosk",
        "description": "kiosk",
        "address": {
          "street": "Sendlinger-Tor-Platz",
          "number": "12",
          "postalcode": "80336",
          "city": "München",
          "district": "Altstadt-Lehel"
        },
        "hours": {
          "raw": "Mo-Sa 07:00-19:00"
        },
        "sources": [
          {
            "type": "hopfenstop",
            "id": "b8b2b1bb-1d14-4b9a-91dd-42a4663e5794"
          }
        ],
        "created": "2026-05-19",
        "updated": "2026-05-19"
      }
    },
    {
      "type": "Feature",
      "geometry": {
        "type": "Point",
        "coordinates": [
          11.5480891,
          48.1006856
        ]
      },
      "properties": {
        "id": "tk_fr_0525",
        "name": "Kiosk",
        "description": "Kiosk im grünen mit Sitzmöglichkeiten draussen",
        "address": {
          "street": "Zentralländstraße",
          "number": "2A",
          "postalcode": "81379",
          "city": "München",
          "district": "Thalkirchen-Obersendling-Forstenried-Fürstenried-Solln"
        },
        "sources": [
          {
            "type": "hopfenstop",
            "id": "4ca42331-be81-411e-b6ba-a6dd55c5ea66"
          }
        ],
        "created": "2026-05-19",
        "updated": "2026-05-19"
      }
    },
    {
      "type": "Feature",
      "geometry": {
        "type": "Point",
        "coordinates": [
          11.573159,
          48.1512786
        ]
      },
      "properties": {
        "id": "tk_fr_0581",
        "name": "Schellingsalon",
        "description": "Gaststätte mit Verkauf",
        "address": {
          "street": "Schellingstraße",
          "number": "54",
          "postalcode": "80799",
          "city": "München",
          "district": "Maxvorstadt"
        },
        "hours": {
          "raw": "Mo 10:00-00:30; Th-Sa 10:00-01:00; Su 10:00-00:00"
        },
        "tags": [
          "wc"
        ],
        "sources": [
          {
            "type": "hopfenstop",
            "id": "4de1ac90-9f18-470f-8ec9-d2673f289c04"
          }
        ],
        "created": "2026-05-19",
        "updated": "2026-05-19"
      }
    },
    {
      "type": "Feature",
      "geometry": {
        "type": "Point",
        "coordinates": [
          11.5750952,
          48.1542451
        ]
      },
      "properties": {
        "id": "tk_fr_0582",
        "name": "Bei Toni",
        "description": "Kleiner Kiosk mit Strassenverkauf. Der urigste Weg um an sein Bier zu kommen! Der Toni selbst - eine Legende!",
        "address": {
          "street": "Barer Straße",
          "number": "75",
          "postalcode": "80799",
          "city": "München",
          "district": "Maxvorstadt"
        },
        "hours": {
          "raw": "Mo 09:00-22:00; We-Su 09:00-22:00"
        },
        "sources": [
          {
            "type": "hopfenstop",
            "id": "bf157da9-f335-42cd-a667-3007861590c8"
          }
        ],
        "created": "2026-05-19",
        "updated": "2026-05-19"
      }
    },
    {
      "type": "Feature",
      "geometry": {
        "type": "Point",
        "coordinates": [
          11.5866311,
          48.1621914
        ]
      },
      "properties": {
        "id": "tk_fr_0587",
        "name": "Kiosk im Deubl Glass Cube",
        "description": "24h geöffnet, direkt an der Münchner Freiheit",
        "address": {
          "street": "Münchner Freiheit",
          "number": "7",
          "postalcode": "80802",
          "city": "München",
          "district": "Schwabing-Freimann"
        },
        "hours": {
          "raw": "Mo-Su 00:00-23:59"
        },
        "tags": [
          "zeitschriften",
          "snacks",
          "kaffee",
          "sitzgelegenheiten"
        ],
        "sources": [
          {
            "type": "hopfenstop",
            "id": "7c9202ea-507d-4f02-9a53-0cfc203b1aec"
          }
        ],
        "created": "2026-05-19",
        "updated": "2026-05-19"
      }
    },
    {
      "type": "Feature",
      "geometry": {
        "type": "Point",
        "coordinates": [
          11.555699,
          48.137133
        ]
      },
      "properties": {
        "id": "tk_fr_0596",
        "name": "Segafredo",
        "description": "Späti",
        "address": {
          "street": "Paul-Heyse-Straße",
          "number": "16",
          "postalcode": "80336",
          "city": "München",
          "district": "Ludwigsvorstadt-Isarvorstadt"
        },
        "hours": {
          "raw": "Mo-Th 17:00-01:00; Fr-Sa 19:00-03:00; Su 17:00-01:00"
        },
        "sources": [
          {
            "type": "hopfenstop",
            "id": "7df5cd49-3748-46d1-b8f0-4463d6c49fe4"
          }
        ],
        "created": "2026-05-19",
        "updated": "2026-05-19"
      }
    },
    {
      "type": "Feature",
      "geometry": {
        "type": "Point",
        "coordinates": [
          11.5764734,
          48.1542689
        ]
      },
      "properties": {
        "id": "tk_fr_0611",
        "name": "Kurfürstenstüberl",
        "description": "Kleine Wirtschaft mit durchgehend geöffnetem Getränkemarkt. ",
        "address": {
          "street": "Kurfürstenstraße",
          "number": "8",
          "postalcode": "80799",
          "city": "München",
          "district": "Maxvorstadt"
        },
        "hours": {
          "raw": "Mo-Sa 10:00-02:00; Su 10:00-00:00"
        },
        "tags": [
          "wc"
        ],
        "sources": [
          {
            "type": "hopfenstop",
            "id": "9a27eaf6-2e8e-4323-b79c-5819273beeb3"
          }
        ],
        "created": "2026-05-19",
        "updated": "2026-05-19"
      }
    },
    {
      "type": "Feature",
      "geometry": {
        "type": "Point",
        "coordinates": [
          11.5639129,
          48.1312712
        ]
      },
      "properties": {
        "id": "tk_fr_0612",
        "name": "Kiosk 7 (am Eck)",
        "description": "Späti",
        "address": {
          "street": "Reisingerstraße",
          "number": "7",
          "postalcode": "80337",
          "city": "München",
          "district": "Ludwigsvorstadt-Isarvorstadt"
        },
        "sources": [
          {
            "type": "hopfenstop",
            "id": "2255d80b-4e5e-41b6-8bed-b80d8f1acf9d"
          }
        ],
        "created": "2026-05-19",
        "updated": "2026-05-19"
      }
    },
    {
      "type": "Feature",
      "geometry": {
        "type": "Point",
        "coordinates": [
          11.5765424,
          48.1290868
        ]
      },
      "properties": {
        "id": "tk_fr_0613",
        "name": "Baader66",
        "description": "Premium Späti",
        "address": {
          "street": "Baaderstraße",
          "number": "66",
          "postalcode": "80469",
          "city": "München",
          "district": "Ludwigsvorstadt-Isarvorstadt"
        },
        "hours": {
          "raw": "Mo-Th 14:00-22:00; Fr-Sa 14:00-00:00; Su 14:00-22:00"
        },
        "tags": [
          "wein",
          "sekt",
          "schnaps",
          "innenraum"
        ],
        "sources": [
          {
            "type": "hopfenstop",
            "id": "51774f2e-0142-45eb-a959-71c9478ce93b"
          }
        ],
        "created": "2026-05-19",
        "updated": "2026-05-19"
      }
    },
    {
      "type": "Feature",
      "geometry": {
        "type": "Point",
        "coordinates": [
          11.5711578,
          48.1284881
        ]
      },
      "properties": {
        "id": "tk_fr_0614",
        "name": "Lotto-Presse Zapf",
        "description": "Lotto, DHL Shop, Kiosk",
        "address": {
          "street": "Klenzestraße",
          "number": "69",
          "postalcode": "80469",
          "city": "München",
          "district": "Ludwigsvorstadt-Isarvorstadt"
        },
        "tags": [
          "lotto"
        ],
        "sources": [
          {
            "type": "hopfenstop",
            "id": "b1ba88fb-ba94-4f2b-ae8e-6ac2a173d6c9"
          }
        ],
        "created": "2026-05-19",
        "updated": "2026-05-19"
      }
    },
    {
      "type": "Feature",
      "geometry": {
        "type": "Point",
        "coordinates": [
          11.58493,
          48.15381
        ]
      },
      "properties": {
        "id": "tk_fr_0616",
        "name": "Dit & Dat",
        "description": "Kiosk",
        "address": {
          "street": "Ohmstraße",
          "number": "12",
          "postalcode": "80802",
          "city": "München",
          "district": "Schwabing-Freimann"
        },
        "hours": {
          "raw": "Mo-Th 07:00-18:00; Fr 07:00-17:00; Sa 08:00-13:00"
        },
        "sources": [
          {
            "type": "hopfenstop",
            "id": "b65d1e33-cfdc-4633-b56a-0f3df069c2cf"
          }
        ],
        "created": "2026-05-19",
        "updated": "2026-05-19"
      }
    },
    {
      "type": "Feature",
      "geometry": {
        "type": "Point",
        "coordinates": [
          11.5441701,
          48.1379884
        ]
      },
      "properties": {
        "id": "tk_fr_0618",
        "name": "King Butt",
        "description": "Es gibt auch Pizza",
        "address": {
          "street": "Schwanthalerstraße",
          "number": "154",
          "postalcode": "80339",
          "city": "München",
          "district": "Schwanthalerhöhe"
        },
        "hours": {
          "raw": "Mo-Th 16:00-01:00; Fr-Sa 17:00-01:00; Su 16:00-01:00"
        },
        "tags": [
          "snacks",
          "innenraum"
        ],
        "sources": [
          {
            "type": "hopfenstop",
            "id": "44ff0ff4-4f20-495e-a58a-399c1028478b"
          }
        ],
        "created": "2026-05-19",
        "updated": "2026-05-19"
      }
    },
    {
      "type": "Feature",
      "geometry": {
        "type": "Point",
        "coordinates": [
          11.5438579,
          48.1366928
        ]
      },
      "properties": {
        "id": "tk_fr_0619",
        "name": "King Butt",
        "description": "Es gibt sogar Pizza",
        "address": {
          "street": "Parkstraße",
          "number": "12",
          "postalcode": "80339",
          "city": "München",
          "district": "Schwanthalerhöhe"
        },
        "hours": {
          "raw": "Mo-Su 12:00-00:00"
        },
        "tags": [
          "snacks"
        ],
        "sources": [
          {
            "type": "hopfenstop",
            "id": "9e88d784-a5b1-47f6-9be8-3d99dcc9b1ba"
          }
        ],
        "created": "2026-05-19",
        "updated": "2026-05-19"
      }
    },
    {
      "type": "Feature",
      "geometry": {
        "type": "Point",
        "coordinates": [
          11.5693004,
          48.186328
        ]
      },
      "properties": {
        "id": "tk_fr_0620",
        "name": "King Butt",
        "description": "Es gibt auch Pizza",
        "address": {
          "street": "Neustifter Straße",
          "number": "23",
          "postalcode": "80807",
          "city": "München",
          "district": "Milbertshofen-Am Hart"
        },
        "hours": {
          "raw": "Mo-Su 14:00-00:00"
        },
        "tags": [
          "snacks"
        ],
        "sources": [
          {
            "type": "hopfenstop",
            "id": "6ad05013-14c1-4ec0-8cde-7f29d522f6da"
          }
        ],
        "created": "2026-05-19",
        "updated": "2026-05-19"
      }
    },
    {
      "type": "Feature",
      "geometry": {
        "type": "Point",
        "coordinates": [
          11.5347159,
          48.1215769
        ]
      },
      "properties": {
        "id": "tk_fr_0650",
        "name": "Paradies Callshop ",
        "description": "Callshop/Kiosk ",
        "address": {
          "street": "Nestroystraße",
          "number": "2",
          "postalcode": "81373",
          "city": "München",
          "district": "Sendling-Westpark"
        },
        "hours": {
          "raw": "Mo-Su 10:00-22:00"
        },
        "sources": [
          {
            "type": "hopfenstop",
            "id": "91b798ef-f3a2-42b9-8628-9205efe72a89"
          }
        ],
        "created": "2026-05-19",
        "updated": "2026-05-19"
      }
    },
    {
      "type": "Feature",
      "geometry": {
        "type": "Point",
        "coordinates": [
          11.56168,
          48.1563
        ]
      },
      "properties": {
        "id": "tk_fr_0668",
        "name": "Späti Görresstraße",
        "description": "Mit Verkaufstheke zur Straße",
        "address": {
          "street": "Schleißheimer Str.",
          "number": "69",
          "postalcode": "80797",
          "city": "München",
          "district": "Maxvorstadt"
        },
        "hours": {
          "raw": "Mo-Fr 06:00-00:00; Sa-Su 08:00-00:00"
        },
        "tags": [
          "snacks",
          "eis",
          "musik"
        ],
        "sources": [
          {
            "type": "hopfenstop",
            "id": "af3688c6-a105-436c-8a6a-4b75c417ec6e"
          }
        ],
        "created": "2026-05-19",
        "updated": "2026-05-19"
      }
    },
    {
      "type": "Feature",
      "geometry": {
        "type": "Point",
        "coordinates": [
          11.5443484,
          48.13566669999999
        ]
      },
      "properties": {
        "id": "tk_fr_0719",
        "name": "Westend Call Shop",
        "description": "Verschiedene Biere und Snacks",
        "address": {
          "street": "Parkstraße",
          "number": "25",
          "postalcode": "80339",
          "city": "München",
          "district": "Schwanthalerhöhe"
        },
        "tags": [
          "snacks"
        ],
        "sources": [
          {
            "type": "hopfenstop",
            "id": "e43414dc-a5ef-4172-8c2b-18323bd5c1f7"
          }
        ],
        "created": "2026-05-19",
        "updated": "2026-05-19"
      }
    },
    {
      "type": "Feature",
      "geometry": {
        "type": "Point",
        "coordinates": [
          11.5342217,
          48.1332296
        ]
      },
      "properties": {
        "id": "tk_fr_1017",
        "name": "Weiß Blau Backshop Café",
        "description": "Bier, Backwaren",
        "address": {
          "street": "Heimeranplatz",
          "number": "5",
          "postalcode": "80339",
          "city": "München",
          "district": "Schwanthalerhöhe"
        },
        "hours": {
          "raw": "Mo-Fr 06:00-19:00; Sa 06:00-16:00"
        },
        "tags": [
          "backwaren"
        ],
        "sources": [
          {
            "type": "hopfenstop",
            "id": "edca1268-07b0-4f60-a182-719e7a06a505"
          }
        ],
        "created": "2026-05-19",
        "updated": "2026-05-19"
      }
    },
    {
      "type": "Feature",
      "geometry": {
        "type": "Point",
        "coordinates": [
          11.5457097,
          48.1432076
        ]
      },
      "properties": {
        "id": "tk_fr_1019",
        "name": "Müller Minimarkt",
        "description": "Bahnhofskiosk mit Bier und Snacks",
        "address": {
          "street": "Erika-Mann-Straße",
          "number": "1",
          "postalcode": "80636",
          "city": "München",
          "district": "Maxvorstadt"
        },
        "hours": {
          "raw": "Mo-Fr 05:00-21:00; Sa-Su 07:00-20:00"
        },
        "tags": [
          "snacks"
        ],
        "sources": [
          {
            "type": "hopfenstop",
            "id": "d0e19ec4-c56b-4d74-bbf2-17589d65e059"
          }
        ],
        "created": "2026-05-19",
        "updated": "2026-05-19"
      }
    },
    {
      "type": "Feature",
      "geometry": {
        "type": "Point",
        "coordinates": [
          11.5708138,
          48.11211309999999
        ]
      },
      "properties": {
        "id": "tk_fr_1185",
        "name": "U-Bahn Kiosk",
        "description": "Kiosk ",
        "address": {
          "street": "Candidplatz",
          "number": "1",
          "postalcode": "81543",
          "city": "München",
          "district": "Untergiesing-Harlaching"
        },
        "tags": [
          "fritz_kola"
        ],
        "sources": [
          {
            "type": "hopfenstop",
            "id": "0c59dc09-4806-4f79-91df-74509d212cfb"
          }
        ],
        "created": "2026-05-19",
        "updated": "2026-05-19"
      }
    },
    {
      "type": "Feature",
      "geometry": {
        "type": "Point",
        "coordinates": [
          11.5754746,
          48.14385009999999
        ]
      },
      "properties": {
        "id": "tk_fr_1186",
        "name": "Daily Deli",
        "description": "Kiosk ",
        "address": {
          "street": "Wittelsbacherplatz",
          "number": "2",
          "postalcode": "80333",
          "city": "München",
          "district": "Maxvorstadt"
        },
        "hours": {
          "raw": "Mo-Fr 07:00-18:30"
        },
        "tags": [
          "fritz_kola"
        ],
        "sources": [
          {
            "type": "hopfenstop",
            "id": "e548ceff-87ed-437a-998e-d19c2f288bdc"
          }
        ],
        "created": "2026-05-19",
        "updated": "2026-05-19"
      }
    },
    {
      "type": "Feature",
      "geometry": {
        "type": "Point",
        "coordinates": [
          11.5733847,
          48.1514898
        ]
      },
      "properties": {
        "id": "tk_fr_1187",
        "name": "Kiosk Café ",
        "description": "Kiosk ",
        "address": {
          "street": "Barer Straße",
          "number": "45",
          "postalcode": "80799",
          "city": "München",
          "district": "Maxvorstadt"
        },
        "tags": [
          "fritz_kola"
        ],
        "sources": [
          {
            "type": "hopfenstop",
            "id": "d418cf4b-dd38-46eb-acc5-00f6d42e0688"
          }
        ],
        "created": "2026-05-19",
        "updated": "2026-05-19"
      }
    },
    {
      "type": "Feature",
      "geometry": {
        "type": "Point",
        "coordinates": [
          11.58349,
          48.13392
        ]
      },
      "properties": {
        "id": "tk_fr_1188",
        "name": "Kiosk Goldstück ",
        "description": "Kiosk ",
        "address": {
          "street": "Isartorplatz",
          "number": "6B",
          "postalcode": "80331",
          "city": "München",
          "district": "Altstadt-Lehel"
        },
        "tags": [
          "fritz_kola"
        ],
        "sources": [
          {
            "type": "hopfenstop",
            "id": "a127b392-aa43-48c4-9f09-db2963f6c1b7"
          }
        ],
        "created": "2026-05-19",
        "updated": "2026-05-19"
      }
    },
    {
      "type": "Feature",
      "geometry": {
        "type": "Point",
        "coordinates": [
          11.5689446,
          48.1218982
        ]
      },
      "properties": {
        "id": "tk_fr_1189",
        "name": "Kiosk Isarwahn",
        "description": "Kiosk ",
        "address": {
          "street": "Schyrenplatz",
          "number": "1",
          "postalcode": "81543",
          "city": "München",
          "district": "Untergiesing-Harlaching"
        },
        "tags": [
          "fritz_kola",
          "eis",
          "mate",
          "sitzgelegenheiten",
          "musik",
          "snacks",
          "ueberdacht",
          "sonne"
        ],
        "sources": [
          {
            "type": "hopfenstop",
            "id": "02b78e55-a9a0-4312-97ff-8798cd32014f"
          }
        ],
        "created": "2026-05-19",
        "updated": "2026-05-19"
      }
    },
    {
      "type": "Feature",
      "geometry": {
        "type": "Point",
        "coordinates": [
          11.5849148,
          48.1499336
        ]
      },
      "properties": {
        "id": "tk_fr_1190",
        "name": "Milchhäusle",
        "description": "Kiosk ",
        "address": {
          "street": "Königinstraße",
          "number": "6",
          "postalcode": "80539",
          "city": "München",
          "district": "Altstadt-Lehel"
        },
        "tags": [
          "fritz_kola"
        ],
        "sources": [
          {
            "type": "hopfenstop",
            "id": "68c420fe-76d0-42be-959b-ba26caeb5bd9"
          }
        ],
        "created": "2026-05-19",
        "updated": "2026-05-19"
      }
    },
    {
      "type": "Feature",
      "geometry": {
        "type": "Point",
        "coordinates": [
          11.549003,
          48.1424667
        ]
      },
      "properties": {
        "id": "tk_fr_1191",
        "name": "U Store im ZOB",
        "description": "Kiosk ",
        "address": {
          "street": "Hackerbrücke",
          "number": "4",
          "postalcode": "80335",
          "city": "München",
          "district": "Ludwigsvorstadt-Isarvorstadt"
        },
        "tags": [
          "fritz_kola"
        ],
        "sources": [
          {
            "type": "hopfenstop",
            "id": "db2086dd-879d-4a06-8924-66e559abce5e"
          }
        ],
        "created": "2026-05-19",
        "updated": "2026-05-19"
      }
    },
    {
      "type": "Feature",
      "geometry": {
        "type": "Point",
        "coordinates": [
          11.5687731,
          48.1268088
        ]
      },
      "properties": {
        "id": "tk_fr_1192",
        "name": "Kiosk",
        "description": "Kiosk ",
        "address": {
          "street": "Jahnstraße",
          "number": "50",
          "postalcode": "80469",
          "city": "München",
          "district": "Ludwigsvorstadt-Isarvorstadt"
        },
        "tags": [
          "fritz_kola"
        ],
        "sources": [
          {
            "type": "hopfenstop",
            "id": "39acc364-ea69-4f07-9910-aac9c110e726"
          }
        ],
        "created": "2026-05-19",
        "updated": "2026-05-19"
      }
    },
    {
      "type": "Feature",
      "geometry": {
        "type": "Point",
        "coordinates": [
          11.5714872,
          48.1300926
        ]
      },
      "properties": {
        "id": "tk_fr_1193",
        "name": "Kiosk Kozic",
        "description": "Kiosk ",
        "address": {
          "street": "Jahnstraße",
          "number": "6",
          "postalcode": "80469",
          "city": "München",
          "district": "Ludwigsvorstadt-Isarvorstadt"
        },
        "tags": [
          "fritz_kola"
        ],
        "sources": [
          {
            "type": "hopfenstop",
            "id": "e37b9959-cdbc-46a9-90a9-6e6d430d5921"
          }
        ],
        "created": "2026-05-19",
        "updated": "2026-05-19"
      }
    },
    {
      "type": "Feature",
      "geometry": {
        "type": "Point",
        "coordinates": [
          11.8605114,
          47.7338078
        ]
      },
      "properties": {
        "id": "tk_fr_1255",
        "name": "Kiosk am See ",
        "description": "Kiosk ",
        "address": {
          "street": "Perfallstraße",
          "number": "4",
          "postalcode": "83727",
          "city": "Schliersee"
        },
        "tags": [
          "fritz_kola"
        ],
        "sources": [
          {
            "type": "hopfenstop",
            "id": "26b8571b-8004-4f0a-b2f9-c65055db9d33"
          }
        ],
        "created": "2026-05-19",
        "updated": "2026-05-19"
      }
    },
    {
      "type": "Feature",
      "geometry": {
        "type": "Point",
        "coordinates": [
          11.55991,
          48.13903699999999
        ]
      },
      "properties": {
        "id": "tk_fr_1530",
        "name": "Kiosk Tabak Store 24",
        "description": "Kiosk mit grosser Auswahl an Shishas und anderem Raucherbedarf",
        "address": {
          "street": "Bayerstraße",
          "number": "31",
          "postalcode": "80335",
          "city": "München",
          "district": "Ludwigsvorstadt-Isarvorstadt"
        },
        "sources": [
          {
            "type": "hopfenstop",
            "id": "28fd72a5-ccb3-4751-bf8d-1a0d97a6b08c"
          }
        ],
        "created": "2026-05-19",
        "updated": "2026-05-19"
      }
    },
    {
      "type": "Feature",
      "geometry": {
        "type": "Point",
        "coordinates": [
          11.5598101,
          48.1433204
        ]
      },
      "properties": {
        "id": "tk_fr_1653",
        "name": "Sabhan Callshop",
        "description": "Kiosk mit kleinem Snack und Essensortiment",
        "address": {
          "street": "Dachauer Straße",
          "number": "13",
          "postalcode": "80335",
          "city": "München",
          "district": "Maxvorstadt"
        },
        "hours": {
          "raw": "Mo-Su 09:00-20:00"
        },
        "sources": [
          {
            "type": "hopfenstop",
            "id": "ebe2b225-0477-43eb-911b-5f7915f7af63"
          }
        ],
        "created": "2026-05-19",
        "updated": "2026-05-19"
      }
    },
    {
      "type": "Feature",
      "geometry": {
        "type": "Point",
        "coordinates": [
          11.5791368,
          48.1150185
        ]
      },
      "properties": {
        "id": "tk_fr_1677",
        "name": "Kiosk Kishore",
        "description": "Gutes Sortiment. Oettinger, Augustiner, Tegernseer, Gösser, ...",
        "address": {
          "street": "Tegernseer Landstraße",
          "number": "76",
          "postalcode": "81539",
          "city": "München",
          "district": "Obergiesing-Fasangarten"
        },
        "hours": {
          "raw": "Mo-Fr 08:30-19:00; Sa-Su 08:00-18:00"
        },
        "tags": [
          "mate",
          "innenraum",
          "longpapes",
          "schnaps"
        ],
        "sources": [
          {
            "type": "hopfenstop",
            "id": "1aa3d7da-90cd-48aa-b081-b862108ca294"
          }
        ],
        "created": "2026-05-19",
        "updated": "2026-05-19"
      }
    },
    {
      "type": "Feature",
      "geometry": {
        "type": "Point",
        "coordinates": [
          11.577865,
          48.1360694
        ]
      },
      "properties": {
        "id": "tk_fr_1952",
        "name": "Kiosk an der Heiligen Geist Kirche",
        "description": "Getränke- und Souvenirshop",
        "address": {
          "street": "Tal",
          "number": "4",
          "postalcode": "80331",
          "city": "München",
          "district": "Altstadt-Lehel"
        },
        "hours": {
          "raw": "Mo-Sa 10:00-20:00"
        },
        "sources": [
          {
            "type": "hopfenstop",
            "id": "c2bf5c92-60a3-4904-88fb-515c947ceb62"
          }
        ],
        "created": "2026-05-19",
        "updated": "2026-05-19"
      }
    },
    {
      "type": "Feature",
      "geometry": {
        "type": "Point",
        "coordinates": [
          11.5841175,
          48.1304056
        ]
      },
      "properties": {
        "id": "tk_fr_1953",
        "name": "Isarforum",
        "description": "Café & Kiosk",
        "address": {
          "street": "Museumsinsel",
          "number": "1",
          "postalcode": "80538",
          "city": "München",
          "district": "Ludwigsvorstadt-Isarvorstadt"
        },
        "hours": {
          "raw": "Mo-Sa 09:00-21:00"
        },
        "tags": [
          "wc"
        ],
        "sources": [
          {
            "type": "hopfenstop",
            "id": "e1fd4307-2353-4d6c-b57f-1bb5280b8dd9"
          }
        ],
        "created": "2026-05-19",
        "updated": "2026-05-19"
      }
    },
    {
      "type": "Feature",
      "geometry": {
        "type": "Point",
        "coordinates": [
          10.8873419,
          48.3580372
        ]
      },
      "properties": {
        "id": "tk_fr_2107",
        "name": "Meistro Kiosk und Imbiss",
        "description": "Große Bierauswahl in 2 Vitrinen",
        "address": {
          "street": "Elisenstraße",
          "number": "2",
          "postalcode": "86159",
          "city": "Augsburg",
          "district": "Antonsviertel"
        },
        "hours": {
          "raw": "Mo-Th 09:00-23:00; Fr-Sa 09:00-03:00; Su 09:00-23:00"
        },
        "sources": [
          {
            "type": "hopfenstop",
            "id": "6b7d3fbc-2c47-4ac1-bef7-433c68b11ef8"
          }
        ],
        "created": "2026-05-19",
        "updated": "2026-05-19"
      }
    },
    {
      "type": "Feature",
      "geometry": {
        "type": "Point",
        "coordinates": [
          11.5960541,
          48.15608659999999
        ]
      },
      "properties": {
        "id": "tk_fr_2140",
        "name": "Kiosk am See Einlauf",
        "description": "Kiosk im Englischen Garten mit kleinen Snacks.",
        "address": {
          "street": "Englischer Garten",
          "number": "6",
          "postalcode": "80538",
          "city": "München",
          "district": "Schwabing-Freimann"
        },
        "hours": {
          "raw": "Mo-Su 11:00-18:00"
        },
        "sources": [
          {
            "type": "hopfenstop",
            "id": "9220cd2d-430d-4bf2-a2a7-298b7bcc503b"
          }
        ],
        "created": "2026-05-19",
        "updated": "2026-05-19"
      }
    },
    {
      "type": "Feature",
      "geometry": {
        "type": "Point",
        "coordinates": [
          11.5749677,
          48.1311827
        ]
      },
      "properties": {
        "id": "tk_fr_2141",
        "name": "GÄRTI",
        "description": "Stylisches Kiosk am Gärtnerplatz.",
        "address": {
          "street": "Klenzestraße",
          "number": "30A",
          "postalcode": "80469",
          "city": "München",
          "district": "Ludwigsvorstadt-Isarvorstadt"
        },
        "hours": {
          "raw": "Mo-Sa 18:00-00:00; Su 12:00-00:00"
        },
        "sources": [
          {
            "type": "hopfenstop",
            "id": "dbf1ccd2-534b-427d-a44a-cfa5a8cfc8f1"
          }
        ],
        "created": "2026-05-19",
        "updated": "2026-05-19"
      }
    }
  ]
}
