{
  "type": "FeatureCollection",
  "features": [
    {
      "type": "Feature",
      "geometry": {
        "type": "Point",
        "coordinates": [
          10.89266,
          49.8922
        ]
      },
      "properties": {
        "id": "tk_fr_0423",
        "name": "Kiosk am Schönleinsplatz",
        "description": "Kiosk mit Lottoannahmestelle ",
        "address": {
          "street": "Schönleinsplatz",
          "number": "3",
          "postalcode": "96047",
          "city": "Bamberg"
        },
        "hours": {
          "raw": "Mo-Sa 07:30-18:00"
        },
        "sources": [
          {
            "type": "hopfenstop",
            "id": "32bd60ca-9df5-4135-a2ca-e1b8a50777a5"
          }
        ],
        "created": "2026-05-19",
        "updated": "2026-05-19"
      }
    },
    {
      "type": "Feature",
      "geometry": {
        "type": "Point",
        "coordinates": [
          11.0978557,
          49.4460436
        ]
      },
      "properties": {
        "id": "tk_fr_0584",
        "name": "Online Nürnberg",
        "description": "Internetcafé mit Bier to go",
        "address": {
          "street": "Stephanstraße",
          "number": "17",
          "postalcode": "90478",
          "city": "Nürnberg",
          "district": "Mitte"
        },
        "sources": [
          {
            "type": "hopfenstop",
            "id": "8b16195a-d291-42f2-b070-0e3adb835979"
          }
        ],
        "created": "2026-05-19",
        "updated": "2026-05-19"
      }
    },
    {
      "type": "Feature",
      "geometry": {
        "type": "Point",
        "coordinates": [
          10.9114979,
          49.9126907
        ]
      },
      "properties": {
        "id": "tk_fr_1057",
        "name": "Shop in Shop",
        "description": "Kiosk ",
        "address": {
          "street": "An der Breitenau",
          "number": "2",
          "postalcode": "96052",
          "city": "Bamberg"
        },
        "tags": [
          "fritz_kola"
        ],
        "sources": [
          {
            "type": "hopfenstop",
            "id": "57ff303d-d7ac-4d4b-b2ce-80a6a739ad45"
          }
        ],
        "created": "2026-05-19",
        "updated": "2026-05-19"
      }
    },
    {
      "type": "Feature",
      "geometry": {
        "type": "Point",
        "coordinates": [
          10.9046002,
          49.8882098
        ]
      },
      "properties": {
        "id": "tk_fr_1058",
        "name": "Späti Biergarten",
        "description": "Kiosk ",
        "address": {
          "street": "Kunigundendamm",
          "number": "67",
          "postalcode": "96050",
          "city": "Bamberg"
        },
        "tags": [
          "fritz_kola"
        ],
        "sources": [
          {
            "type": "hopfenstop",
            "id": "edfa2949-0ae6-47de-b1b7-137d74487df9"
          }
        ],
        "created": "2026-05-19",
        "updated": "2026-05-19"
      }
    },
    {
      "type": "Feature",
      "geometry": {
        "type": "Point",
        "coordinates": [
          10.97756,
          49.47775
        ]
      },
      "properties": {
        "id": "tk_fr_1132",
        "name": "Pauls Kiosk",
        "description": "Kiosk ",
        "address": {
          "street": "Cadolzburger Straße",
          "number": "31",
          "postalcode": "90766",
          "city": "Fürth"
        },
        "tags": [
          "fritz_kola"
        ],
        "sources": [
          {
            "type": "hopfenstop",
            "id": "5b5efb1e-18f0-4afe-b13a-b828492625d7"
          }
        ],
        "created": "2026-05-19",
        "updated": "2026-05-19"
      }
    },
    {
      "type": "Feature",
      "geometry": {
        "type": "Point",
        "coordinates": [
          11.0013183,
          49.4688994
        ]
      },
      "properties": {
        "id": "tk_fr_1133",
        "name": "Kiosk 762",
        "description": "Kiosk ",
        "address": {
          "street": "Hornschuchpromenade",
          "number": "20",
          "postalcode": "90762",
          "city": "Fürth"
        },
        "tags": [
          "fritz_kola"
        ],
        "sources": [
          {
            "type": "hopfenstop",
            "id": "ede7b44c-e7c8-45cc-893f-d68432a35a2c"
          }
        ],
        "created": "2026-05-19",
        "updated": "2026-05-19"
      }
    },
    {
      "type": "Feature",
      "geometry": {
        "type": "Point",
        "coordinates": [
          10.9847823,
          49.4724324
        ]
      },
      "properties": {
        "id": "tk_fr_1134",
        "name": "Snackeria",
        "description": "Kiosk ",
        "address": {
          "street": "Theresienstraße",
          "number": "24",
          "postalcode": "90762",
          "city": "Fürth"
        },
        "tags": [
          "fritz_kola"
        ],
        "sources": [
          {
            "type": "hopfenstop",
            "id": "95fdef14-86e0-4b1c-b36c-96d666046fbd"
          }
        ],
        "created": "2026-05-19",
        "updated": "2026-05-19"
      }
    },
    {
      "type": "Feature",
      "geometry": {
        "type": "Point",
        "coordinates": [
          11.06276,
          49.4803
        ]
      },
      "properties": {
        "id": "tk_fr_1203",
        "name": "Kiosk Shop",
        "description": "Kiosk ",
        "address": {
          "street": "Wilhelmshavener Straße",
          "number": "15",
          "postalcode": "90425",
          "city": "Nürnberg",
          "district": "Nordwestliche Außenstadt"
        },
        "tags": [
          "fritz_kola"
        ],
        "sources": [
          {
            "type": "hopfenstop",
            "id": "79b19732-54e3-4ad9-bb0f-15cfdad0e444"
          }
        ],
        "created": "2026-05-19",
        "updated": "2026-05-19"
      }
    },
    {
      "type": "Feature",
      "geometry": {
        "type": "Point",
        "coordinates": [
          11.1042235,
          49.4723425
        ]
      },
      "properties": {
        "id": "tk_fr_1204",
        "name": "Kiosk Leipziger Platz",
        "description": "Kiosk ",
        "address": {
          "street": "Leipziger Platz",
          "number": "19",
          "postalcode": "90491",
          "city": "Nürnberg",
          "district": "Ost"
        },
        "tags": [
          "fritz_kola"
        ],
        "sources": [
          {
            "type": "hopfenstop",
            "id": "513e7060-5072-48a0-b665-40252f68f64e"
          }
        ],
        "created": "2026-05-19",
        "updated": "2026-05-19"
      }
    },
    {
      "type": "Feature",
      "geometry": {
        "type": "Point",
        "coordinates": [
          11.0676765,
          49.4638576
        ]
      },
      "properties": {
        "id": "tk_fr_1205",
        "name": "Der bunte Laden",
        "description": "Kiosk ",
        "address": {
          "street": "Kressenstraße",
          "number": "33",
          "postalcode": "90419",
          "city": "Nürnberg",
          "district": "Mitte"
        },
        "tags": [
          "fritz_kola"
        ],
        "sources": [
          {
            "type": "hopfenstop",
            "id": "7d445513-4a2a-45d6-88bd-bdce509c8342"
          }
        ],
        "created": "2026-05-19",
        "updated": "2026-05-19"
      }
    },
    {
      "type": "Feature",
      "geometry": {
        "type": "Point",
        "coordinates": [
          11.1014064,
          49.4696599
        ]
      },
      "properties": {
        "id": "tk_fr_1206",
        "name": "Kiosk und Tabakshop",
        "description": "Kiosk ",
        "address": {
          "street": "Äußere Bayreuther Straße",
          "number": "80",
          "postalcode": "90491",
          "city": "Nürnberg",
          "district": "Ost"
        },
        "tags": [
          "fritz_kola"
        ],
        "sources": [
          {
            "type": "hopfenstop",
            "id": "40777df4-9734-44d1-aef9-f0ec5718daef"
          }
        ],
        "created": "2026-05-19",
        "updated": "2026-05-19"
      }
    },
    {
      "type": "Feature",
      "geometry": {
        "type": "Point",
        "coordinates": [
          11.10412,
          49.4446
        ]
      },
      "properties": {
        "id": "tk_fr_1207",
        "name": "Kiosk Löfflein",
        "description": "Kiosk ",
        "address": {
          "street": "Schloßstraße",
          "number": "28",
          "postalcode": "90478",
          "city": "Nürnberg",
          "district": "Mitte"
        },
        "tags": [
          "fritz_kola"
        ],
        "sources": [
          {
            "type": "hopfenstop",
            "id": "f9179c50-b2b3-4ed3-b289-3a67b2ca1b63"
          }
        ],
        "created": "2026-05-19",
        "updated": "2026-05-19"
      }
    },
    {
      "type": "Feature",
      "geometry": {
        "type": "Point",
        "coordinates": [
          11.1051016,
          49.4746264
        ]
      },
      "properties": {
        "id": "tk_fr_1208",
        "name": "Kiosk ",
        "description": "Kiosk ",
        "address": {
          "street": "Bessemerstraße",
          "number": "5",
          "postalcode": "90411",
          "city": "Nürnberg",
          "district": "Nordwestliche Außenstadt"
        },
        "tags": [
          "fritz_kola"
        ],
        "sources": [
          {
            "type": "hopfenstop",
            "id": "24ea4eb3-acb5-4f8c-81c7-f6329aa47c6e"
          }
        ],
        "created": "2026-05-19",
        "updated": "2026-05-19"
      }
    },
    {
      "type": "Feature",
      "geometry": {
        "type": "Point",
        "coordinates": [
          11.0959915,
          49.4584377
        ]
      },
      "properties": {
        "id": "tk_fr_1209",
        "name": "Kiosk Munker",
        "description": "Kiosk ",
        "address": {
          "street": "Stresemannplatz",
          "number": "2",
          "postalcode": "90489",
          "city": "Nürnberg",
          "district": "Mitte"
        },
        "tags": [
          "fritz_kola"
        ],
        "sources": [
          {
            "type": "hopfenstop",
            "id": "0d4a7928-2a96-45ea-9d3e-c8d5219f2959"
          }
        ],
        "created": "2026-05-19",
        "updated": "2026-05-19"
      }
    },
    {
      "type": "Feature",
      "geometry": {
        "type": "Point",
        "coordinates": [
          11.0864598,
          49.4569921
        ]
      },
      "properties": {
        "id": "tk_fr_1210",
        "name": "Kiosk Ostermann ",
        "description": "Kiosk ",
        "address": {
          "street": "Äußere Laufer Gasse",
          "number": "36",
          "postalcode": "90403",
          "city": "Nürnberg",
          "district": "Mitte"
        },
        "tags": [
          "fritz_kola"
        ],
        "sources": [
          {
            "type": "hopfenstop",
            "id": "fce3af1f-d293-412d-9a36-a34b2c56aff8"
          },
          {
            "type": "osm",
            "id": "node/5104973003",
            "version": 0
          }
        ],
        "created": "2026-05-19",
        "updated": "2026-05-20",
        "hours": {
          "raw": "Mo-Fr 08:00-18:00; Sa 08:00-13:00"
        }
      }
    },
    {
      "type": "Feature",
      "geometry": {
        "type": "Point",
        "coordinates": [
          11.1998819,
          49.471592
        ]
      },
      "properties": {
        "id": "tk_fr_1256",
        "name": "Stierhof am Bahnhof ",
        "description": "Kiosk ",
        "address": {
          "street": "Am Bahnhof",
          "number": "4",
          "postalcode": "90571",
          "city": "Schwaig bei Nürnberg"
        },
        "tags": [
          "fritz_kola"
        ],
        "sources": [
          {
            "type": "hopfenstop",
            "id": "0630d57d-8b44-4987-9207-2a670bb5307b"
          }
        ],
        "created": "2026-05-19",
        "updated": "2026-05-19"
      }
    },
    {
      "type": "Feature",
      "geometry": {
        "type": "Point",
        "coordinates": [
          10.9943312,
          49.471798
        ]
      },
      "properties": {
        "id": "tk_fr_1305",
        "name": "Kiosk Nürngberger",
        "description": "Kiosk ",
        "address": {
          "street": "Nürnberger Straße",
          "number": "12",
          "postalcode": "90762",
          "city": "Fürth"
        },
        "tags": [
          "fritz_kola"
        ],
        "sources": [
          {
            "type": "hopfenstop",
            "id": "c0c49f88-2cca-4d0f-b2aa-f2b8033a561c"
          }
        ],
        "created": "2026-05-19",
        "updated": "2026-05-19"
      }
    }
  ]
}
