{
  "type": "FeatureCollection",
  "features": [
    {
      "type": "Feature",
      "geometry": {
        "type": "Point",
        "coordinates": [
          12.05223,
          49.0130343
        ]
      },
      "properties": {
        "id": "tk_rg_osm_n1309332775",
        "name": "Papeteriewelt",
        "address": {
          "street": "Franz-von-Taxis-Ring",
          "number": "53",
          "postalcode": "93049",
          "city": "Regensburg"
        },
        "sources": [
          {
            "type": "osm",
            "id": "node/1309332775",
            "version": 0
          },
          {
            "type": "apple",
            "id": "7800867955874022014"
          }
        ],
        "created": "2026-05-21",
        "updated": "2026-06-29",
        "hours": {
          "raw": "Mo-Th 08:30-13:00,13:30-18:00; Fr 08:30-18:00; Sa 08:30-14:00"
        },
        "tags": [
          "barrierefrei"
        ],
        "sources_by_field": {
          "name": "osm",
          "address.street": "osm",
          "address.number": "osm",
          "address.postalcode": "osm",
          "address.city": "osm",
          "hours": "osm"
        },
        "payment": {
          "cards": "yes",
          "contactless": "yes"
        }
      }
    },
    {
      "type": "Feature",
      "geometry": {
        "type": "Point",
        "coordinates": [
          12.0621276,
          49.0070691
        ]
      },
      "properties": {
        "id": "tk_rg_osm_n1393724637",
        "name": "Lotto-Presse-Tabak",
        "address": {
          "street": "Dr.-Gessler-Straße",
          "number": "45",
          "postalcode": "93051",
          "city": "Regensburg"
        },
        "sources": [
          {
            "type": "osm",
            "id": "node/1393724637",
            "version": 0
          },
          {
            "type": "gmaps",
            "id": "payment"
          }
        ],
        "created": "2026-05-21",
        "updated": "2026-06-29",
        "hours": {
          "raw": "Mo-Sa 9:00-20:00"
        },
        "sources_by_field": {
          "name": "osm",
          "address.street": "osm",
          "address.number": "osm",
          "address.postalcode": "osm",
          "address.city": "osm",
          "hours": "osm"
        },
        "apple_id_attempted": "2026-05-23",
        "payment": {
          "cards": "yes",
          "contactless": "yes",
          "girocard": "yes"
        }
      }
    },
    {
      "type": "Feature",
      "geometry": {
        "type": "Point",
        "coordinates": [
          12.1958172,
          49.0754587
        ]
      },
      "properties": {
        "id": "tk_rg_osm_n1580948572",
        "name": "Gärtnerei Unger",
        "address": {
          "street": "Bahnhofstraße",
          "number": "2",
          "postalcode": "93173",
          "city": "Wenzenbach"
        },
        "sources": [
          {
            "type": "osm",
            "id": "node/1580948572",
            "version": 0
          },
          {
            "type": "apple",
            "id": "14565992395068748733"
          },
          {
            "type": "gmaps",
            "id": "ChIJiyrATLvpn0cRdUwK9c--F5U"
          }
        ],
        "created": "2026-05-21",
        "updated": "2026-06-29",
        "hours": {
          "raw": "Mo-Tu,Th-Fr 07:15-11:40,14:30-17:00; We 07:15-11:40; Sa 07:00-12:30"
        },
        "sources_by_field": {
          "name": "osm",
          "address.street": "osm",
          "address.number": "osm",
          "address.postalcode": "osm",
          "address.city": "osm",
          "hours": "apple"
        },
        "apple_attempted": "2026-05-25",
        "google_attempted": "2026-05-23",
        "payment": {}
      }
    },
    {
      "type": "Feature",
      "geometry": {
        "type": "Point",
        "coordinates": [
          12.1915277,
          48.9820712
        ]
      },
      "properties": {
        "id": "tk_rg_osm_n1678199068",
        "name": "Globus Getränkecenter",
        "address": {
          "street": "Pommernstraße",
          "number": "4",
          "postalcode": "93073",
          "city": "Neutraubling"
        },
        "sources": [
          {
            "type": "osm",
            "id": "node/1678199068",
            "version": 0
          },
          {
            "type": "gmaps",
            "id": "ChIJAal5AZvDn0cRa87ZrI6v82Q"
          }
        ],
        "created": "2026-05-21",
        "updated": "2026-06-29",
        "tags": [
          "barrierefrei"
        ],
        "sources_by_field": {
          "name": "osm",
          "address.street": "osm",
          "address.number": "osm",
          "address.postalcode": "osm",
          "address.city": "osm"
        },
        "apple_id_attempted": "2026-05-23",
        "google_attempted": "2026-05-23",
        "payment": {
          "cards": "no",
          "contactless": "yes",
          "girocard": "yes"
        }
      }
    },
    {
      "type": "Feature",
      "geometry": {
        "type": "Point",
        "coordinates": [
          12.0971739,
          49.0243857
        ]
      },
      "properties": {
        "id": "tk_rg_osm_n1945967690",
        "name": "Kraus",
        "address": {
          "street": "Am Brückenbasar",
          "number": "11",
          "postalcode": "93059",
          "city": "Regensburg"
        },
        "sources": [
          {
            "type": "osm",
            "id": "node/1945967690",
            "version": 0
          },
          {
            "type": "gmaps",
            "id": "payment"
          }
        ],
        "created": "2026-05-21",
        "updated": "2026-06-29",
        "hours": {
          "raw": "Mo-Fr 08:00-13:00,14:00-17:00; Sa 08:00-13:00"
        },
        "sources_by_field": {
          "name": "osm",
          "address.street": "osm",
          "address.number": "osm",
          "address.postalcode": "osm",
          "address.city": "osm",
          "hours": "osm"
        },
        "apple_id_attempted": "2026-05-23",
        "payment": {
          "cards": "yes",
          "girocard": "yes"
        }
      }
    },
    {
      "type": "Feature",
      "geometry": {
        "type": "Point",
        "coordinates": [
          12.0691742,
          48.9972882
        ]
      },
      "properties": {
        "id": "tk_rg_osm_n2047702677",
        "name": "Der Presseshop",
        "address": {
          "street": "Konrad-Adenauer-Allee",
          "number": "34",
          "postalcode": "93051",
          "city": "Regensburg"
        },
        "sources": [
          {
            "type": "osm",
            "id": "node/2047702677",
            "version": 0
          },
          {
            "type": "gmaps",
            "id": "payment"
          },
          {
            "type": "apple",
            "id": "3937716514574017915"
          }
        ],
        "created": "2026-05-21",
        "updated": "2026-06-29",
        "hours": {
          "raw": "Mo-Fr 08:30-12:00,14:00-18:00; Sa 08:30-12:30"
        },
        "tags": [
          "barrierefrei"
        ],
        "sources_by_field": {
          "name": "osm",
          "address.street": "osm",
          "address.number": "osm",
          "address.postalcode": "osm",
          "address.city": "osm",
          "hours": "osm"
        },
        "payment": {
          "cards": "no",
          "contactless": "yes",
          "girocard": "yes"
        }
      }
    },
    {
      "type": "Feature",
      "geometry": {
        "type": "Point",
        "coordinates": [
          12.1244977,
          49.01383
        ]
      },
      "properties": {
        "id": "tk_rg_osm_n2964110695",
        "name": "PressePlus im Candis",
        "address": {
          "street": "Straubinger Straße",
          "number": "24",
          "postalcode": "93055",
          "city": "Regensburg"
        },
        "sources": [
          {
            "type": "osm",
            "id": "node/2964110695",
            "version": 0
          },
          {
            "type": "gmaps",
            "id": "ChIJO2mMsoPBn0cRTguLIJv-EwM"
          }
        ],
        "created": "2026-05-21",
        "updated": "2026-06-01",
        "hours": {
          "raw": "Mo-Fr 08:00-18:00; Sa 09:00-12:30"
        },
        "tags": [
          "barrierefrei"
        ],
        "sources_by_field": {
          "name": "osm",
          "address.street": "osm",
          "address.number": "osm",
          "address.postalcode": "osm",
          "address.city": "osm",
          "hours": "osm"
        },
        "apple_id_attempted": "2026-05-23",
        "google_attempted": "2026-05-23",
        "payment": {}
      }
    },
    {
      "type": "Feature",
      "geometry": {
        "type": "Point",
        "coordinates": [
          12.0324052,
          48.991231
        ]
      },
      "properties": {
        "id": "tk_rg_osm_n307735671",
        "name": "Weinkontor",
        "address": {
          "street": "Laberstraße",
          "number": "7",
          "postalcode": "93161",
          "city": "Sinzing",
          "district": "Vogelsang"
        },
        "sources": [
          {
            "type": "osm",
            "id": "node/307735671",
            "version": 0
          },
          {
            "type": "gmaps",
            "id": "ChIJtQzmZLrAn0cRMfIL55sgAsk"
          }
        ],
        "created": "2026-05-21",
        "updated": "2026-06-29",
        "sources_by_field": {
          "name": "osm"
        },
        "apple_id_attempted": "2026-05-23",
        "google_attempted": "2026-05-23",
        "payment": {
          "cards": "yes",
          "contactless": "yes",
          "girocard": "yes"
        }
      }
    },
    {
      "type": "Feature",
      "geometry": {
        "type": "Point",
        "coordinates": [
          12.0616359,
          49.0249186
        ]
      },
      "properties": {
        "id": "tk_rg_osm_n320935097",
        "name": "Tabak&Press",
        "address": {
          "street": "Agnesstraße",
          "number": "24",
          "postalcode": "93049",
          "city": "Regensburg",
          "district": "Prüfening"
        },
        "sources": [
          {
            "type": "osm",
            "id": "node/320935097",
            "version": 0
          },
          {
            "type": "gmaps",
            "id": "payment"
          }
        ],
        "created": "2026-05-21",
        "updated": "2026-06-29",
        "hours": {
          "raw": "Mo-Th 08:00-12:30,14:00-18:00; Fr 08:00-18:00; Sa 08:00-12:30"
        },
        "tags": [
          "barrierefrei"
        ],
        "sources_by_field": {
          "name": "osm",
          "hours": "osm"
        },
        "apple_id_attempted": "2026-05-23",
        "payment": {
          "cards": "no",
          "contactless": "yes",
          "girocard": "yes"
        }
      }
    },
    {
      "type": "Feature",
      "geometry": {
        "type": "Point",
        "coordinates": [
          12.0848562,
          49.0051351
        ]
      },
      "properties": {
        "id": "tk_rg_osm_n6946218984",
        "name": "Lotto St. Wolfgang",
        "address": {
          "street": "Sankt-Wolfgang-Straße",
          "number": "11",
          "postalcode": "93051",
          "city": "Regensburg"
        },
        "sources": [
          {
            "type": "osm",
            "id": "node/6946218984",
            "version": 0
          },
          {
            "type": "gmaps",
            "id": "payment"
          },
          {
            "type": "apple",
            "id": "11476928247267657624"
          }
        ],
        "created": "2026-05-21",
        "updated": "2026-06-29",
        "hours": {
          "raw": "Mo 08:00-12:00; Tu-Fr 08:00-12:00, 15:00-18:00; Sa 08:00-12:00"
        },
        "sources_by_field": {
          "name": "osm",
          "address.street": "osm",
          "address.number": "osm",
          "address.postalcode": "osm",
          "address.city": "osm",
          "hours": "osm"
        },
        "payment": {
          "cards": "yes",
          "girocard": "yes"
        }
      }
    },
    {
      "type": "Feature",
      "geometry": {
        "type": "Point",
        "coordinates": [
          12.0932196,
          49.0192206
        ]
      },
      "properties": {
        "id": "tk_rg_osm_n8091827075",
        "name": "Die Bierothek",
        "address": {
          "street": "Rote-Hahnen-Gasse",
          "number": "1a",
          "postalcode": "93047",
          "city": "Regensburg"
        },
        "sources": [
          {
            "type": "osm",
            "id": "node/8091827075",
            "version": 0
          },
          {
            "type": "gmaps",
            "id": "payment"
          }
        ],
        "created": "2026-05-21",
        "updated": "2026-06-29",
        "hours": {
          "raw": "Tu-Sa 11:00-19:00"
        },
        "tags": [
          "barrierefrei"
        ],
        "sources_by_field": {
          "name": "osm",
          "address.street": "osm",
          "address.number": "osm",
          "address.postalcode": "osm",
          "address.city": "osm",
          "hours": "osm"
        },
        "apple_id_attempted": "2026-05-23",
        "payment": {
          "cards": "yes",
          "contactless": "yes",
          "girocard": "yes"
        }
      }
    },
    {
      "type": "Feature",
      "geometry": {
        "type": "Point",
        "coordinates": [
          12.0967402,
          49.0180137
        ]
      },
      "properties": {
        "id": "tk_rg_osm_n8182449960",
        "name": "What the Kiosk?",
        "address": {
          "street": "Neupfarrplatz",
          "number": "8",
          "postalcode": "93047",
          "city": "Regensburg",
          "district": "Altstadt"
        },
        "sources": [
          {
            "type": "osm",
            "id": "node/8182449960",
            "version": 0
          },
          {
            "type": "gmaps",
            "id": "payment"
          },
          {
            "type": "apple",
            "id": "13482549510462157090"
          }
        ],
        "created": "2026-05-21",
        "updated": "2026-06-29",
        "hours": {
          "raw": "Mo-Fr 07:00-18:00; Sa 09:00-18:00; Su 10:00-16:00"
        },
        "tags": [
          "barrierefrei"
        ],
        "sources_by_field": {
          "name": "osm",
          "hours": "osm"
        },
        "payment": {
          "cards": "no",
          "contactless": "yes",
          "girocard": "yes"
        }
      }
    },
    {
      "type": "Feature",
      "geometry": {
        "type": "Point",
        "coordinates": [
          12.1969496,
          48.9856937
        ]
      },
      "properties": {
        "id": "tk_rg_osm_n9159675187",
        "name": "bilgro",
        "address": {
          "street": "Bayerwaldstraße",
          "number": "4",
          "postalcode": "93073",
          "city": "Neutraubling",
          "district": "Birkenfeld"
        },
        "sources": [
          {
            "type": "osm",
            "id": "node/9159675187",
            "version": 0
          },
          {
            "type": "gmaps",
            "id": "payment"
          }
        ],
        "created": "2026-05-21",
        "updated": "2026-06-15",
        "hours": {
          "raw": "Mo-Fr 08:30-19:00; Sa 08:30-16:00"
        },
        "sources_by_field": {
          "name": "osm",
          "hours": "osm"
        },
        "apple_id_attempted": "2026-05-23",
        "payment": {
          "cards": "no",
          "contactless": "yes",
          "girocard": "yes"
        }
      }
    },
    {
      "type": "Feature",
      "geometry": {
        "type": "Point",
        "coordinates": [
          12.1902655,
          49.0729561
        ]
      },
      "properties": {
        "id": "tk_rg_osm_w129542934",
        "name": "bilgro",
        "address": {
          "street": "Oberlindhofstraße",
          "number": "7",
          "postalcode": "93173",
          "city": "Wenzenbach",
          "district": "Zeitlhof"
        },
        "sources": [
          {
            "type": "osm",
            "id": "way/129542934",
            "version": 0
          },
          {
            "type": "gmaps",
            "id": "payment"
          }
        ],
        "created": "2026-05-21",
        "updated": "2026-06-15",
        "hours": {
          "raw": "Mo-Fr 08:30-18:00; Sa 08:00-14:00"
        },
        "sources_by_field": {
          "name": "osm",
          "hours": "osm"
        },
        "apple_id_attempted": "2026-05-23",
        "payment": {
          "cards": "no",
          "contactless": "yes",
          "girocard": "yes"
        }
      }
    },
    {
      "type": "Feature",
      "geometry": {
        "type": "Point",
        "coordinates": [
          12.2470307,
          49.0902362
        ]
      },
      "properties": {
        "id": "tk_rg_osm_w29326418",
        "name": "Getränke Klette",
        "address": {
          "street": "Regensburger Straße",
          "number": "29",
          "postalcode": "93170",
          "city": "Bernhardswald"
        },
        "sources": [
          {
            "type": "osm",
            "id": "way/29326418",
            "version": 0
          },
          {
            "type": "gmaps",
            "id": "payment"
          },
          {
            "type": "apple",
            "id": "2321656013957445405"
          }
        ],
        "created": "2026-05-21",
        "updated": "2026-06-29",
        "sources_by_field": {
          "name": "osm",
          "address.street": "osm",
          "address.number": "osm",
          "address.postalcode": "osm",
          "address.city": "osm"
        },
        "hours": {
          "raw": "Mo-Th 08:30-12:30,14:00-18:00; Fr 08:30-18:00; Sa 08:30-13:00"
        },
        "payment": {
          "cards": "yes",
          "contactless": "yes",
          "girocard": "yes"
        }
      }
    },
    {
      "type": "Feature",
      "geometry": {
        "type": "Point",
        "coordinates": [
          12.1977452,
          48.984914
        ]
      },
      "properties": {
        "id": "tk_rg_osm_w305199076",
        "name": "Taba-Press",
        "address": {
          "street": "Bayerwaldstraße",
          "number": "57",
          "postalcode": "93073",
          "city": "Neutraubling"
        },
        "sources": [
          {
            "type": "osm",
            "id": "way/305199076",
            "version": 0
          },
          {
            "type": "gmaps",
            "id": "ChIJf45-jxTDn0cRF7SmF7G6eoY"
          }
        ],
        "created": "2026-05-21",
        "updated": "2026-06-29",
        "tags": [
          "barrierefrei"
        ],
        "sources_by_field": {
          "name": "osm",
          "address.street": "osm",
          "address.number": "osm",
          "address.postalcode": "osm",
          "address.city": "osm"
        },
        "apple_id_attempted": "2026-05-23",
        "google_attempted": "2026-05-23",
        "payment": {
          "cards": "no",
          "contactless": "yes",
          "girocard": "yes"
        }
      }
    },
    {
      "type": "Feature",
      "geometry": {
        "type": "Point",
        "coordinates": [
          12.0998986,
          49.0121424
        ]
      },
      "properties": {
        "id": "tk_rg_osm_w436686804",
        "name": "Yorma’s",
        "address": {
          "street": "Bahnhofstraße",
          "number": "18",
          "postalcode": "93047",
          "city": "Regensburg"
        },
        "sources": [
          {
            "type": "osm",
            "id": "way/436686804",
            "version": 0
          },
          {
            "type": "gmaps",
            "id": "payment"
          }
        ],
        "created": "2026-05-21",
        "updated": "2026-06-29",
        "hours": {
          "raw": "Mo-Su 05:00-22:00"
        },
        "tags": [
          "barrierefrei"
        ],
        "sources_by_field": {
          "name": "osm",
          "address.street": "osm",
          "address.number": "osm",
          "address.postalcode": "osm",
          "address.city": "osm",
          "hours": "osm"
        },
        "apple_id_attempted": "2026-05-23",
        "payment": {
          "cards": "no",
          "girocard": "yes"
        }
      }
    },
    {
      "type": "Feature",
      "geometry": {
        "type": "Point",
        "coordinates": [
          12.0566275,
          48.9368941
        ]
      },
      "properties": {
        "id": "tk_rg_osm_w50906273",
        "name": "Hausler",
        "address": {
          "street": "Einsteinstraße",
          "number": "21",
          "postalcode": "93077",
          "city": "Bad Abbach",
          "district": "Weichs"
        },
        "sources": [
          {
            "type": "osm",
            "id": "way/50906273",
            "version": 0
          },
          {
            "type": "gmaps",
            "id": "payment"
          }
        ],
        "created": "2026-05-21",
        "updated": "2026-06-29",
        "hours": {
          "raw": "Mo-Fr 08:30-19:00; Sa 08:00-16:00"
        },
        "sources_by_field": {
          "name": "osm",
          "hours": "osm"
        },
        "apple_id_attempted": "2026-05-23",
        "payment": {
          "cards": "yes",
          "girocard": "yes"
        }
      }
    },
    {
      "type": "Feature",
      "geometry": {
        "type": "Point",
        "coordinates": [
          12.2234203,
          48.9781646
        ]
      },
      "properties": {
        "id": "tk_rg_osm_w71404757",
        "name": "Guggi Beach",
        "address": {
          "street": "Am Weiher",
          "postalcode": "93073",
          "city": "Neutraubling",
          "district": "Oberheising"
        },
        "sources": [
          {
            "type": "osm",
            "id": "way/71404757",
            "version": 0
          },
          {
            "type": "apple",
            "id": "1475558510842739822"
          },
          {
            "type": "gmaps",
            "id": "ChIJ5Z75PnzDn0cR_N4ACbGCCSg"
          }
        ],
        "created": "2026-05-21",
        "updated": "2026-06-29",
        "sources_by_field": {
          "name": "osm",
          "hours": "apple"
        },
        "apple_attempted": "2026-05-25",
        "google_attempted": "2026-05-23",
        "hours": {
          "raw": "Mo-Th,Su 11:00-18:00; Fr-Sa 11:00-21:30"
        },
        "payment": {}
      }
    },
    {
      "type": "Feature",
      "geometry": {
        "type": "Point",
        "coordinates": [
          12.1283714,
          49.0298824
        ]
      },
      "properties": {
        "id": "tk_rg_osm_w94510068",
        "name": "Netto Getränke-Discount",
        "address": {
          "street": "Im Gewerbepark",
          "number": "C78",
          "postalcode": "93059",
          "city": "Regensburg"
        },
        "sources": [
          {
            "type": "osm",
            "id": "way/94510068",
            "version": 0
          },
          {
            "type": "gmaps",
            "id": "payment"
          }
        ],
        "created": "2026-05-21",
        "updated": "2026-06-15",
        "hours": {
          "raw": "Mo-Sa 08:00-20:00"
        },
        "tags": [
          "barrierefrei"
        ],
        "sources_by_field": {
          "name": "osm",
          "address.street": "osm",
          "address.number": "osm",
          "address.postalcode": "osm",
          "address.city": "osm",
          "hours": "osm"
        },
        "apple_id_attempted": "2026-05-23",
        "payment": {
          "cards": "no",
          "contactless": "yes",
          "girocard": "yes"
        }
      }
    },
    {
      "type": "Feature",
      "geometry": {
        "type": "Point",
        "coordinates": [
          12.1017335,
          49.007609
        ]
      },
      "properties": {
        "id": "tk_rg_osm_w98523379",
        "name": "Kelterei Nagler",
        "address": {
          "street": "Galgenbergstraße",
          "number": "17",
          "postalcode": "93053"
        },
        "sources": [
          {
            "type": "osm",
            "id": "way/98523379",
            "version": 0
          },
          {
            "type": "gmaps",
            "id": "payment"
          }
        ],
        "created": "2026-05-21",
        "updated": "2026-06-29",
        "hours": {
          "raw": "Mo-Fr 08:00-18:00; Sa 09:00-13:00"
        },
        "sources_by_field": {
          "name": "osm",
          "address.street": "osm",
          "address.number": "osm",
          "address.postalcode": "osm",
          "hours": "osm"
        },
        "apple_id_attempted": "2026-05-23",
        "payment": {
          "cards": "yes",
          "girocard": "yes"
        }
      }
    },
    {
      "type": "Feature",
      "geometry": {
        "type": "Point",
        "coordinates": [
          12.1420679,
          49.008066
        ]
      },
      "properties": {
        "id": "tk_rg_osm_n13342264818",
        "name": "Kiosk",
        "address": {},
        "sources": [
          {
            "type": "osm",
            "id": "node/13342264818",
            "version": 0
          }
        ],
        "created": "2026-05-21",
        "updated": "2026-06-29",
        "sources_by_field": {
          "name": "osm"
        },
        "apple_id_attempted": "2026-05-25",
        "google_attempted": "2026-05-25",
        "payment": {}
      }
    },
    {
      "type": "Feature",
      "geometry": {
        "type": "Point",
        "coordinates": [
          12.2063112,
          48.9853434
        ]
      },
      "properties": {
        "id": "tk_rg_osm_n1378792416",
        "name": "Smile Schulshop",
        "address": {
          "street": "Gregor-Mendel-Straße",
          "number": "22",
          "postalcode": "93073",
          "city": "Neutraubling"
        },
        "sources": [
          {
            "type": "osm",
            "id": "node/1378792416",
            "version": 0
          }
        ],
        "created": "2026-05-21",
        "updated": "2026-06-29",
        "sources_by_field": {
          "name": "osm",
          "address.street": "osm",
          "address.number": "osm",
          "address.postalcode": "osm",
          "address.city": "osm"
        },
        "apple_id_attempted": "2026-05-25",
        "google_attempted": "2026-05-25",
        "payment": {}
      }
    },
    {
      "type": "Feature",
      "geometry": {
        "type": "Point",
        "coordinates": [
          12.0983395,
          49.0245686
        ]
      },
      "properties": {
        "id": "tk_rg_osm_n1447530109",
        "name": "Getränke-Abholmarkt Schock",
        "address": {
          "postalcode": "93059",
          "city": "Regensburg"
        },
        "sources": [
          {
            "type": "osm",
            "id": "node/1447530109",
            "version": 0
          }
        ],
        "created": "2026-05-21",
        "updated": "2026-06-29",
        "hours": {
          "raw": "Mo-Fr 09:00-12:00,14:15-18:00; Sa 09:00-13:00"
        },
        "sources_by_field": {
          "name": "osm",
          "address.postalcode": "osm",
          "address.city": "osm",
          "hours": "osm"
        },
        "apple_id_attempted": "2026-05-25",
        "google_attempted": "2026-05-25",
        "payment": {}
      }
    },
    {
      "type": "Feature",
      "geometry": {
        "type": "Point",
        "coordinates": [
          12.1925618,
          48.9813101
        ]
      },
      "properties": {
        "id": "tk_rg_osm_n1882116036",
        "name": "publik",
        "address": {
          "street": "Pommernstraße",
          "number": "4",
          "postalcode": "93073",
          "city": "Neutraubling"
        },
        "sources": [
          {
            "type": "osm",
            "id": "node/1882116036",
            "version": 0
          }
        ],
        "created": "2026-05-21",
        "updated": "2026-06-29",
        "sources_by_field": {
          "name": "osm",
          "address.street": "osm",
          "address.number": "osm",
          "address.postalcode": "osm",
          "address.city": "osm"
        },
        "apple_id_attempted": "2026-05-25",
        "google_attempted": "2026-05-25",
        "payment": {}
      }
    },
    {
      "type": "Feature",
      "geometry": {
        "type": "Point",
        "coordinates": [
          12.1975641,
          48.9916969
        ]
      },
      "properties": {
        "id": "tk_rg_osm_n2442046124",
        "name": "Taba-Press",
        "address": {
          "city": "Neutraubling"
        },
        "sources": [
          {
            "type": "osm",
            "id": "node/2442046124",
            "version": 0
          }
        ],
        "created": "2026-05-21",
        "updated": "2026-06-29",
        "sources_by_field": {
          "name": "osm",
          "address.city": "osm"
        },
        "apple_id_attempted": "2026-05-25",
        "google_attempted": "2026-05-25",
        "payment": {}
      }
    },
    {
      "type": "Feature",
      "geometry": {
        "type": "Point",
        "coordinates": [
          12.1928177,
          48.9812306
        ]
      },
      "properties": {
        "id": "tk_rg_osm_n3097885473",
        "name": "Globus Zeitschriften",
        "address": {
          "street": "Pommernstraße",
          "number": "4",
          "postalcode": "93073",
          "city": "Neutraubling"
        },
        "sources": [
          {
            "type": "osm",
            "id": "node/3097885473",
            "version": 0
          }
        ],
        "created": "2026-05-21",
        "updated": "2026-06-29",
        "sources_by_field": {
          "name": "osm",
          "address.street": "osm",
          "address.number": "osm",
          "address.postalcode": "osm",
          "address.city": "osm"
        },
        "apple_id_attempted": "2026-05-25",
        "google_attempted": "2026-05-25",
        "payment": {}
      }
    },
    {
      "type": "Feature",
      "geometry": {
        "type": "Point",
        "coordinates": [
          12.0936395,
          49.043962
        ]
      },
      "properties": {
        "id": "tk_rg_osm_n321983153",
        "name": "FIX ME",
        "address": {},
        "sources": [
          {
            "type": "osm",
            "id": "node/321983153",
            "version": 0
          }
        ],
        "created": "2026-05-21",
        "updated": "2026-06-29",
        "sources_by_field": {
          "name": "osm"
        },
        "apple_id_attempted": "2026-05-25",
        "google_attempted": "2026-05-25",
        "payment": {}
      }
    },
    {
      "type": "Feature",
      "geometry": {
        "type": "Point",
        "coordinates": [
          11.9720119,
          49.0319502
        ]
      },
      "properties": {
        "id": "tk_rg_osm_n3919353557",
        "name": "Getränke Fellmeyer",
        "address": {},
        "sources": [
          {
            "type": "osm",
            "id": "node/3919353557",
            "version": 0
          }
        ],
        "created": "2026-05-21",
        "updated": "2026-06-29",
        "hours": {
          "raw": "Mo-Th 08:30-12:30,14:30-18:30; Fr 08:30-18:30; Sa 08:30-12:30"
        },
        "sources_by_field": {
          "name": "osm",
          "hours": "osm"
        },
        "apple_id_attempted": "2026-05-25",
        "google_attempted": "2026-05-25",
        "payment": {}
      }
    },
    {
      "type": "Feature",
      "geometry": {
        "type": "Point",
        "coordinates": [
          12.0336691,
          48.9901886
        ]
      },
      "properties": {
        "id": "tk_rg_osm_n5053154734",
        "name": "Getränke Brix",
        "address": {},
        "sources": [
          {
            "type": "osm",
            "id": "node/5053154734",
            "version": 0
          }
        ],
        "created": "2026-05-21",
        "updated": "2026-06-29",
        "sources_by_field": {
          "name": "osm"
        },
        "apple_id_attempted": "2026-05-25",
        "google_attempted": "2026-05-25",
        "payment": {}
      }
    },
    {
      "type": "Feature",
      "geometry": {
        "type": "Point",
        "coordinates": [
          12.1218886,
          49.0391508
        ]
      },
      "properties": {
        "id": "tk_rg_osm_n649149249",
        "name": "Kabas",
        "address": {
          "street": "Reichenberger Straße",
          "number": "12",
          "postalcode": "93057",
          "city": "Regensburg"
        },
        "sources": [
          {
            "type": "osm",
            "id": "node/649149249",
            "version": 0
          }
        ],
        "created": "2026-05-21",
        "updated": "2026-06-29",
        "sources_by_field": {
          "name": "osm",
          "address.street": "osm",
          "address.number": "osm",
          "address.postalcode": "osm",
          "address.city": "osm"
        },
        "apple_id_attempted": "2026-05-25",
        "google_attempted": "2026-05-25",
        "payment": {}
      }
    },
    {
      "type": "Feature",
      "geometry": {
        "type": "Point",
        "coordinates": [
          12.0881041,
          49.0195901
        ]
      },
      "properties": {
        "id": "tk_rg_osm_n9105247725",
        "name": "Brauerei Kneitinger Getränkeverkauf",
        "address": {
          "street": "Kreuzgasse",
          "number": "7",
          "postalcode": "93047",
          "city": "Regensburg"
        },
        "sources": [
          {
            "type": "osm",
            "id": "node/9105247725",
            "version": 0
          }
        ],
        "created": "2026-05-21",
        "updated": "2026-06-29",
        "sources_by_field": {
          "name": "osm",
          "address.street": "osm",
          "address.number": "osm",
          "address.postalcode": "osm",
          "address.city": "osm"
        },
        "apple_id_attempted": "2026-05-25",
        "google_attempted": "2026-05-25",
        "payment": {}
      }
    },
    {
      "type": "Feature",
      "geometry": {
        "type": "Point",
        "coordinates": [
          12.0806049,
          48.9970758
        ]
      },
      "properties": {
        "id": "tk_rg_osm_w131470714",
        "name": "Getränkeabholmarkt Rist",
        "address": {
          "street": "Geibelplatz",
          "number": "1a",
          "postalcode": "93051",
          "city": "Regensburg"
        },
        "sources": [
          {
            "type": "osm",
            "id": "way/131470714",
            "version": 0
          }
        ],
        "created": "2026-05-21",
        "updated": "2026-06-29",
        "hours": {
          "raw": "Mo,Tu,Th,Fr 08:30-12:00,15:00-18:00, We 08:30-12:00, Sa 09:00-12:00"
        },
        "sources_by_field": {
          "name": "osm",
          "address.street": "osm",
          "address.number": "osm",
          "address.postalcode": "osm",
          "address.city": "osm",
          "hours": "osm"
        },
        "apple_id_attempted": "2026-05-25",
        "google_attempted": "2026-05-25",
        "payment": {}
      }
    },
    {
      "type": "Feature",
      "geometry": {
        "type": "Point",
        "coordinates": [
          12.1149292,
          49.0329223
        ]
      },
      "properties": {
        "id": "tk_rg_osm_w391921087",
        "name": "bilgro",
        "address": {
          "street": "Altmühlstraße",
          "number": "11",
          "postalcode": "93059",
          "city": "Regensburg"
        },
        "sources": [
          {
            "type": "osm",
            "id": "way/391921087",
            "version": 0
          }
        ],
        "created": "2026-05-21",
        "updated": "2026-06-15",
        "hours": {
          "raw": "Mo-Fr 08:30-12:30, Sa 08:30-16:00, Mo-Fr 13:15-18:00"
        },
        "tags": [
          "barrierefrei"
        ],
        "sources_by_field": {
          "name": "osm",
          "address.street": "osm",
          "address.number": "osm",
          "address.postalcode": "osm",
          "address.city": "osm",
          "hours": "osm"
        },
        "apple_id_attempted": "2026-05-25",
        "google_attempted": "2026-05-25",
        "payment": {},
        "osm_removed": true
      }
    }
  ]
}
