{
  "type": "FeatureCollection",
  "features": [
    {
      "type": "Feature",
      "geometry": {
        "type": "Point",
        "coordinates": [
          9.864234,
          49.7688723
        ]
      },
      "properties": {
        "id": "tk_wu_osm_n10314706516",
        "name": "Lotto Hämmelmann",
        "address": {
          "street": "Leibnizstraße",
          "number": "14",
          "postalcode": "97204",
          "city": "Höchberg"
        },
        "sources": [
          {
            "type": "osm",
            "id": "node/10314706516",
            "version": 0
          },
          {
            "type": "gmaps",
            "id": "ChIJiQO8IgKRokcRle4FeGHy6p0"
          }
        ],
        "created": "2026-05-21",
        "updated": "2026-06-22",
        "sources_by_field": {
          "name": "osm",
          "address.street": "osm",
          "address.number": "osm",
          "address.postalcode": "osm",
          "address.city": "osm"
        },
        "apple_id_attempted": "2026-05-22",
        "google_attempted": "2026-05-22",
        "payment": {}
      }
    },
    {
      "type": "Feature",
      "geometry": {
        "type": "Point",
        "coordinates": [
          9.9605126,
          49.8132477
        ]
      },
      "properties": {
        "id": "tk_wu_osm_n10960560831",
        "name": "logo Getränke-Fachmarkt",
        "address": {
          "street": "Steinlein",
          "number": "3a",
          "postalcode": "97078",
          "city": "Würzburg"
        },
        "sources": [
          {
            "type": "osm",
            "id": "node/10960560831",
            "version": 0
          },
          {
            "type": "gmaps",
            "id": "payment"
          }
        ],
        "created": "2026-05-21",
        "updated": "2026-06-15",
        "hours": {
          "raw": "Mo-Sa 08:00-20:00"
        },
        "sources_by_field": {
          "name": "osm",
          "address.street": "osm",
          "address.number": "osm",
          "address.postalcode": "osm",
          "address.city": "osm",
          "hours": "osm"
        },
        "apple_id_attempted": "2026-05-22",
        "payment": {
          "cards": "no",
          "contactless": "yes",
          "girocard": "yes"
        }
      }
    },
    {
      "type": "Feature",
      "geometry": {
        "type": "Point",
        "coordinates": [
          9.9303481,
          49.7890823
        ]
      },
      "properties": {
        "id": "tk_wu_osm_n12193964127",
        "name": "Kiosk JooLee",
        "address": {
          "street": "Sanderstraße",
          "number": "6a",
          "postalcode": "97070",
          "city": "Würzburg"
        },
        "sources": [
          {
            "type": "osm",
            "id": "node/12193964127",
            "version": 0
          },
          {
            "type": "apple",
            "id": "6466223176523476265"
          }
        ],
        "created": "2026-05-21",
        "updated": "2026-06-22",
        "payment": {
          "cash": "yes",
          "cards": "unknown",
          "contactless": "no",
          "girocard": "unknown"
        },
        "sources_by_field": {
          "name": "osm",
          "address.street": "osm",
          "address.number": "osm",
          "address.postalcode": "osm",
          "address.city": "osm",
          "payment.cash": "osm",
          "payment.cards": "osm",
          "payment.contactless": "osm",
          "payment.girocard": "osm"
        },
        "hours": {
          "raw": "Mo-Sa 10:00-20:00"
        }
      }
    },
    {
      "type": "Feature",
      "geometry": {
        "type": "Point",
        "coordinates": [
          9.9301851,
          49.7897101
        ]
      },
      "properties": {
        "id": "tk_wu_osm_n12216599131",
        "name": "24 Sieben Shop",
        "address": {
          "street": "Sanderstraße",
          "number": "1",
          "postalcode": "97070",
          "city": "Würzburg",
          "district": "Altstadt"
        },
        "sources": [
          {
            "type": "osm",
            "id": "node/12216599131",
            "version": 0
          },
          {
            "type": "apple",
            "id": "5982376598938232314"
          }
        ],
        "created": "2026-05-21",
        "updated": "2026-06-22",
        "hours": {
          "raw": "24/7"
        },
        "payment": {
          "cash": "yes",
          "cards": "unknown",
          "contactless": "yes",
          "girocard": "unknown"
        },
        "sources_by_field": {
          "name": "osm",
          "hours": "osm",
          "payment.cash": "osm",
          "payment.cards": "osm",
          "payment.contactless": "osm",
          "payment.girocard": "osm"
        }
      }
    },
    {
      "type": "Feature",
      "geometry": {
        "type": "Point",
        "coordinates": [
          10.0137522,
          49.7063794
        ]
      },
      "properties": {
        "id": "tk_wu_osm_n12294141660",
        "name": "Getränke Trunk",
        "address": {
          "street": "Heigern",
          "number": "4",
          "postalcode": "97286",
          "city": "Winterhausen"
        },
        "sources": [
          {
            "type": "osm",
            "id": "node/12294141660",
            "version": 0
          },
          {
            "type": "gmaps",
            "id": "payment"
          }
        ],
        "created": "2026-05-21",
        "updated": "2026-06-22",
        "hours": {
          "raw": "Mo-Fr 08:00-18:00; Sa 08:00-13:00; PH off"
        },
        "sources_by_field": {
          "name": "osm",
          "hours": "osm"
        },
        "apple_id_attempted": "2026-05-22",
        "payment": {
          "cards": "no",
          "contactless": "yes",
          "girocard": "yes"
        }
      }
    },
    {
      "type": "Feature",
      "geometry": {
        "type": "Point",
        "coordinates": [
          10.0165078,
          49.8405968
        ]
      },
      "properties": {
        "id": "tk_wu_osm_n1320205806",
        "name": "Logo",
        "address": {
          "street": "Wachtelberg",
          "number": "18",
          "postalcode": "97273",
          "city": "Kürnach"
        },
        "sources": [
          {
            "type": "osm",
            "id": "node/1320205806",
            "version": 0
          },
          {
            "type": "gmaps",
            "id": "payment"
          }
        ],
        "created": "2026-05-21",
        "updated": "2026-06-15",
        "hours": {
          "raw": "Mo-Fr 08:30-20:00; Sa 08:00-18:00"
        },
        "sources_by_field": {
          "name": "osm",
          "address.street": "osm",
          "address.number": "osm",
          "address.postalcode": "osm",
          "address.city": "osm",
          "hours": "osm"
        },
        "apple_id_attempted": "2026-05-22",
        "payment": {
          "cards": "no",
          "contactless": "yes",
          "girocard": "yes"
        }
      }
    },
    {
      "type": "Feature",
      "geometry": {
        "type": "Point",
        "coordinates": [
          9.9341173,
          49.7952264
        ]
      },
      "properties": {
        "id": "tk_wu_osm_n1348115434",
        "name": "Zeitschriften P. Müller",
        "address": {
          "street": "Spiegelstraße",
          "number": "11",
          "postalcode": "97070",
          "city": "Würzburg",
          "district": "Altstadt"
        },
        "sources": [
          {
            "type": "osm",
            "id": "node/1348115434",
            "version": 0
          },
          {
            "type": "gmaps",
            "id": "payment"
          }
        ],
        "created": "2026-05-21",
        "updated": "2026-06-22",
        "hours": {
          "raw": "Mo-Fr 07:30-18:30; Sa 08:00-17:00"
        },
        "tags": [
          "barrierefrei"
        ],
        "sources_by_field": {
          "name": "osm",
          "hours": "osm"
        },
        "apple_id_attempted": "2026-05-22",
        "payment": {
          "cards": "no",
          "contactless": "yes",
          "girocard": "yes"
        }
      }
    },
    {
      "type": "Feature",
      "geometry": {
        "type": "Point",
        "coordinates": [
          9.8791733,
          49.8247049
        ]
      },
      "properties": {
        "id": "tk_wu_osm_n248064012",
        "name": "Shell",
        "address": {
          "street": "Scheffelstraße",
          "number": "1",
          "postalcode": "97209",
          "city": "Veitshöchheim"
        },
        "sources": [
          {
            "type": "osm",
            "id": "node/248064012",
            "version": 0
          },
          {
            "type": "gmaps",
            "id": "payment"
          }
        ],
        "created": "2026-05-21",
        "updated": "2026-06-22",
        "hours": {
          "raw": "Mo-Fr 06:00-22:00; Sa 07:00-22:00; Su 08:00-22:00"
        },
        "tags": [
          "barrierefrei"
        ],
        "sources_by_field": {
          "name": "osm",
          "address.street": "osm",
          "address.number": "osm",
          "address.postalcode": "osm",
          "address.city": "osm",
          "hours": "osm"
        },
        "apple_id_attempted": "2026-05-22",
        "payment": {
          "cards": "no",
          "contactless": "yes",
          "girocard": "yes"
        }
      }
    },
    {
      "type": "Feature",
      "geometry": {
        "type": "Point",
        "coordinates": [
          10.0230415,
          49.7937905
        ]
      },
      "properties": {
        "id": "tk_wu_osm_n261022538",
        "name": "Getränke Elbert",
        "address": {
          "street": "Untertorstraße",
          "number": "2",
          "postalcode": "97228",
          "city": "Rottendorf"
        },
        "sources": [
          {
            "type": "osm",
            "id": "node/261022538",
            "version": 0
          },
          {
            "type": "gmaps",
            "id": "payment"
          },
          {
            "type": "apple",
            "id": "5359816330873130551"
          }
        ],
        "created": "2026-05-21",
        "updated": "2026-06-22",
        "hours": {
          "raw": "Mo-Fr 09:00-12:00,14:00-18:00; Sa 08:00-13:00"
        },
        "sources_by_field": {
          "name": "osm",
          "address.street": "osm",
          "address.number": "osm",
          "address.postalcode": "osm",
          "address.city": "osm",
          "hours": "osm"
        },
        "payment": {
          "cards": "yes",
          "contactless": "yes",
          "girocard": "yes"
        }
      }
    },
    {
      "type": "Feature",
      "geometry": {
        "type": "Point",
        "coordinates": [
          9.9022386,
          49.7966789
        ]
      },
      "properties": {
        "id": "tk_wu_osm_n295542942",
        "name": "Robanus",
        "address": {
          "street": "Weißenburgstraße",
          "number": "59a",
          "postalcode": "97082",
          "city": "Würzburg",
          "district": "Zellerau"
        },
        "sources": [
          {
            "type": "osm",
            "id": "node/295542942",
            "version": 0
          },
          {
            "type": "gmaps",
            "id": "ChIJq1UhB1BMc0ERkN7oObr-wLk"
          }
        ],
        "created": "2026-05-21",
        "updated": "2026-06-22",
        "hours": {
          "raw": "Mo,Tu,Th 09:00-14:00; We,Fr 09:00-17:00; Sa 09:00-13:00"
        },
        "sources_by_field": {
          "name": "osm",
          "hours": "osm"
        },
        "apple_id_attempted": "2026-05-22",
        "google_attempted": "2026-05-22",
        "payment": {}
      }
    },
    {
      "type": "Feature",
      "geometry": {
        "type": "Point",
        "coordinates": [
          9.9364269,
          49.7955492
        ]
      },
      "properties": {
        "id": "tk_wu_osm_n317688517",
        "name": "Bianca's Kiosk",
        "address": {
          "street": "Ludwigstraße",
          "number": "1b",
          "postalcode": "97070",
          "city": "Würzburg",
          "district": "Altstadt"
        },
        "sources": [
          {
            "type": "osm",
            "id": "node/317688517",
            "version": 0
          },
          {
            "type": "apple",
            "id": "18319563834969009214"
          }
        ],
        "created": "2026-05-21",
        "updated": "2026-06-22",
        "hours": {
          "raw": "Mo-Fr 07:00-18:00; Sa 07:30-13:00"
        },
        "payment": {
          "cash": "unknown",
          "cards": "yes",
          "contactless": "unknown",
          "girocard": "unknown"
        },
        "tags": [
          "barrierefrei"
        ],
        "sources_by_field": {
          "name": "osm",
          "hours": "osm",
          "payment.cash": "osm",
          "payment.cards": "osm",
          "payment.contactless": "osm",
          "payment.girocard": "osm"
        }
      }
    },
    {
      "type": "Feature",
      "geometry": {
        "type": "Point",
        "coordinates": [
          9.9071577,
          49.8698395
        ]
      },
      "properties": {
        "id": "tk_wu_osm_n380769030",
        "name": "M + M Getränke GmbH",
        "address": {
          "street": "Gramschatzer Straße",
          "number": "1",
          "postalcode": "97261",
          "city": "Güntersleben"
        },
        "sources": [
          {
            "type": "osm",
            "id": "node/380769030",
            "version": 0
          },
          {
            "type": "gmaps",
            "id": "payment"
          }
        ],
        "created": "2026-05-21",
        "updated": "2026-06-22",
        "hours": {
          "raw": "Mo-Fr 09:00-12:00, 13:00-18:00; Sa 09:00-13:00"
        },
        "sources_by_field": {
          "name": "osm",
          "address.street": "osm",
          "address.number": "osm",
          "address.postalcode": "osm",
          "address.city": "osm",
          "hours": "osm"
        },
        "apple_id_attempted": "2026-05-22",
        "payment": {
          "cards": "yes",
          "contactless": "yes",
          "girocard": "yes"
        }
      }
    },
    {
      "type": "Feature",
      "geometry": {
        "type": "Point",
        "coordinates": [
          9.8389831,
          49.7450636
        ]
      },
      "properties": {
        "id": "tk_wu_osm_n4174196437",
        "name": "Getränke Behrendt",
        "address": {
          "street": "Eisinger Straße",
          "number": "3",
          "postalcode": "97270",
          "city": "Kist"
        },
        "sources": [
          {
            "type": "osm",
            "id": "node/4174196437",
            "version": 0
          },
          {
            "type": "gmaps",
            "id": "payment"
          },
          {
            "type": "apple",
            "id": "17124237330600635390"
          }
        ],
        "created": "2026-05-21",
        "updated": "2026-06-22",
        "sources_by_field": {
          "name": "osm",
          "address.street": "osm",
          "address.number": "osm",
          "address.postalcode": "osm",
          "address.city": "osm"
        },
        "hours": {
          "raw": "Mo-We,Fr 09:00-18:00; Sa 09:00-16:00"
        },
        "payment": {
          "cards": "no",
          "contactless": "yes",
          "girocard": "yes"
        }
      }
    },
    {
      "type": "Feature",
      "geometry": {
        "type": "Point",
        "coordinates": [
          10.0676838,
          49.8950741
        ]
      },
      "properties": {
        "id": "tk_wu_osm_n423119793",
        "name": "Sagasser",
        "address": {
          "street": "Oberpleichfelder Straße",
          "number": "4",
          "postalcode": "97241",
          "city": "Bergtheim"
        },
        "sources": [
          {
            "type": "osm",
            "id": "node/423119793",
            "version": 0
          },
          {
            "type": "gmaps",
            "id": "ChIJ6WUHp7iMokcR8_D88DDD6hI"
          }
        ],
        "created": "2026-05-21",
        "updated": "2026-06-15",
        "tags": [
          "barrierefrei"
        ],
        "sources_by_field": {
          "name": "osm",
          "address.street": "osm",
          "address.number": "osm",
          "address.postalcode": "osm",
          "address.city": "osm"
        },
        "apple_id_attempted": "2026-05-22",
        "google_attempted": "2026-05-22",
        "payment": {
          "cards": "no",
          "contactless": "yes",
          "girocard": "yes"
        }
      }
    },
    {
      "type": "Feature",
      "geometry": {
        "type": "Point",
        "coordinates": [
          9.9315794,
          49.7866652
        ]
      },
      "properties": {
        "id": "tk_wu_osm_n429341472",
        "name": "Yoq Yoq",
        "address": {
          "street": "Sanderring",
          "number": "12",
          "postalcode": "97070",
          "city": "Würzburg"
        },
        "sources": [
          {
            "type": "osm",
            "id": "node/429341472",
            "version": 0
          },
          {
            "type": "gmaps",
            "id": "payment"
          },
          {
            "type": "apple",
            "id": "13856974687597795810"
          }
        ],
        "created": "2026-05-21",
        "updated": "2026-06-22",
        "hours": {
          "raw": "Mo-Su 10:00-22:00"
        },
        "tags": [
          "barrierefrei"
        ],
        "sources_by_field": {
          "name": "osm",
          "address.street": "osm",
          "address.number": "osm",
          "address.postalcode": "osm",
          "address.city": "osm",
          "hours": "osm"
        },
        "payment": {
          "cards": "no",
          "contactless": "yes",
          "girocard": "yes"
        }
      }
    },
    {
      "type": "Feature",
      "geometry": {
        "type": "Point",
        "coordinates": [
          9.9626725,
          49.8193921
        ]
      },
      "properties": {
        "id": "tk_wu_osm_n4448459996",
        "name": "Versbacher-Lotto-Lädle",
        "address": {
          "street": "Versbacher Straße",
          "number": "185",
          "postalcode": "97078",
          "city": "Würzburg"
        },
        "sources": [
          {
            "type": "osm",
            "id": "node/4448459996",
            "version": 0
          },
          {
            "type": "gmaps",
            "id": "payment"
          }
        ],
        "created": "2026-05-21",
        "updated": "2026-06-22",
        "hours": {
          "raw": "Mo 08:00-12:30; Tu-Th 08:00-12:00, 14:00-18:00; Fr 08:00-12:30, 13:30-18:00; Sa 08:00-12:30"
        },
        "sources_by_field": {
          "name": "osm",
          "address.street": "osm",
          "address.number": "osm",
          "address.postalcode": "osm",
          "address.city": "osm",
          "hours": "osm"
        },
        "apple_id_attempted": "2026-05-22",
        "payment": {
          "cards": "yes",
          "girocard": "yes"
        }
      }
    },
    {
      "type": "Feature",
      "geometry": {
        "type": "Point",
        "coordinates": [
          9.9275288,
          49.7951555
        ]
      },
      "properties": {
        "id": "tk_wu_osm_n6489164426",
        "name": "Mainspäti",
        "address": {
          "street": "Karmelitenstraße",
          "number": "26",
          "postalcode": "97070"
        },
        "sources": [
          {
            "type": "osm",
            "id": "node/6489164426",
            "version": 0
          },
          {
            "type": "apple",
            "id": "10038653684180837558"
          }
        ],
        "created": "2026-05-21",
        "updated": "2026-06-22",
        "sources_by_field": {
          "name": "osm",
          "address.street": "osm",
          "address.number": "osm",
          "address.postalcode": "osm"
        },
        "hours": {
          "raw": "Mo-Su 00:00-02:00,12:00-24:00"
        },
        "payment": {
          "cards": "yes",
          "contactless": "yes"
        }
      }
    },
    {
      "type": "Feature",
      "geometry": {
        "type": "Point",
        "coordinates": [
          9.8635461,
          49.8357033
        ]
      },
      "properties": {
        "id": "tk_wu_osm_n6605773786",
        "name": "Marokkaner Brauhaus",
        "address": {
          "street": "Untere Steigstraße",
          "number": "2",
          "postalcode": "97276"
        },
        "sources": [
          {
            "type": "osm",
            "id": "node/6605773786",
            "version": 0
          },
          {
            "type": "apple",
            "id": "2604426966648740541"
          },
          {
            "type": "gmaps",
            "id": "ChIJc1OFjFGRokcR_kpstXDZqVc"
          }
        ],
        "created": "2026-05-21",
        "updated": "2026-06-22",
        "hours": {
          "raw": "Th 17:00-18:00"
        },
        "sources_by_field": {
          "name": "osm",
          "address.street": "osm",
          "address.number": "osm",
          "address.postalcode": "osm",
          "hours": "osm"
        },
        "apple_attempted": "2026-05-24",
        "google_attempted": "2026-05-22",
        "payment": {}
      }
    },
    {
      "type": "Feature",
      "geometry": {
        "type": "Point",
        "coordinates": [
          9.9284535,
          49.792467
        ]
      },
      "properties": {
        "id": "tk_wu_osm_n9272609116",
        "name": "Lotto Drechsler",
        "address": {
          "street": "Augustinerstraße",
          "number": "4",
          "postalcode": "97070",
          "city": "Würzburg"
        },
        "sources": [
          {
            "type": "osm",
            "id": "node/9272609116",
            "version": 0
          },
          {
            "type": "gmaps",
            "id": "payment"
          },
          {
            "type": "apple",
            "id": "10979503963089291897"
          }
        ],
        "created": "2026-05-21",
        "updated": "2026-06-22",
        "hours": {
          "raw": "Sa 08:00-16:00; Mo-Fr 07:30-18:00"
        },
        "sources_by_field": {
          "name": "osm",
          "address.street": "osm",
          "address.number": "osm",
          "address.postalcode": "osm",
          "address.city": "osm",
          "hours": "osm"
        },
        "payment": {
          "cards": "no",
          "contactless": "yes",
          "girocard": "yes"
        }
      }
    },
    {
      "type": "Feature",
      "geometry": {
        "type": "Point",
        "coordinates": [
          9.8795253,
          49.8285079
        ]
      },
      "properties": {
        "id": "tk_wu_osm_n9673131206",
        "name": "Getränke Fritze",
        "address": {
          "street": "Stifterstraße",
          "number": "16",
          "postalcode": "97209",
          "city": "Veitshöchheim"
        },
        "sources": [
          {
            "type": "osm",
            "id": "node/9673131206",
            "version": 0
          },
          {
            "type": "gmaps",
            "id": "payment"
          }
        ],
        "created": "2026-05-21",
        "updated": "2026-06-22",
        "hours": {
          "raw": "Mo-Sa 09:00-18:00"
        },
        "tags": [
          "barrierefrei"
        ],
        "sources_by_field": {
          "name": "osm",
          "address.street": "osm",
          "address.number": "osm",
          "address.postalcode": "osm",
          "address.city": "osm",
          "hours": "osm"
        },
        "apple_id_attempted": "2026-05-22",
        "payment": {
          "cards": "no",
          "contactless": "yes",
          "girocard": "yes"
        }
      }
    },
    {
      "type": "Feature",
      "geometry": {
        "type": "Point",
        "coordinates": [
          9.95561,
          49.7828804
        ]
      },
      "properties": {
        "id": "tk_wu_osm_w100154078",
        "name": "Getränke Fritze",
        "address": {
          "street": "Walther-von-der-Vogelweide-Straße",
          "number": "3",
          "postalcode": "97074",
          "city": "Würzburg"
        },
        "sources": [
          {
            "type": "osm",
            "id": "way/100154078",
            "version": 0
          },
          {
            "type": "gmaps",
            "id": "payment"
          }
        ],
        "created": "2026-05-21",
        "updated": "2026-06-22",
        "hours": {
          "raw": "Mo-Sa 09:00-19:00"
        },
        "tags": [
          "barrierefrei"
        ],
        "sources_by_field": {
          "name": "osm",
          "address.street": "osm",
          "address.number": "osm",
          "address.postalcode": "osm",
          "address.city": "osm",
          "hours": "osm"
        },
        "apple_id_attempted": "2026-05-22",
        "payment": {
          "cards": "no",
          "contactless": "yes",
          "girocard": "yes"
        }
      }
    },
    {
      "type": "Feature",
      "geometry": {
        "type": "Point",
        "coordinates": [
          9.9211981,
          49.8030897
        ]
      },
      "properties": {
        "id": "tk_wu_osm_w147640119",
        "name": "Esso",
        "address": {
          "street": "Veitshöchheimer Straße",
          "number": "22",
          "postalcode": "97070",
          "city": "Würzburg",
          "district": "Altstadt"
        },
        "sources": [
          {
            "type": "osm",
            "id": "way/147640119",
            "version": 0
          },
          {
            "type": "gmaps",
            "id": "payment"
          }
        ],
        "created": "2026-05-21",
        "updated": "2026-06-22",
        "hours": {
          "raw": "Mo-We 05:00-22:00; Th 05:00-24:00; Fr-Su 00:00-24:00"
        },
        "tags": [
          "barrierefrei"
        ],
        "sources_by_field": {
          "name": "osm",
          "hours": "osm"
        },
        "apple_id_attempted": "2026-05-22",
        "payment": {
          "cards": "no",
          "contactless": "yes",
          "girocard": "yes"
        }
      }
    },
    {
      "type": "Feature",
      "geometry": {
        "type": "Point",
        "coordinates": [
          9.8675709,
          49.7718019
        ]
      },
      "properties": {
        "id": "tk_wu_osm_w149012113",
        "name": "Getränke Fritze",
        "address": {
          "street": "Leibnizstraße",
          "number": "2",
          "postalcode": "97204",
          "city": "Höchberg"
        },
        "sources": [
          {
            "type": "osm",
            "id": "way/149012113",
            "version": 0
          },
          {
            "type": "gmaps",
            "id": "payment"
          },
          {
            "type": "apple",
            "id": "9016476035444151676"
          }
        ],
        "created": "2026-05-21",
        "updated": "2026-06-22",
        "hours": {
          "raw": "Mo-Su 08:00-20:00"
        },
        "tags": [
          "barrierefrei"
        ],
        "sources_by_field": {
          "name": "osm",
          "address.street": "osm",
          "address.number": "osm",
          "address.postalcode": "osm",
          "address.city": "osm",
          "hours": "osm"
        },
        "payment": {
          "cards": "no",
          "contactless": "yes",
          "girocard": "yes"
        }
      }
    },
    {
      "type": "Feature",
      "geometry": {
        "type": "Point",
        "coordinates": [
          9.9410903,
          49.7671878
        ]
      },
      "properties": {
        "id": "tk_wu_osm_w177545960",
        "name": "Getränke Fritze",
        "address": {
          "street": "Mergentheimer Straße",
          "number": "158",
          "postalcode": "97084",
          "city": "Würzburg"
        },
        "sources": [
          {
            "type": "osm",
            "id": "way/177545960",
            "version": 0
          },
          {
            "type": "gmaps",
            "id": "payment"
          }
        ],
        "created": "2026-05-21",
        "updated": "2026-06-22",
        "hours": {
          "raw": "Mo-Sa 08:00-20:00"
        },
        "tags": [
          "barrierefrei"
        ],
        "sources_by_field": {
          "name": "osm",
          "address.street": "osm",
          "address.number": "osm",
          "address.postalcode": "osm",
          "address.city": "osm",
          "hours": "osm"
        },
        "apple_id_attempted": "2026-05-22",
        "payment": {
          "cards": "no",
          "contactless": "yes",
          "girocard": "yes"
        }
      }
    },
    {
      "type": "Feature",
      "geometry": {
        "type": "Point",
        "coordinates": [
          9.9183793,
          49.811148
        ]
      },
      "properties": {
        "id": "tk_wu_osm_w204537454",
        "name": "Dürrbachtaler Getränkeshop",
        "address": {
          "street": "Unterdürrbacher Straße",
          "number": "355",
          "postalcode": "97080",
          "city": "Würzburg",
          "district": "Unterdürrbach"
        },
        "sources": [
          {
            "type": "osm",
            "id": "way/204537454",
            "version": 0
          },
          {
            "type": "gmaps",
            "id": "ChIJWawbi7qRokcRsxx6PUt04Ug"
          }
        ],
        "created": "2026-05-21",
        "updated": "2026-06-22",
        "sources_by_field": {
          "name": "osm",
          "address.street": "osm",
          "address.number": "osm",
          "address.postalcode": "osm",
          "address.city": "osm",
          "address.district": "osm"
        },
        "apple_id_attempted": "2026-05-22",
        "google_attempted": "2026-05-22",
        "payment": {}
      }
    },
    {
      "type": "Feature",
      "geometry": {
        "type": "Point",
        "coordinates": [
          10.0388431,
          49.8689951
        ]
      },
      "properties": {
        "id": "tk_wu_osm_w215062469",
        "name": "Früchteverwertung Wald",
        "address": {
          "street": "Lerchenweg",
          "postalcode": "97294",
          "city": "Unterpleichfeld",
          "district": "Burggrumbach"
        },
        "sources": [
          {
            "type": "osm",
            "id": "way/215062469",
            "version": 0
          },
          {
            "type": "gmaps",
            "id": "payment"
          },
          {
            "type": "apple",
            "id": "5334455050082816518"
          }
        ],
        "created": "2026-05-21",
        "updated": "2026-06-22",
        "sources_by_field": {
          "name": "osm"
        },
        "hours": {
          "raw": "Mo-Fr 09:00-12:00,13:00-18:00; Sa 09:00-14:00"
        },
        "payment": {
          "cards": "no",
          "contactless": "yes",
          "girocard": "yes"
        }
      }
    },
    {
      "type": "Feature",
      "geometry": {
        "type": "Point",
        "coordinates": [
          9.8146148,
          49.802194
        ]
      },
      "properties": {
        "id": "tk_wu_osm_w230040629",
        "name": "Konrad Wolf",
        "address": {
          "street": "Kirchgasse",
          "number": "9",
          "postalcode": "97265",
          "city": "Hettstadt"
        },
        "sources": [
          {
            "type": "osm",
            "id": "way/230040629",
            "version": 0
          },
          {
            "type": "gmaps",
            "id": "ChIJFTsHIRmXokcRSoGPFziZ00k"
          }
        ],
        "created": "2026-05-21",
        "updated": "2026-06-22",
        "sources_by_field": {
          "name": "osm",
          "address.street": "osm",
          "address.number": "osm",
          "address.postalcode": "osm",
          "address.city": "osm"
        },
        "apple_id_attempted": "2026-05-22",
        "google_attempted": "2026-05-22",
        "payment": {}
      }
    },
    {
      "type": "Feature",
      "geometry": {
        "type": "Point",
        "coordinates": [
          9.9793295,
          49.7967858
        ]
      },
      "properties": {
        "id": "tk_wu_osm_w94417276",
        "name": "RAN",
        "address": {
          "street": "Nürnberger Straße",
          "number": "59",
          "postalcode": "97076",
          "city": "Würzburg"
        },
        "sources": [
          {
            "type": "osm",
            "id": "way/94417276",
            "version": 0
          },
          {
            "type": "gmaps",
            "id": "payment"
          }
        ],
        "created": "2026-05-21",
        "updated": "2026-06-22",
        "hours": {
          "raw": "24/7"
        },
        "tags": [
          "barrierefrei"
        ],
        "sources_by_field": {
          "name": "osm",
          "address.street": "osm",
          "address.number": "osm",
          "address.postalcode": "osm",
          "address.city": "osm",
          "hours": "osm"
        },
        "apple_id_attempted": "2026-05-22",
        "payment": {
          "cards": "yes",
          "contactless": "yes",
          "girocard": "yes"
        }
      }
    },
    {
      "type": "Feature",
      "geometry": {
        "type": "Point",
        "coordinates": [
          9.9666968,
          49.8606279
        ]
      },
      "properties": {
        "id": "tk_wu_osm_w977881124",
        "name": "logo Getränke-Fachmarkt",
        "address": {
          "street": "Burggrumbacher Straße",
          "number": "1",
          "postalcode": "97222",
          "city": "Rimpar"
        },
        "sources": [
          {
            "type": "osm",
            "id": "way/977881124",
            "version": 0
          },
          {
            "type": "gmaps",
            "id": "payment"
          }
        ],
        "created": "2026-05-21",
        "updated": "2026-06-15",
        "hours": {
          "raw": "Mo-Sa 08:00-20:00"
        },
        "tags": [
          "barrierefrei"
        ],
        "sources_by_field": {
          "name": "osm",
          "address.street": "osm",
          "address.number": "osm",
          "address.postalcode": "osm",
          "address.city": "osm",
          "hours": "osm"
        },
        "apple_id_attempted": "2026-05-22",
        "payment": {
          "cards": "no",
          "contactless": "yes",
          "girocard": "yes"
        }
      }
    },
    {
      "type": "Feature",
      "geometry": {
        "type": "Point",
        "coordinates": [
          9.9417527,
          49.7761261
        ]
      },
      "properties": {
        "id": "tk_wu_osm_n1909996582",
        "name": "Lotto Toto",
        "address": {},
        "sources": [
          {
            "type": "osm",
            "id": "node/1909996582",
            "version": 0
          }
        ],
        "created": "2026-05-21",
        "updated": "2026-06-22",
        "hours": {
          "raw": "Mo-Sa 07:00-20:00, Su,PH off"
        },
        "payment": {
          "cash": "unknown",
          "cards": "no",
          "contactless": "unknown",
          "girocard": "unknown"
        },
        "tags": [
          "barrierefrei"
        ],
        "sources_by_field": {
          "name": "osm",
          "hours": "osm",
          "payment.cash": "osm",
          "payment.cards": "osm",
          "payment.contactless": "osm",
          "payment.girocard": "osm"
        },
        "apple_id_attempted": "2026-05-25"
      }
    },
    {
      "type": "Feature",
      "geometry": {
        "type": "Point",
        "coordinates": [
          9.9563632,
          49.7312572
        ]
      },
      "properties": {
        "id": "tk_wu_osm_n2060664289",
        "name": "Getränke Fritze",
        "address": {
          "street": "Ossietzkystraße",
          "number": "12",
          "postalcode": "97084",
          "city": "Würzburg"
        },
        "sources": [
          {
            "type": "osm",
            "id": "node/2060664289",
            "version": 0
          }
        ],
        "created": "2026-05-21",
        "updated": "2026-06-22",
        "hours": {
          "raw": "Mo-Sa 08:00-20:00"
        },
        "payment": {
          "cash": "yes",
          "cards": "yes",
          "contactless": "unknown",
          "girocard": "unknown"
        },
        "tags": [
          "barrierefrei"
        ],
        "sources_by_field": {
          "name": "osm",
          "address.street": "osm",
          "address.number": "osm",
          "address.postalcode": "osm",
          "address.city": "osm",
          "hours": "osm",
          "payment.cash": "osm",
          "payment.cards": "osm",
          "payment.contactless": "osm",
          "payment.girocard": "osm"
        },
        "apple_id_attempted": "2026-05-25"
      }
    },
    {
      "type": "Feature",
      "geometry": {
        "type": "Point",
        "coordinates": [
          9.8987526,
          49.7975149
        ]
      },
      "properties": {
        "id": "tk_wu_osm_n2774964276",
        "name": "logo Getränke-Fachmarkt",
        "address": {
          "street": "Mainaustraße",
          "number": "50",
          "postalcode": "97082",
          "city": "Würzburg"
        },
        "sources": [
          {
            "type": "osm",
            "id": "node/2774964276",
            "version": 0
          }
        ],
        "created": "2026-05-21",
        "updated": "2026-06-15",
        "hours": {
          "raw": "Mo-Fr 08:30-19:00; Sa 08:00-18:00"
        },
        "payment": {
          "cash": "unknown",
          "cards": "yes",
          "contactless": "unknown",
          "girocard": "unknown"
        },
        "tags": [
          "barrierefrei"
        ],
        "sources_by_field": {
          "name": "osm",
          "address.street": "osm",
          "address.number": "osm",
          "address.postalcode": "osm",
          "address.city": "osm",
          "hours": "osm",
          "payment.cash": "osm",
          "payment.cards": "osm",
          "payment.contactless": "osm",
          "payment.girocard": "osm"
        },
        "apple_id_attempted": "2026-05-25",
        "osm_removed": true
      }
    },
    {
      "type": "Feature",
      "geometry": {
        "type": "Point",
        "coordinates": [
          10.0245725,
          49.7048208
        ]
      },
      "properties": {
        "id": "tk_wu_osm_n4548310514",
        "name": "Postagentur Sommerhausen",
        "address": {},
        "sources": [
          {
            "type": "osm",
            "id": "node/4548310514",
            "version": 0
          }
        ],
        "created": "2026-05-21",
        "updated": "2026-06-22",
        "hours": {
          "raw": "Mo,Tu 14:30-18:00; We-Fr 08:30-12:00; Sa 08:30-11:30"
        },
        "sources_by_field": {
          "name": "osm",
          "hours": "osm"
        },
        "apple_id_attempted": "2026-05-25",
        "google_attempted": "2026-05-25",
        "payment": {}
      }
    },
    {
      "type": "Feature",
      "geometry": {
        "type": "Point",
        "coordinates": [
          9.9440012,
          49.8021307
        ]
      },
      "properties": {
        "id": "tk_wu_osm_n560555586",
        "name": "Uni Kiosk",
        "address": {},
        "sources": [
          {
            "type": "osm",
            "id": "node/560555586",
            "version": 0
          }
        ],
        "created": "2026-05-21",
        "updated": "2026-06-22",
        "hours": {
          "raw": "Mo-Fr 06:30-22:00; Sa-Su 09:00-22:00"
        },
        "payment": {
          "cash": "unknown",
          "cards": "no",
          "contactless": "unknown",
          "girocard": "unknown"
        },
        "sources_by_field": {
          "name": "osm",
          "hours": "osm",
          "payment.cash": "osm",
          "payment.cards": "osm",
          "payment.contactless": "osm",
          "payment.girocard": "osm"
        },
        "apple_id_attempted": "2026-05-25"
      }
    },
    {
      "type": "Feature",
      "geometry": {
        "type": "Point",
        "coordinates": [
          9.9712863,
          49.8002241
        ]
      },
      "properties": {
        "id": "tk_wu_osm_n6749839736",
        "name": "Sagasser",
        "address": {
          "street": "Ohmstraße",
          "number": "4",
          "postalcode": "97076",
          "city": "Würzburg"
        },
        "sources": [
          {
            "type": "osm",
            "id": "node/6749839736",
            "version": 0
          }
        ],
        "created": "2026-05-21",
        "updated": "2026-06-15",
        "hours": {
          "raw": "Mo-Fr 08:00-19:30; Sa 08:00-18:00; PH off"
        },
        "payment": {
          "cash": "yes",
          "cards": "unknown",
          "contactless": "unknown",
          "girocard": "yes"
        },
        "sources_by_field": {
          "name": "osm",
          "address.street": "osm",
          "address.number": "osm",
          "address.postalcode": "osm",
          "address.city": "osm",
          "hours": "osm",
          "payment.cash": "osm",
          "payment.cards": "osm",
          "payment.contactless": "osm",
          "payment.girocard": "osm"
        },
        "apple_id_attempted": "2026-05-25",
        "osm_removed": true
      }
    },
    {
      "type": "Feature",
      "geometry": {
        "type": "Point",
        "coordinates": [
          9.957022,
          49.7970791
        ]
      },
      "properties": {
        "id": "tk_wu_osm_w1241148909",
        "name": "Hisar",
        "address": {
          "street": "Nürnberger Straße",
          "number": "14a",
          "postalcode": "97076",
          "city": "Würzburg"
        },
        "sources": [
          {
            "type": "osm",
            "id": "way/1241148909",
            "version": 0
          }
        ],
        "created": "2026-05-21",
        "updated": "2026-06-22",
        "hours": {
          "raw": "Mo-Sa 10:00-19:00"
        },
        "payment": {
          "cash": "yes",
          "cards": "unknown",
          "contactless": "unknown",
          "girocard": "unknown"
        },
        "tags": [
          "draussen"
        ],
        "sources_by_field": {
          "name": "osm",
          "address.street": "osm",
          "address.number": "osm",
          "address.postalcode": "osm",
          "address.city": "osm",
          "hours": "osm",
          "payment.cash": "osm",
          "payment.cards": "osm",
          "payment.contactless": "osm",
          "payment.girocard": "osm"
        },
        "apple_id_attempted": "2026-05-25"
      }
    },
    {
      "type": "Feature",
      "geometry": {
        "type": "Point",
        "coordinates": [
          9.8105185,
          49.800679
        ]
      },
      "properties": {
        "id": "tk_wu_osm_w230379861",
        "name": "Götz",
        "address": {
          "street": "Blumenstraße",
          "number": "5",
          "postalcode": "97265",
          "city": "Hettstadt"
        },
        "sources": [
          {
            "type": "osm",
            "id": "way/230379861",
            "version": 0
          }
        ],
        "created": "2026-05-21",
        "updated": "2026-06-22",
        "sources_by_field": {
          "name": "osm",
          "address.street": "osm",
          "address.number": "osm",
          "address.postalcode": "osm",
          "address.city": "osm"
        },
        "apple_id_attempted": "2026-05-25",
        "google_attempted": "2026-05-25",
        "payment": {}
      }
    },
    {
      "type": "Feature",
      "geometry": {
        "type": "Point",
        "coordinates": [
          9.8942146,
          49.7945752
        ]
      },
      "properties": {
        "id": "tk_wu_osm_w261556520",
        "name": "Conoco",
        "address": {
          "street": "Frankfurter Straße",
          "number": "98"
        },
        "sources": [
          {
            "type": "osm",
            "id": "way/261556520",
            "version": 0
          }
        ],
        "created": "2026-05-21",
        "updated": "2026-06-22",
        "hours": {
          "raw": "Mo-Su 05:30-22:00"
        },
        "payment": {
          "cash": "unknown",
          "cards": "yes",
          "contactless": "unknown",
          "girocard": "unknown"
        },
        "tags": [
          "barrierefrei"
        ],
        "sources_by_field": {
          "name": "osm",
          "address.street": "osm",
          "address.number": "osm",
          "hours": "osm",
          "payment.cash": "osm",
          "payment.cards": "osm",
          "payment.contactless": "osm",
          "payment.girocard": "osm"
        },
        "apple_id_attempted": "2026-05-25"
      }
    }
  ]
}
