{
  "type": "FeatureCollection",
  "features": [
    {
      "type": "Feature",
      "geometry": {
        "type": "Point",
        "coordinates": [
          16.3195724,
          47.2380787
        ]
      },
      "properties": {
        "id": "tk_at1r_osm_n10827731648",
        "name": "Tabakfachgeschäft A. Wuggenig",
        "address": {
          "street": "Hauptstraße",
          "number": "32",
          "city": "Großpetersdorf"
        },
        "sources": [
          {
            "type": "osm",
            "id": "node/10827731648",
            "version": 0
          },
          {
            "type": "apple",
            "id": "2203088817695828929"
          }
        ],
        "created": "2026-05-29",
        "updated": "2026-07-20",
        "sources_by_field": {
          "name": "osm",
          "address.street": "osm",
          "address.number": "osm",
          "address.city": "osm",
          "hours": "apple",
          "payment.cards": "apple",
          "payment.contactless": "apple"
        },
        "apple_attempted": "2026-05-29",
        "hours": {
          "raw": "Mo-Fr 06:00-12:00,14:30-18:00; Sa 06:30-12:00"
        },
        "payment": {
          "cards": "yes",
          "contactless": "yes"
        }
      }
    },
    {
      "type": "Feature",
      "geometry": {
        "type": "Point",
        "coordinates": [
          16.3235391,
          47.0667334
        ]
      },
      "properties": {
        "id": "tk_at1r_osm_n12763028855",
        "name": "Trinkwelt Güssing",
        "address": {},
        "sources": [
          {
            "type": "osm",
            "id": "node/12763028855",
            "version": 0
          },
          {
            "type": "gmaps",
            "id": "ChIJx5cGygDobkcRVIz3B1Hbzj4"
          }
        ],
        "created": "2026-05-29",
        "updated": "2026-07-20",
        "sources_by_field": {
          "name": "osm",
          "hours": "google",
          "payment.cards": "google",
          "payment.contactless": "google",
          "payment.girocard": "google"
        },
        "apple_id_attempted": "2026-07-05",
        "google_attempted": "2026-05-29",
        "hours": {
          "raw": "Tu 08:00-18:00; Th 08:00-18:00; Fr 08:00-18:00; We 08:00-18:00; Mo 08:00-18:00; Sa 08:00-12:00"
        },
        "payment": {
          "cards": "no",
          "contactless": "yes",
          "girocard": "yes"
        }
      }
    },
    {
      "type": "Feature",
      "geometry": {
        "type": "Point",
        "coordinates": [
          16.5319323,
          47.8474978
        ]
      },
      "properties": {
        "id": "tk_at1r_osm_n2209929041",
        "name": "Tabak Grafik Lotto J. Marhold",
        "address": {},
        "sources": [
          {
            "type": "osm",
            "id": "node/2209929041",
            "version": 0
          },
          {
            "type": "gmaps",
            "id": "ChIJt_wflyNIbEcR6TZxqbiqJrY"
          }
        ],
        "created": "2026-05-29",
        "updated": "2026-07-20",
        "hours": {
          "raw": "Tu 06:00-18:00; Th 06:00-18:00; Fr 06:00-18:00; We 06:00-18:00; Mo 06:00-18:00; Sa 07:00-12:00"
        },
        "sources_by_field": {
          "name": "osm",
          "hours": "google",
          "payment.cards": "google",
          "payment.contactless": "google",
          "payment.girocard": "google"
        },
        "apple_id_attempted": "2026-07-05",
        "google_attempted": "2026-05-29",
        "payment": {
          "cards": "no",
          "contactless": "yes",
          "girocard": "yes"
        }
      }
    },
    {
      "type": "Feature",
      "geometry": {
        "type": "Point",
        "coordinates": [
          17.0328455,
          47.7757998
        ]
      },
      "properties": {
        "id": "tk_at1r_osm_n2321881525",
        "name": "Trafik Holzapfel",
        "address": {
          "street": "Hauptgasse",
          "number": "1",
          "city": "Andau"
        },
        "sources": [
          {
            "type": "osm",
            "id": "node/2321881525",
            "version": 0
          },
          {
            "type": "apple",
            "id": "4499203386981452769"
          }
        ],
        "created": "2026-05-29",
        "updated": "2026-07-20",
        "sources_by_field": {
          "name": "osm",
          "address.street": "osm",
          "address.number": "osm",
          "address.city": "osm",
          "hours": "apple",
          "payment.cards": "apple",
          "payment.contactless": "apple"
        },
        "apple_attempted": "2026-05-29",
        "hours": {
          "raw": "Mo-Fr 05:30-12:00,15:00-18:00; Sa 05:30-12:00"
        },
        "payment": {
          "cards": "yes",
          "contactless": "yes"
        }
      }
    },
    {
      "type": "Feature",
      "geometry": {
        "type": "Point",
        "coordinates": [
          16.2300389,
          47.3325305
        ]
      },
      "properties": {
        "id": "tk_at1r_osm_n2328032484",
        "name": "Trafik Kuch",
        "address": {
          "street": "Joseph Haydn-Platz",
          "number": "4",
          "city": "Bad Tatzmannsdorf"
        },
        "sources": [
          {
            "type": "osm",
            "id": "node/2328032484",
            "version": 0
          },
          {
            "type": "apple",
            "id": "15981895795861783438"
          }
        ],
        "created": "2026-05-29",
        "updated": "2026-07-20",
        "sources_by_field": {
          "name": "osm",
          "address.street": "osm",
          "address.number": "osm",
          "address.city": "osm",
          "hours": "apple",
          "payment.cards": "apple",
          "payment.contactless": "apple"
        },
        "apple_attempted": "2026-05-29",
        "hours": {
          "raw": "Mo-We,Fr 06:00-12:00,14:30-18:00; Th,Sa 06:00-12:00"
        },
        "payment": {
          "cards": "yes",
          "contactless": "yes"
        }
      }
    },
    {
      "type": "Feature",
      "geometry": {
        "type": "Point",
        "coordinates": [
          16.3770566,
          47.8699157
        ]
      },
      "properties": {
        "id": "tk_at1r_osm_n467100061",
        "name": "Roman Kliesspiess",
        "address": {},
        "sources": [
          {
            "type": "osm",
            "id": "node/467100061",
            "version": 0
          },
          {
            "type": "apple",
            "id": "9743919729205285558"
          },
          {
            "type": "gmaps",
            "id": "ChIJzXc6OKJKbEcRDlJPJ3ll1Mc"
          }
        ],
        "created": "2026-05-29",
        "updated": "2026-07-20",
        "sources_by_field": {
          "name": "osm",
          "hours": "google",
          "payment.cards": "google",
          "payment.contactless": "google",
          "payment.girocard": "google"
        },
        "apple_attempted": "2026-05-29",
        "google_attempted": "2026-05-29",
        "hours": {
          "raw": "Tu 06:30-12:30,14:00-18:30; Th 06:30-12:30; Fr 06:30-12:30,14:00-18:30; We 06:30-12:30,14:00-18:30; Mo 06:30-12:30,14:00-18:30; Sa 06:30-12:00"
        },
        "payment": {
          "cards": "no",
          "contactless": "yes",
          "girocard": "yes"
        }
      }
    },
    {
      "type": "Feature",
      "geometry": {
        "type": "Point",
        "coordinates": [
          16.3274189,
          47.7765265
        ]
      },
      "properties": {
        "id": "tk_at1r_osm_n976582277",
        "name": "Quelle, Sauerwasser",
        "address": {},
        "sources": [
          {
            "type": "osm",
            "id": "node/976582277",
            "version": 0
          },
          {
            "type": "gmaps",
            "id": "ChIJ-WjLrWkzbEcR4clZliCV49Q"
          }
        ],
        "created": "2026-05-29",
        "updated": "2026-07-20",
        "tags": [
          "barrierefrei"
        ],
        "sources_by_field": {
          "name": "osm",
          "hours": "google"
        },
        "apple_id_attempted": "2026-07-05",
        "google_attempted": "2026-07-05",
        "hours": {
          "raw": "Tu 10:00-21:00; Th 10:00-21:00; Fr 10:00-21:00; We 10:00-21:00; Mo 10:00-21:30; Sa 10:00-21:00; Su 10:00-21:00"
        },
        "payment": {}
      }
    },
    {
      "type": "Feature",
      "geometry": {
        "type": "Point",
        "coordinates": [
          16.8534059,
          47.9853148
        ]
      },
      "properties": {
        "id": "tk_at1r_osm_n9996550301",
        "name": "Getränke Kazianschütz GmbH",
        "address": {
          "street": "Industriezentrum Kälberweide",
          "number": "6",
          "city": "Parndorf"
        },
        "sources": [
          {
            "type": "osm",
            "id": "node/9996550301",
            "version": 0
          },
          {
            "type": "apple",
            "id": "11719769979145186516"
          },
          {
            "type": "gmaps",
            "id": "ChIJG6_Q9nBdbEcReLAuWRa-Kqo"
          }
        ],
        "created": "2026-05-29",
        "updated": "2026-07-20",
        "sources_by_field": {
          "name": "osm",
          "address.street": "osm",
          "address.number": "osm",
          "address.city": "osm",
          "hours": "google",
          "payment.cards": "google",
          "payment.contactless": "google",
          "payment.girocard": "google"
        },
        "apple_attempted": "2026-05-29",
        "google_attempted": "2026-05-29",
        "hours": {
          "raw": "Tu 07:00-12:00,12:30-16:00; Th 07:00-12:00,12:30-16:00; Fr 07:00-12:00,12:30-16:00; We 07:00-12:00,12:30-16:00; Mo 07:00-12:00,12:30-16:00"
        },
        "payment": {
          "cards": "no",
          "contactless": "yes",
          "girocard": "yes"
        }
      }
    },
    {
      "type": "Feature",
      "geometry": {
        "type": "Point",
        "coordinates": [
          16.6777735,
          47.8030165
        ]
      },
      "properties": {
        "id": "tk_at1r_osm_w1345993278",
        "name": "Eismeister",
        "address": {},
        "sources": [
          {
            "type": "osm",
            "id": "way/1345993278",
            "version": 0
          },
          {
            "type": "gmaps",
            "id": "ChIJ-QUrbEE_bEcRidiH9yzlvhE"
          }
        ],
        "created": "2026-06-15",
        "updated": "2026-07-20",
        "sources_by_field": {
          "name": "osm",
          "hours": "google"
        },
        "apple_id_attempted": "2026-06-25",
        "google_attempted": "2026-06-25",
        "hours": {
          "raw": "Th 11:00-21:00"
        },
        "payment": {}
      }
    },
    {
      "type": "Feature",
      "geometry": {
        "type": "Point",
        "coordinates": [
          17.0338614,
          47.774987
        ]
      },
      "properties": {
        "id": "tk_at1r_osm_w161284821",
        "name": "Winzer Johann Schwarz",
        "address": {
          "street": "Hauptgasse",
          "number": "21"
        },
        "sources": [
          {
            "type": "osm",
            "id": "way/161284821",
            "version": 0
          },
          {
            "type": "gmaps",
            "id": "ChIJwRgzZtdybEcRBic8PRhbmFs"
          }
        ],
        "created": "2026-05-29",
        "updated": "2026-07-20",
        "sources_by_field": {
          "name": "osm",
          "address.street": "osm",
          "address.number": "osm"
        },
        "apple_id_attempted": "2026-07-05",
        "google_attempted": "2026-07-05",
        "payment": {}
      }
    },
    {
      "type": "Feature",
      "geometry": {
        "type": "Point",
        "coordinates": [
          16.6658688,
          47.755735
        ]
      },
      "properties": {
        "id": "tk_at1r_osm_w266877804",
        "name": "Tabak Trafik Sommer",
        "address": {
          "street": "Hauerstraße",
          "number": "11",
          "city": "Mörbisch am See"
        },
        "sources": [
          {
            "type": "osm",
            "id": "way/266877804",
            "version": 0
          },
          {
            "type": "apple",
            "id": "11880831073510465200"
          }
        ],
        "created": "2026-05-29",
        "updated": "2026-07-20",
        "sources_by_field": {
          "name": "osm",
          "address.street": "osm",
          "address.number": "osm",
          "address.city": "osm",
          "hours": "apple",
          "payment.cards": "apple",
          "payment.contactless": "apple"
        },
        "apple_attempted": "2026-05-29",
        "hours": {
          "raw": "Su 09:00-11:00; Mo-We,Fr 07:00-12:00,15:00-18:00; Th,Sa 07:00-12:00"
        },
        "payment": {
          "cards": "yes",
          "contactless": "yes"
        }
      }
    },
    {
      "type": "Feature",
      "geometry": {
        "type": "Point",
        "coordinates": [
          16.3820989,
          47.8360172
        ]
      },
      "properties": {
        "id": "tk_at1r_osm_w299909811",
        "name": "Seekiosk",
        "address": {},
        "sources": [
          {
            "type": "osm",
            "id": "way/299909811",
            "version": 0
          },
          {
            "type": "gmaps",
            "id": "ChIJe4CA9DE1bEcRgfoMRPALPpM"
          }
        ],
        "created": "2026-05-29",
        "updated": "2026-07-20",
        "sources_by_field": {
          "name": "osm"
        },
        "apple_id_attempted": "2026-07-05",
        "google_attempted": "2026-07-05",
        "payment": {}
      }
    },
    {
      "type": "Feature",
      "geometry": {
        "type": "Point",
        "coordinates": [
          16.3230383,
          47.0592617
        ]
      },
      "properties": {
        "id": "tk_at1r_osm_n12731344777",
        "name": "Trafik Unger",
        "address": {},
        "sources": [
          {
            "type": "osm",
            "id": "node/12731344777",
            "version": 0
          }
        ],
        "created": "2026-05-29",
        "updated": "2026-07-20",
        "hours": {
          "raw": "Mo-Fr 06:00-12:30,14:30-18:00; Sa 06:00-12:30"
        },
        "sources_by_field": {
          "name": "osm",
          "hours": "osm"
        },
        "apple_id_attempted": "2026-07-05",
        "google_attempted": "2026-07-05",
        "payment": {}
      }
    },
    {
      "type": "Feature",
      "geometry": {
        "type": "Point",
        "coordinates": [
          16.3259204,
          47.0595587
        ]
      },
      "properties": {
        "id": "tk_at1r_osm_n12731344789",
        "name": "Trafik",
        "address": {},
        "sources": [
          {
            "type": "osm",
            "id": "node/12731344789",
            "version": 0
          }
        ],
        "created": "2026-05-29",
        "updated": "2026-07-20",
        "hours": {
          "raw": "Mo-Sa 06:00-12:00, Mo-Fr 14:30-18:00"
        },
        "sources_by_field": {
          "name": "osm",
          "hours": "osm"
        },
        "apple_id_attempted": "2026-07-05",
        "google_attempted": "2026-07-05",
        "payment": {}
      }
    },
    {
      "type": "Feature",
      "geometry": {
        "type": "Point",
        "coordinates": [
          17.0228317,
          47.7731777
        ]
      },
      "properties": {
        "id": "tk_at1r_osm_n1350171344",
        "name": "Getraenkeoase",
        "address": {},
        "sources": [
          {
            "type": "osm",
            "id": "node/1350171344",
            "version": 0
          }
        ],
        "created": "2026-05-29",
        "updated": "2026-07-20",
        "sources_by_field": {
          "name": "osm"
        },
        "apple_id_attempted": "2026-07-05",
        "google_attempted": "2026-07-05",
        "payment": {}
      }
    },
    {
      "type": "Feature",
      "geometry": {
        "type": "Point",
        "coordinates": [
          16.3984792,
          47.7386856
        ]
      },
      "properties": {
        "id": "tk_at1r_osm_n1714510810",
        "name": "Datlinger",
        "address": {
          "street": "Michael Koch-Straße",
          "number": "23",
          "city": "Mattersburg"
        },
        "sources": [
          {
            "type": "osm",
            "id": "node/1714510810",
            "version": 0
          }
        ],
        "created": "2026-05-29",
        "updated": "2026-07-20",
        "sources_by_field": {
          "name": "osm",
          "address.street": "osm",
          "address.number": "osm",
          "address.city": "osm"
        },
        "apple_id_attempted": "2026-07-05",
        "google_attempted": "2026-07-05",
        "payment": {}
      }
    },
    {
      "type": "Feature",
      "geometry": {
        "type": "Point",
        "coordinates": [
          16.2407176,
          47.3633208
        ]
      },
      "properties": {
        "id": "tk_at1r_osm_n340518823",
        "name": "A&O",
        "address": {
          "number": "54a",
          "city": "Mariasdorf"
        },
        "sources": [
          {
            "type": "osm",
            "id": "node/340518823",
            "version": 0
          }
        ],
        "created": "2026-05-29",
        "updated": "2026-07-20",
        "sources_by_field": {
          "name": "osm",
          "address.number": "osm",
          "address.city": "osm"
        },
        "apple_id_attempted": "2026-07-05",
        "google_attempted": "2026-07-05",
        "payment": {}
      }
    },
    {
      "type": "Feature",
      "geometry": {
        "type": "Point",
        "coordinates": [
          16.4538001,
          47.7875642
        ]
      },
      "properties": {
        "id": "tk_at1r_osm_n340519209",
        "name": "Mary's Dorfladen ums Eck",
        "address": {
          "street": "Hauptplatz",
          "number": "1",
          "city": "Hirm"
        },
        "sources": [
          {
            "type": "osm",
            "id": "node/340519209",
            "version": 0
          }
        ],
        "created": "2026-05-29",
        "updated": "2026-07-20",
        "hours": {
          "raw": "Mo,Tu,Th 05:30-12:30; We,Fr 05:30-12:30,15:00-18:00; Sa 07:00-12:30"
        },
        "sources_by_field": {
          "name": "osm",
          "address.street": "osm",
          "address.number": "osm",
          "address.city": "osm",
          "hours": "osm"
        },
        "apple_id_attempted": "2026-07-05",
        "google_attempted": "2026-07-05",
        "payment": {}
      }
    },
    {
      "type": "Feature",
      "geometry": {
        "type": "Point",
        "coordinates": [
          16.6683095,
          47.7548147
        ]
      },
      "properties": {
        "id": "tk_at1r_osm_n3421395375",
        "name": "Trafik Jäger",
        "address": {},
        "sources": [
          {
            "type": "osm",
            "id": "node/3421395375",
            "version": 0
          }
        ],
        "created": "2026-05-29",
        "updated": "2026-07-20",
        "sources_by_field": {
          "name": "osm"
        },
        "apple_id_attempted": "2026-07-05",
        "google_attempted": "2026-07-05",
        "payment": {}
      }
    },
    {
      "type": "Feature",
      "geometry": {
        "type": "Point",
        "coordinates": [
          16.9258258,
          47.8354871
        ]
      },
      "properties": {
        "id": "tk_at1r_osm_n356931861",
        "name": "Tabak Trafik",
        "address": {
          "street": "Franziskanerstraße",
          "city": "Frauenkirchen"
        },
        "sources": [
          {
            "type": "osm",
            "id": "node/356931861",
            "version": 0
          }
        ],
        "created": "2026-05-29",
        "updated": "2026-07-20",
        "sources_by_field": {
          "name": "osm",
          "address.street": "osm",
          "address.city": "osm"
        },
        "apple_id_attempted": "2026-07-05",
        "google_attempted": "2026-07-05",
        "payment": {}
      }
    },
    {
      "type": "Feature",
      "geometry": {
        "type": "Point",
        "coordinates": [
          17.0727596,
          47.9393991
        ]
      },
      "properties": {
        "id": "tk_at1r_osm_n388509084",
        "name": "Trafik",
        "address": {
          "city": "Nickelsdorf"
        },
        "sources": [
          {
            "type": "osm",
            "id": "node/388509084",
            "version": 0
          }
        ],
        "created": "2026-05-29",
        "updated": "2026-07-20",
        "sources_by_field": {
          "name": "osm",
          "address.city": "osm"
        },
        "apple_id_attempted": "2026-07-05",
        "google_attempted": "2026-07-05",
        "payment": {}
      }
    },
    {
      "type": "Feature",
      "geometry": {
        "type": "Point",
        "coordinates": [
          16.1236655,
          47.1907406
        ]
      },
      "properties": {
        "id": "tk_at1r_osm_n4239014870",
        "name": "Zsifkovits",
        "address": {
          "number": "71"
        },
        "sources": [
          {
            "type": "osm",
            "id": "node/4239014870",
            "version": 0
          }
        ],
        "created": "2026-05-29",
        "updated": "2026-07-20",
        "sources_by_field": {
          "name": "osm",
          "address.number": "osm"
        },
        "apple_id_attempted": "2026-07-05",
        "google_attempted": "2026-07-05",
        "payment": {}
      }
    },
    {
      "type": "Feature",
      "geometry": {
        "type": "Point",
        "coordinates": [
          16.9980168,
          48.0944537
        ]
      },
      "properties": {
        "id": "tk_at1r_osm_n429197834",
        "name": "Werksverkauf Römerquelle",
        "address": {},
        "sources": [
          {
            "type": "osm",
            "id": "node/429197834",
            "version": 0
          }
        ],
        "created": "2026-05-29",
        "updated": "2026-07-20",
        "sources_by_field": {
          "name": "osm"
        },
        "apple_id_attempted": "2026-07-05",
        "google_attempted": "2026-07-05",
        "payment": {}
      }
    },
    {
      "type": "Feature",
      "geometry": {
        "type": "Point",
        "coordinates": [
          16.8399305,
          47.9734688
        ]
      },
      "properties": {
        "id": "tk_at1r_osm_n5502537306",
        "name": "Trafik",
        "address": {
          "street": "Wiener Straße",
          "number": "120",
          "city": "Neusiedl am See"
        },
        "sources": [
          {
            "type": "osm",
            "id": "node/5502537306",
            "version": 0
          }
        ],
        "created": "2026-05-29",
        "updated": "2026-07-20",
        "sources_by_field": {
          "name": "osm",
          "address.street": "osm",
          "address.number": "osm",
          "address.city": "osm"
        },
        "apple_id_attempted": "2026-07-05",
        "google_attempted": "2026-07-05",
        "payment": {}
      }
    },
    {
      "type": "Feature",
      "geometry": {
        "type": "Point",
        "coordinates": [
          16.8364552,
          47.9292032
        ]
      },
      "properties": {
        "id": "tk_at1r_osm_n7908608030",
        "name": "Snackeria",
        "address": {},
        "sources": [
          {
            "type": "osm",
            "id": "node/7908608030",
            "version": 0
          }
        ],
        "created": "2026-05-29",
        "updated": "2026-07-20",
        "sources_by_field": {
          "name": "osm"
        },
        "apple_id_attempted": "2026-07-05",
        "google_attempted": "2026-07-05",
        "payment": {}
      }
    },
    {
      "type": "Feature",
      "geometry": {
        "type": "Point",
        "coordinates": [
          16.8683897,
          47.9258426
        ]
      },
      "properties": {
        "id": "tk_at1r_osm_n7937832556",
        "name": "Einkaufsladen",
        "address": {
          "street": "Raiffeisenplatz",
          "number": "11",
          "city": "Weiden am See"
        },
        "sources": [
          {
            "type": "osm",
            "id": "node/7937832556",
            "version": 0
          }
        ],
        "created": "2026-05-29",
        "updated": "2026-07-20",
        "sources_by_field": {
          "name": "osm",
          "address.street": "osm",
          "address.number": "osm",
          "address.city": "osm"
        },
        "apple_id_attempted": "2026-07-05",
        "google_attempted": "2026-07-05",
        "payment": {}
      }
    },
    {
      "type": "Feature",
      "geometry": {
        "type": "Point",
        "coordinates": [
          16.3461696,
          47.5089854
        ]
      },
      "properties": {
        "id": "tk_at1r_osm_w1375617456",
        "name": "Lebensmittelbox",
        "address": {},
        "sources": [
          {
            "type": "osm",
            "id": "way/1375617456",
            "version": 0
          }
        ],
        "created": "2026-05-29",
        "updated": "2026-07-20",
        "sources_by_field": {
          "name": "osm"
        },
        "apple_id_attempted": "2026-07-05",
        "google_attempted": "2026-07-05",
        "payment": {}
      }
    }
  ]
}
