{
  "type": "FeatureCollection",
  "features": [
    {
      "type": "Feature",
      "geometry": {
        "type": "Point",
        "coordinates": [
          14.3088572,
          46.6272117
        ]
      },
      "properties": {
        "id": "tk_at2r_osm_n10087418808",
        "name": "Pep Juice Bar",
        "address": {},
        "sources": [
          {
            "type": "osm",
            "id": "node/10087418808",
            "version": 0
          },
          {
            "type": "apple",
            "id": "7533413788792109423"
          },
          {
            "type": "gmaps",
            "id": "ChIJ81R2BWJzcEcRZlJZ08Pd1ts"
          }
        ],
        "created": "2026-05-29",
        "updated": "2026-07-27",
        "hours": {
          "raw": "Tu 09:00-19:00; Fr 09:00-19:00; We 09:00-19:00; Mo 09:00-19:00; Sa 09:00-18:00"
        },
        "sources_by_field": {
          "name": "osm",
          "hours": "google",
          "payment.cards": "google",
          "payment.contactless": "google",
          "payment.girocard": "google"
        },
        "apple_attempted": "2026-05-29",
        "google_attempted": "2026-05-29",
        "payment": {
          "cards": "no",
          "contactless": "yes",
          "girocard": "yes"
        }
      }
    },
    {
      "type": "Feature",
      "geometry": {
        "type": "Point",
        "coordinates": [
          14.310236,
          46.6274795
        ]
      },
      "properties": {
        "id": "tk_at2r_osm_n10088004085",
        "name": "Boba Tea & Juice",
        "address": {},
        "sources": [
          {
            "type": "osm",
            "id": "node/10088004085",
            "version": 0
          },
          {
            "type": "gmaps",
            "id": "ChIJrVqUwStzcEcRMTOgmygeksk"
          }
        ],
        "created": "2026-05-29",
        "updated": "2026-07-27",
        "sources_by_field": {
          "name": "osm",
          "hours": "google",
          "payment.cards": "google",
          "payment.contactless": "google",
          "payment.girocard": "google"
        },
        "apple_id_attempted": "2026-07-31",
        "google_attempted": "2026-05-29",
        "hours": {
          "raw": "Tu 09:00-19:30; Th 09:00-19:30; Fr 09:00-19:30; We 09:00-19:30; Mo 09:00-19:30; Sa 09:00-18:00"
        },
        "payment": {
          "cards": "yes",
          "contactless": "yes",
          "girocard": "yes"
        }
      }
    },
    {
      "type": "Feature",
      "geometry": {
        "type": "Point",
        "coordinates": [
          14.350691,
          46.6299334
        ]
      },
      "properties": {
        "id": "tk_at2r_osm_n10966401362",
        "name": "Iloon",
        "address": {},
        "sources": [
          {
            "type": "osm",
            "id": "node/10966401362",
            "version": 0
          },
          {
            "type": "gmaps",
            "id": "ChIJF5AD_uANcEcR8QvxaJyunMo"
          }
        ],
        "created": "2026-05-29",
        "updated": "2026-07-27",
        "hours": {
          "raw": "Tu 07:30-18:00; Th 07:30-18:00; Fr 07:30-18:00; We 07:30-18:00; Mo 07:30-18:00; Sa 08:00-18:00"
        },
        "sources_by_field": {
          "name": "osm",
          "hours": "google",
          "payment.cards": "google",
          "payment.girocard": "google"
        },
        "apple_id_attempted": "2026-07-31",
        "google_attempted": "2026-05-29",
        "payment": {
          "cards": "yes",
          "girocard": "yes"
        }
      }
    },
    {
      "type": "Feature",
      "geometry": {
        "type": "Point",
        "coordinates": [
          13.3787496,
          46.6296381
        ]
      },
      "properties": {
        "id": "tk_at2r_osm_n1108178792",
        "name": "OMV",
        "address": {},
        "sources": [
          {
            "type": "osm",
            "id": "node/1108178792",
            "version": 0
          },
          {
            "type": "gmaps",
            "id": "ChIJQxv36JsJekcRIrnR4hBCqR8"
          }
        ],
        "created": "2026-05-29",
        "updated": "2026-06-01",
        "hours": {
          "raw": "Tu 06:00-22:00; Th 06:00-22:00; Fr 06:00-22:00; We 06:00-22:00; Mo 06:00-22:00; Sa 06:00-22:00; Su 06:00-22:00"
        },
        "sources_by_field": {
          "name": "osm",
          "hours": "google",
          "payment.cards": "google",
          "payment.contactless": "google",
          "payment.girocard": "google"
        },
        "apple_id_attempted": "2026-07-31",
        "google_attempted": "2026-05-29",
        "payment": {
          "cards": "no",
          "contactless": "yes",
          "girocard": "yes"
        }
      }
    },
    {
      "type": "Feature",
      "geometry": {
        "type": "Point",
        "coordinates": [
          14.320389,
          46.6147584
        ]
      },
      "properties": {
        "id": "tk_at2r_osm_n11809783961",
        "name": "Trafik Hafner",
        "address": {},
        "sources": [
          {
            "type": "osm",
            "id": "node/11809783961",
            "version": 0
          },
          {
            "type": "gmaps",
            "id": "ChIJNaofPrt0cEcR9ohF9bpmcQw"
          }
        ],
        "created": "2026-05-29",
        "updated": "2026-07-27",
        "sources_by_field": {
          "name": "osm",
          "hours": "google",
          "payment.cards": "google",
          "payment.contactless": "google",
          "payment.girocard": "google"
        },
        "apple_id_attempted": "2026-07-31",
        "google_attempted": "2026-05-29",
        "hours": {
          "raw": "Tu 08:00-18:30; Th 08:00-18:30; Fr 08:00-18:30; We 08:00-18:30; Mo 08:00-18:30; Sa 08:00-17:00"
        },
        "payment": {
          "cards": "no",
          "contactless": "yes",
          "girocard": "yes"
        }
      }
    },
    {
      "type": "Feature",
      "geometry": {
        "type": "Point",
        "coordinates": [
          14.435775,
          46.9032348
        ]
      },
      "properties": {
        "id": "tk_at2r_osm_n12492237340",
        "name": "Hirter Bierathek",
        "address": {},
        "sources": [
          {
            "type": "osm",
            "id": "node/12492237340",
            "version": 0
          },
          {
            "type": "apple",
            "id": "16154550857331690365"
          },
          {
            "type": "gmaps",
            "id": "ChIJ1c-Rl-FAcEcRLng5vjHksqI"
          }
        ],
        "created": "2026-05-29",
        "updated": "2026-07-27",
        "hours": {
          "raw": "Tu 09:00-18:00; Th 09:00-18:00; Fr 09:00-18:00; We 09:00-18:00; Mo 09:00-18:00; Sa 09:00-18:00; Su 09:00-18:00"
        },
        "sources_by_field": {
          "name": "osm",
          "hours": "google",
          "payment.cards": "google",
          "payment.contactless": "google",
          "payment.girocard": "google"
        },
        "apple_attempted": "2026-05-29",
        "google_attempted": "2026-05-29",
        "payment": {
          "cards": "no",
          "contactless": "yes",
          "girocard": "yes"
        }
      }
    },
    {
      "type": "Feature",
      "geometry": {
        "type": "Point",
        "coordinates": [
          13.8964137,
          46.6745198
        ]
      },
      "properties": {
        "id": "tk_at2r_osm_n13107640026",
        "name": "3D-Bogenparcours Gerlitzen",
        "address": {
          "city": "Treffen am Ossiacher See"
        },
        "sources": [
          {
            "type": "osm",
            "id": "node/13107640026",
            "version": 0
          },
          {
            "type": "gmaps",
            "id": "ChIJs-wkEBqBcEcR8IcMz-6w2Dc"
          }
        ],
        "created": "2026-05-29",
        "updated": "2026-07-31",
        "hours": {
          "raw": "Tu 09:30-17:00; Th 09:30-17:00; Fr 09:30-17:00; We 09:30-17:00; Mo 09:30-17:00; Sa 09:30-17:00; Su 09:30-17:00"
        },
        "sources_by_field": {
          "name": "osm",
          "address.city": "osm",
          "hours": "google"
        },
        "apple_id_attempted": "2026-07-31",
        "google_attempted": "2026-07-31",
        "payment": {}
      }
    },
    {
      "type": "Feature",
      "geometry": {
        "type": "Point",
        "coordinates": [
          14.271159,
          46.6175699
        ]
      },
      "properties": {
        "id": "tk_at2r_osm_n1397155324",
        "name": "AMZ Trafik",
        "address": {
          "street": "Universitätsstraße",
          "city": "Klagenfurt am Wörthersee"
        },
        "sources": [
          {
            "type": "osm",
            "id": "node/1397155324",
            "version": 0
          },
          {
            "type": "gmaps",
            "id": "ChIJaZchLm90cEcRpD3QiBccF0k"
          }
        ],
        "created": "2026-05-29",
        "updated": "2026-07-27",
        "hours": {
          "raw": "Tu 07:30-12:30,15:00-18:00; Th 07:30-12:30,15:00-18:00; Fr 07:30-12:30,15:00-18:00; We 07:30-12:30,15:00-18:00; Mo 07:30-12:30,15:00-18:00; Sa 08:00-12:00"
        },
        "sources_by_field": {
          "name": "osm",
          "address.street": "osm",
          "address.city": "osm",
          "hours": "google",
          "payment.cards": "google",
          "payment.contactless": "google",
          "payment.girocard": "google"
        },
        "apple_id_attempted": "2026-07-31",
        "google_attempted": "2026-05-29",
        "payment": {
          "cards": "no",
          "contactless": "yes",
          "girocard": "yes"
        }
      }
    },
    {
      "type": "Feature",
      "geometry": {
        "type": "Point",
        "coordinates": [
          14.2929731,
          46.6148553
        ]
      },
      "properties": {
        "id": "tk_at2r_osm_n1433845202",
        "name": "Waidmannsdorfer Straße",
        "address": {
          "street": "Waidmannsdorfer Straße",
          "number": "73",
          "city": "Klagenfurt am Wörthersee"
        },
        "sources": [
          {
            "type": "osm",
            "id": "node/1433845202",
            "version": 0
          },
          {
            "type": "apple",
            "id": "4944855593541012637"
          }
        ],
        "created": "2026-05-29",
        "updated": "2026-07-27",
        "tags": [
          "barrierefrei"
        ],
        "sources_by_field": {
          "name": "osm",
          "address.street": "osm",
          "address.number": "osm",
          "address.city": "osm"
        },
        "apple_attempted": "2026-07-31",
        "google_attempted": "2026-07-31",
        "payment": {}
      }
    },
    {
      "type": "Feature",
      "geometry": {
        "type": "Point",
        "coordinates": [
          14.3141891,
          46.6399442
        ]
      },
      "properties": {
        "id": "tk_at2r_osm_n1437594743",
        "name": "Trafik Rauter",
        "address": {
          "street": "St. Veiter Straße",
          "number": "136",
          "city": "Klagenfurt am Wörthersee"
        },
        "sources": [
          {
            "type": "osm",
            "id": "node/1437594743",
            "version": 0
          },
          {
            "type": "gmaps",
            "id": "ChIJAUGkXW5zcEcRmvjK0-plsQk"
          }
        ],
        "created": "2026-05-29",
        "updated": "2026-07-27",
        "hours": {
          "raw": "Mo-Sa 06:30-12:30,13:45-18:30, Sa 06:30-12:30"
        },
        "sources_by_field": {
          "name": "osm",
          "address.street": "osm",
          "address.number": "osm",
          "address.city": "osm",
          "hours": "osm",
          "payment.cards": "google",
          "payment.contactless": "google",
          "payment.girocard": "google"
        },
        "apple_id_attempted": "2026-07-31",
        "google_attempted": "2026-06-28",
        "payment": {
          "cards": "yes",
          "contactless": "yes",
          "girocard": "yes"
        }
      }
    },
    {
      "type": "Feature",
      "geometry": {
        "type": "Point",
        "coordinates": [
          14.3008369,
          46.6122301
        ]
      },
      "properties": {
        "id": "tk_at2r_osm_n1442882427",
        "name": "Trafik Knapp Michael",
        "address": {
          "street": "Rosentaler Straße",
          "number": "98",
          "city": "Klagenfurt am Wörthersee"
        },
        "sources": [
          {
            "type": "osm",
            "id": "node/1442882427",
            "version": 0
          },
          {
            "type": "gmaps",
            "id": "ChIJ9eFfypN0cEcRjvPR3NFMLZ8"
          }
        ],
        "created": "2026-05-29",
        "updated": "2026-07-27",
        "hours": {
          "raw": "Tu 07:00-18:00; Th 07:00-18:00; Fr 07:00-18:00; We 07:00-18:00; Mo 07:00-18:00; Sa 07:00-13:00"
        },
        "tags": [
          "barrierefrei"
        ],
        "sources_by_field": {
          "name": "osm",
          "address.street": "osm",
          "address.number": "osm",
          "address.city": "osm",
          "hours": "google",
          "payment.cards": "google",
          "payment.contactless": "google",
          "payment.girocard": "google"
        },
        "apple_id_attempted": "2026-07-31",
        "google_attempted": "2026-06-28",
        "payment": {
          "cards": "yes",
          "contactless": "yes",
          "girocard": "yes"
        }
      }
    },
    {
      "type": "Feature",
      "geometry": {
        "type": "Point",
        "coordinates": [
          13.5134553,
          46.7916634
        ]
      },
      "properties": {
        "id": "tk_at2r_osm_n3054364419",
        "name": "Taschwer",
        "address": {},
        "sources": [
          {
            "type": "osm",
            "id": "node/3054364419",
            "version": 0
          },
          {
            "type": "gmaps",
            "id": "ChIJo3cjKCajcEcRyPR53PiyEyw"
          }
        ],
        "created": "2026-05-29",
        "updated": "2026-07-27",
        "sources_by_field": {
          "name": "osm",
          "hours": "google",
          "payment.cards": "google",
          "payment.contactless": "google",
          "payment.girocard": "google"
        },
        "apple_id_attempted": "2026-07-31",
        "google_attempted": "2026-05-29",
        "hours": {
          "raw": "Tu 07:30-18:00; Th 07:30-18:00; Fr 07:30-18:00; We 07:30-18:00; Mo 07:30-18:00; Sa 07:30-16:00"
        },
        "payment": {
          "cards": "yes",
          "contactless": "yes",
          "girocard": "yes"
        }
      }
    },
    {
      "type": "Feature",
      "geometry": {
        "type": "Point",
        "coordinates": [
          13.8423215,
          46.6142877
        ]
      },
      "properties": {
        "id": "tk_at2r_osm_n3180726865",
        "name": "Trafik Jörgl",
        "address": {
          "street": "Ringmauergasse",
          "number": "9",
          "city": "Villach"
        },
        "sources": [
          {
            "type": "osm",
            "id": "node/3180726865",
            "version": 0
          },
          {
            "type": "apple",
            "id": "1448076739443447708"
          },
          {
            "type": "gmaps",
            "id": "ChIJVVaxftuBcEcRvxeIcedK_qQ"
          }
        ],
        "created": "2026-05-29",
        "updated": "2026-07-27",
        "tags": [
          "barrierefrei"
        ],
        "sources_by_field": {
          "name": "osm",
          "address.street": "osm",
          "address.number": "osm",
          "address.city": "osm",
          "hours": "google",
          "payment.cards": "google",
          "payment.contactless": "google",
          "payment.girocard": "google"
        },
        "apple_attempted": "2026-05-29",
        "google_attempted": "2026-05-29",
        "hours": {
          "raw": "Tu 08:00-19:00; Th 08:00-19:00; Fr 08:00-19:00; We 08:00-19:00; Mo 08:00-19:00; Sa 08:00-17:00"
        },
        "payment": {
          "cards": "no",
          "contactless": "yes",
          "girocard": "yes"
        }
      }
    },
    {
      "type": "Feature",
      "geometry": {
        "type": "Point",
        "coordinates": [
          13.5056382,
          46.7930906
        ]
      },
      "properties": {
        "id": "tk_at2r_osm_n3379980703",
        "name": "Peter Fercher Trafik",
        "address": {},
        "sources": [
          {
            "type": "osm",
            "id": "node/3379980703",
            "version": 0
          },
          {
            "type": "apple",
            "id": "11402097636189531047"
          },
          {
            "type": "gmaps",
            "id": "ChIJSb0FhUejcEcRhm5HC3QK_g0"
          }
        ],
        "created": "2026-05-29",
        "updated": "2026-07-27",
        "sources_by_field": {
          "name": "osm",
          "hours": "google",
          "payment.cards": "google",
          "payment.contactless": "google",
          "payment.girocard": "google"
        },
        "apple_attempted": "2026-05-29",
        "google_attempted": "2026-05-29",
        "hours": {
          "raw": "Tu 07:30-12:00,15:00-18:00; Th 07:30-12:00,15:00-18:00; Fr 07:30-12:00,15:00-18:00; We 07:30-12:00,15:00-18:00; Mo 07:30-12:00,15:00-18:00; Sa 08:00-13:00"
        },
        "payment": {
          "cards": "no",
          "contactless": "yes",
          "girocard": "yes"
        }
      }
    },
    {
      "type": "Feature",
      "geometry": {
        "type": "Point",
        "coordinates": [
          14.3122627,
          46.6010892
        ]
      },
      "properties": {
        "id": "tk_at2r_osm_n4570577657",
        "name": "Murauer-Bier-Depot Klagenfurt",
        "address": {
          "street": "Schrödingerstraße",
          "number": "61",
          "city": "Klagenfurt am Wörthersee"
        },
        "sources": [
          {
            "type": "osm",
            "id": "node/4570577657",
            "version": 0
          },
          {
            "type": "apple",
            "id": "2763113555544732527"
          }
        ],
        "created": "2026-05-29",
        "updated": "2026-07-27",
        "hours": {
          "raw": "Mo-Fr 08:00-11:30"
        },
        "sources_by_field": {
          "name": "osm",
          "address.street": "osm",
          "address.number": "osm",
          "address.city": "osm",
          "hours": "apple",
          "payment.cards": "apple",
          "payment.contactless": "apple"
        },
        "apple_attempted": "2026-06-28",
        "google_attempted": "2026-05-29",
        "payment": {
          "cards": "yes",
          "contactless": "yes"
        }
      }
    },
    {
      "type": "Feature",
      "geometry": {
        "type": "Point",
        "coordinates": [
          14.2990573,
          46.6056587
        ]
      },
      "properties": {
        "id": "tk_at2r_osm_n5101730168",
        "name": "Getränkedienst Lora",
        "address": {
          "street": "Rosentaler Straße",
          "number": "143",
          "city": "Klagenfurt am Wörthersee"
        },
        "sources": [
          {
            "type": "osm",
            "id": "node/5101730168",
            "version": 0
          },
          {
            "type": "apple",
            "id": "399080374552795790"
          }
        ],
        "created": "2026-05-29",
        "updated": "2026-07-27",
        "sources_by_field": {
          "name": "osm",
          "address.street": "osm",
          "address.number": "osm",
          "address.city": "osm",
          "hours": "apple",
          "payment.cards": "apple",
          "payment.contactless": "apple"
        },
        "apple_attempted": "2026-05-29",
        "hours": {
          "raw": "Mo-Fr 08:00-17:00; Sa 09:00-12:00"
        },
        "payment": {
          "cards": "yes",
          "contactless": "yes"
        }
      }
    },
    {
      "type": "Feature",
      "geometry": {
        "type": "Point",
        "coordinates": [
          14.3445928,
          46.6279374
        ]
      },
      "properties": {
        "id": "tk_at2r_osm_n5297822162",
        "name": "Tabak Trafik Schrott",
        "address": {},
        "sources": [
          {
            "type": "osm",
            "id": "node/5297822162",
            "version": 0
          },
          {
            "type": "apple",
            "id": "4089068190551976376"
          },
          {
            "type": "gmaps",
            "id": "ChIJSbOTWVNzcEcRa7nt662o2nA"
          }
        ],
        "created": "2026-05-29",
        "updated": "2026-07-27",
        "sources_by_field": {
          "name": "osm",
          "hours": "google",
          "payment.cards": "google",
          "payment.contactless": "google",
          "payment.girocard": "google"
        },
        "apple_attempted": "2026-05-29",
        "google_attempted": "2026-05-29",
        "hours": {
          "raw": "Tu 07:30-18:15; Fr 07:30-18:15; We 07:30-18:15; Mo 07:30-18:15; Sa 08:00-17:00"
        },
        "payment": {
          "cards": "no",
          "contactless": "yes",
          "girocard": "yes"
        }
      }
    },
    {
      "type": "Feature",
      "geometry": {
        "type": "Point",
        "coordinates": [
          14.310855,
          46.6217263
        ]
      },
      "properties": {
        "id": "tk_at2r_osm_n540227701",
        "name": "Trafik Podobnig- Sportwetten",
        "address": {
          "street": "Bahnhofstraße",
          "number": "37",
          "city": "Klagenfurt am Wörthersee"
        },
        "sources": [
          {
            "type": "osm",
            "id": "node/540227701",
            "version": 0
          },
          {
            "type": "gmaps",
            "id": "ChIJgbWHM5l0cEcRubd_fs78L8c"
          }
        ],
        "created": "2026-05-29",
        "updated": "2026-07-27",
        "hours": {
          "raw": "Tu 06:00-18:00; Th 06:00-18:00; Fr 06:00-18:00; We 06:00-18:00; Mo 06:00-18:00; Sa 07:00-12:00"
        },
        "tags": [
          "barrierefrei"
        ],
        "sources_by_field": {
          "name": "osm",
          "address.street": "osm",
          "address.number": "osm",
          "address.city": "osm",
          "hours": "google",
          "payment.cards": "google",
          "payment.contactless": "google",
          "payment.girocard": "google"
        },
        "apple_id_attempted": "2026-07-31",
        "google_attempted": "2026-05-29",
        "payment": {
          "cards": "no",
          "contactless": "yes",
          "girocard": "yes"
        }
      }
    },
    {
      "type": "Feature",
      "geometry": {
        "type": "Point",
        "coordinates": [
          13.8256221,
          46.6297624
        ]
      },
      "properties": {
        "id": "tk_at2r_osm_n540754922",
        "name": "Trafik Auer",
        "address": {},
        "sources": [
          {
            "type": "osm",
            "id": "node/540754922",
            "version": 0
          },
          {
            "type": "gmaps",
            "id": "ChIJ64Z-I42BcEcRnT2s-0EtzqY"
          }
        ],
        "created": "2026-05-29",
        "updated": "2026-07-27",
        "tags": [
          "barrierefrei"
        ],
        "sources_by_field": {
          "name": "osm",
          "hours": "google",
          "payment.cards": "google",
          "payment.contactless": "google",
          "payment.girocard": "google"
        },
        "apple_id_attempted": "2026-07-31",
        "google_attempted": "2026-05-29",
        "hours": {
          "raw": "Tu 08:00-18:30; Th 08:00-18:30; Fr 08:00-19:00; We 08:00-18:30; Mo 08:00-18:30; Sa 08:00-17:00"
        },
        "payment": {
          "cards": "no",
          "contactless": "yes",
          "girocard": "yes"
        }
      }
    },
    {
      "type": "Feature",
      "geometry": {
        "type": "Point",
        "coordinates": [
          13.8479032,
          46.6160553
        ]
      },
      "properties": {
        "id": "tk_at2r_osm_n5552230954",
        "name": "Café Draurast",
        "address": {},
        "sources": [
          {
            "type": "osm",
            "id": "node/5552230954",
            "version": 0
          },
          {
            "type": "gmaps",
            "id": "ChIJjXymSsWBcEcRlOM-NBeGNDA"
          }
        ],
        "created": "2026-05-29",
        "updated": "2026-07-27",
        "tags": [
          "barrierefrei"
        ],
        "sources_by_field": {
          "name": "osm",
          "hours": "google"
        },
        "apple_id_attempted": "2026-07-31",
        "google_attempted": "2026-07-31",
        "hours": {
          "raw": "Tu 09:00-22:00; Th 09:00-22:00; Fr 09:00-22:00; We 09:00-22:00; Mo 09:00-22:00; Sa 09:00-22:00; Su 09:00-22:00"
        },
        "payment": {}
      }
    },
    {
      "type": "Feature",
      "geometry": {
        "type": "Point",
        "coordinates": [
          13.8579768,
          46.6088365
        ]
      },
      "properties": {
        "id": "tk_at2r_osm_n5834574742",
        "name": "Kiosk am Wasenboden",
        "address": {
          "street": "Wasenboden",
          "city": "Villach"
        },
        "sources": [
          {
            "type": "osm",
            "id": "node/5834574742",
            "version": 0
          },
          {
            "type": "apple",
            "id": "15851765311340927365"
          }
        ],
        "created": "2026-05-29",
        "updated": "2026-07-27",
        "sources_by_field": {
          "name": "osm",
          "address.street": "osm",
          "address.city": "osm",
          "hours": "apple"
        },
        "apple_attempted": "2026-07-31",
        "google_attempted": "2026-07-31",
        "hours": {
          "raw": "Sa-Su 12:00-18:00; Mo-Th 14:00-19:00; Fr 14:00-18:00"
        },
        "payment": {}
      }
    },
    {
      "type": "Feature",
      "geometry": {
        "type": "Point",
        "coordinates": [
          14.3527624,
          46.6088686
        ]
      },
      "properties": {
        "id": "tk_at2r_osm_n745807346",
        "name": "Tabak Trafik Koschat",
        "address": {},
        "sources": [
          {
            "type": "osm",
            "id": "node/745807346",
            "version": 0
          },
          {
            "type": "apple",
            "id": "3919084162716762836"
          }
        ],
        "created": "2026-05-29",
        "updated": "2026-07-27",
        "sources_by_field": {
          "name": "osm",
          "hours": "apple",
          "payment.cards": "apple",
          "payment.contactless": "apple"
        },
        "apple_attempted": "2026-05-29",
        "hours": {
          "raw": "Mo-Fr 06:00-18:00; Sa 06:30-12:30"
        },
        "payment": {
          "cards": "yes",
          "contactless": "yes"
        }
      }
    },
    {
      "type": "Feature",
      "geometry": {
        "type": "Point",
        "coordinates": [
          14.3052832,
          46.6237144
        ]
      },
      "properties": {
        "id": "tk_at2r_osm_n799295394",
        "name": "Trafik Pernhartgasse",
        "address": {
          "street": "Pernhartgasse",
          "number": "8",
          "city": "Klagenfurt am Wörthersee"
        },
        "sources": [
          {
            "type": "osm",
            "id": "node/799295394",
            "version": 0
          },
          {
            "type": "apple",
            "id": "3197611992338737340"
          }
        ],
        "created": "2026-05-29",
        "updated": "2026-07-27",
        "hours": {
          "raw": "Mo-Fr 06:30-18:00; Sa 07:30-12:30"
        },
        "sources_by_field": {
          "name": "osm",
          "address.street": "osm",
          "address.number": "osm",
          "address.city": "osm",
          "hours": "apple",
          "payment.cards": "apple",
          "payment.contactless": "apple"
        },
        "apple_attempted": "2026-05-29",
        "payment": {
          "cards": "yes",
          "contactless": "yes"
        }
      }
    },
    {
      "type": "Feature",
      "geometry": {
        "type": "Point",
        "coordinates": [
          14.3053484,
          46.62418
        ]
      },
      "properties": {
        "id": "tk_at2r_osm_n9823422546",
        "name": "Snack Brothers",
        "address": {},
        "sources": [
          {
            "type": "osm",
            "id": "node/9823422546",
            "version": 0
          },
          {
            "type": "gmaps",
            "id": "ChIJQ2QlOax1cEcRgjwhd_X_4BE"
          }
        ],
        "created": "2026-05-29",
        "updated": "2026-07-27",
        "hours": {
          "raw": "24/7"
        },
        "sources_by_field": {
          "name": "osm",
          "hours": "osm",
          "payment.cards": "google",
          "payment.contactless": "google",
          "payment.girocard": "google"
        },
        "apple_id_attempted": "2026-07-31",
        "google_attempted": "2026-06-28",
        "payment": {
          "cards": "yes",
          "contactless": "yes",
          "girocard": "yes"
        }
      }
    },
    {
      "type": "Feature",
      "geometry": {
        "type": "Point",
        "coordinates": [
          14.0357395,
          46.6135193
        ]
      },
      "properties": {
        "id": "tk_at2r_osm_w162716397",
        "name": "Eni",
        "address": {
          "street": "Villacher Straße",
          "number": "21",
          "city": "Velden"
        },
        "sources": [
          {
            "type": "osm",
            "id": "way/162716397",
            "version": 0
          },
          {
            "type": "gmaps",
            "id": "ChIJ7zBS3Np4cEcRa8YvVF2OQQY"
          }
        ],
        "created": "2026-05-29",
        "updated": "2026-07-27",
        "hours": {
          "raw": "Tu 06:00-22:00; Th 06:00-22:00; Fr 06:00-22:00; We 06:00-22:00; Mo 06:00-22:00; Sa 06:00-22:00; Su 06:00-22:00"
        },
        "tags": [
          "barrierefrei"
        ],
        "sources_by_field": {
          "name": "osm",
          "address.street": "osm",
          "address.number": "osm",
          "address.city": "osm",
          "hours": "google",
          "payment.cards": "google",
          "payment.contactless": "google",
          "payment.girocard": "google"
        },
        "apple_id_attempted": "2026-07-31",
        "google_attempted": "2026-05-29",
        "payment": {
          "cards": "no",
          "contactless": "yes",
          "girocard": "yes"
        }
      }
    },
    {
      "type": "Feature",
      "geometry": {
        "type": "Point",
        "coordinates": [
          13.461215,
          46.9880174
        ]
      },
      "properties": {
        "id": "tk_at2r_osm_w193349988",
        "name": "Fell- und Mineralienstube",
        "address": {
          "street": "Brandstatt",
          "number": "39",
          "city": "Malta"
        },
        "sources": [
          {
            "type": "osm",
            "id": "way/193349988",
            "version": 0
          },
          {
            "type": "apple",
            "id": "9618661636058904160"
          }
        ],
        "created": "2026-05-29",
        "updated": "2026-07-27",
        "sources_by_field": {
          "name": "osm",
          "address.street": "osm",
          "address.number": "osm",
          "address.city": "osm",
          "hours": "apple",
          "payment.cards": "apple",
          "payment.contactless": "apple"
        },
        "apple_attempted": "2026-05-29",
        "hours": {
          "raw": "Mo-Su 09:00-18:00"
        },
        "payment": {
          "cards": "yes",
          "contactless": "yes"
        }
      }
    },
    {
      "type": "Feature",
      "geometry": {
        "type": "Point",
        "coordinates": [
          13.2942242,
          46.7146945
        ]
      },
      "properties": {
        "id": "tk_at2r_osm_w226740266",
        "name": "Monis Eck",
        "address": {},
        "sources": [
          {
            "type": "osm",
            "id": "way/226740266",
            "version": 0
          },
          {
            "type": "apple",
            "id": "14765190513170651387"
          }
        ],
        "created": "2026-05-29",
        "updated": "2026-07-27",
        "hours": {
          "raw": "Sa-Th 09:00-17:00; PH,Fr off"
        },
        "payment": {
          "cash": "unknown",
          "cards": "no",
          "contactless": "unknown",
          "girocard": "unknown"
        },
        "tags": [
          "draussen"
        ],
        "sources_by_field": {
          "name": "osm",
          "hours": "osm",
          "payment.cash": "osm",
          "payment.cards": "osm",
          "payment.contactless": "osm",
          "payment.girocard": "osm"
        }
      }
    },
    {
      "type": "Feature",
      "geometry": {
        "type": "Point",
        "coordinates": [
          12.9680045,
          46.7151341
        ]
      },
      "properties": {
        "id": "tk_at2r_osm_n10040347004",
        "name": "Caravan & Reisemobil Park",
        "address": {
          "street": "Gailberg",
          "number": "2",
          "city": "Kötschach-Mauthen"
        },
        "sources": [
          {
            "type": "osm",
            "id": "node/10040347004",
            "version": 0
          }
        ],
        "created": "2026-05-29",
        "updated": "2026-07-27",
        "sources_by_field": {
          "name": "osm",
          "address.street": "osm",
          "address.number": "osm",
          "address.city": "osm"
        },
        "apple_id_attempted": "2026-07-31",
        "google_attempted": "2026-07-31",
        "payment": {}
      }
    },
    {
      "type": "Feature",
      "geometry": {
        "type": "Point",
        "coordinates": [
          14.3198284,
          46.6149334
        ]
      },
      "properties": {
        "id": "tk_at2r_osm_n11809783955",
        "name": "Slowenische Spezialitäten",
        "address": {},
        "sources": [
          {
            "type": "osm",
            "id": "node/11809783955",
            "version": 0
          }
        ],
        "created": "2026-05-29",
        "updated": "2026-07-27",
        "sources_by_field": {
          "name": "osm"
        },
        "apple_id_attempted": "2026-07-31",
        "google_attempted": "2026-07-31",
        "payment": {}
      }
    },
    {
      "type": "Feature",
      "geometry": {
        "type": "Point",
        "coordinates": [
          13.1217757,
          46.7343159
        ]
      },
      "properties": {
        "id": "tk_at2r_osm_n13072383201",
        "name": "Sandhof",
        "address": {},
        "sources": [
          {
            "type": "osm",
            "id": "node/13072383201",
            "version": 0
          }
        ],
        "created": "2026-05-29",
        "updated": "2026-07-27",
        "sources_by_field": {
          "name": "osm"
        },
        "apple_id_attempted": "2026-07-31",
        "google_attempted": "2026-07-31",
        "payment": {}
      }
    },
    {
      "type": "Feature",
      "geometry": {
        "type": "Point",
        "coordinates": [
          14.3323045,
          46.6171929
        ]
      },
      "properties": {
        "id": "tk_at2r_osm_n13164577381",
        "name": "Willi's Getränkedienst",
        "address": {},
        "sources": [
          {
            "type": "osm",
            "id": "node/13164577381",
            "version": 0
          }
        ],
        "created": "2026-05-29",
        "updated": "2026-07-27",
        "hours": {
          "raw": "\"Nach Vereinbarung\""
        },
        "sources_by_field": {
          "name": "osm",
          "hours": "osm"
        },
        "apple_id_attempted": "2026-07-31",
        "google_attempted": "2026-07-31",
        "payment": {}
      }
    },
    {
      "type": "Feature",
      "geometry": {
        "type": "Point",
        "coordinates": [
          14.3121552,
          46.6182958
        ]
      },
      "properties": {
        "id": "tk_at2r_osm_n1417309738",
        "name": "Tabak- Kolbitsch Marie- Luise",
        "address": {
          "street": "Bahnhofstraße",
          "number": "40",
          "city": "Klagenfurt am Wörthersee"
        },
        "sources": [
          {
            "type": "osm",
            "id": "node/1417309738",
            "version": 0
          }
        ],
        "created": "2026-05-29",
        "updated": "2026-07-27",
        "tags": [
          "barrierefrei"
        ],
        "sources_by_field": {
          "name": "osm",
          "address.street": "osm",
          "address.number": "osm",
          "address.city": "osm"
        },
        "apple_id_attempted": "2026-07-31",
        "google_attempted": "2026-07-31",
        "payment": {}
      }
    },
    {
      "type": "Feature",
      "geometry": {
        "type": "Point",
        "coordinates": [
          14.3322724,
          46.637571
        ]
      },
      "properties": {
        "id": "tk_at2r_osm_n1444272266",
        "name": "E&K",
        "address": {
          "street": "Pischeldorfer Straße",
          "number": "142",
          "city": "Klagenfurt am Wörthersee"
        },
        "sources": [
          {
            "type": "osm",
            "id": "node/1444272266",
            "version": 0
          }
        ],
        "created": "2026-05-29",
        "updated": "2026-07-27",
        "tags": [
          "barrierefrei"
        ],
        "sources_by_field": {
          "name": "osm",
          "address.street": "osm",
          "address.number": "osm",
          "address.city": "osm"
        },
        "apple_id_attempted": "2026-07-31",
        "google_attempted": "2026-07-31",
        "payment": {}
      }
    },
    {
      "type": "Feature",
      "geometry": {
        "type": "Point",
        "coordinates": [
          14.3436658,
          46.6128535
        ]
      },
      "properties": {
        "id": "tk_at2r_osm_n1444962219",
        "name": "Wouk Alfred Tabakgeschäft",
        "address": {
          "street": "Ebentaler Straße",
          "number": "184",
          "city": "Klagenfurt am Wörthersee"
        },
        "sources": [
          {
            "type": "osm",
            "id": "node/1444962219",
            "version": 0
          }
        ],
        "created": "2026-05-29",
        "updated": "2026-07-27",
        "sources_by_field": {
          "name": "osm",
          "address.street": "osm",
          "address.number": "osm",
          "address.city": "osm"
        },
        "apple_id_attempted": "2026-07-31",
        "google_attempted": "2026-07-31",
        "payment": {}
      }
    },
    {
      "type": "Feature",
      "geometry": {
        "type": "Point",
        "coordinates": [
          14.3158351,
          46.6291577
        ]
      },
      "properties": {
        "id": "tk_at2r_osm_n1445235875",
        "name": "Trafik",
        "address": {
          "street": "Pischeldorfer Straße",
          "number": "28",
          "city": "Klagenfurt am Wörthersee"
        },
        "sources": [
          {
            "type": "osm",
            "id": "node/1445235875",
            "version": 0
          }
        ],
        "created": "2026-05-29",
        "updated": "2026-07-27",
        "tags": [
          "barrierefrei"
        ],
        "sources_by_field": {
          "name": "osm",
          "address.street": "osm",
          "address.number": "osm",
          "address.city": "osm"
        },
        "apple_id_attempted": "2026-07-31",
        "google_attempted": "2026-07-31",
        "payment": {}
      }
    },
    {
      "type": "Feature",
      "geometry": {
        "type": "Point",
        "coordinates": [
          14.3068059,
          46.6315941
        ]
      },
      "properties": {
        "id": "tk_at2r_osm_n1445836966",
        "name": "Piccolino",
        "address": {},
        "sources": [
          {
            "type": "osm",
            "id": "node/1445836966",
            "version": 0
          }
        ],
        "created": "2026-05-29",
        "updated": "2026-07-27",
        "sources_by_field": {
          "name": "osm"
        },
        "apple_id_attempted": "2026-07-31",
        "google_attempted": "2026-07-31",
        "payment": {}
      }
    },
    {
      "type": "Feature",
      "geometry": {
        "type": "Point",
        "coordinates": [
          14.0522479,
          46.5490151
        ]
      },
      "properties": {
        "id": "tk_at2r_osm_n1691886550",
        "name": "Trafik",
        "address": {
          "street": "Hauptplatz",
          "number": "161",
          "city": "St. Jakob im Rosental"
        },
        "sources": [
          {
            "type": "osm",
            "id": "node/1691886550",
            "version": 0
          }
        ],
        "created": "2026-05-29",
        "updated": "2026-07-27",
        "sources_by_field": {
          "name": "osm",
          "address.street": "osm",
          "address.number": "osm",
          "address.city": "osm"
        },
        "apple_id_attempted": "2026-07-31",
        "google_attempted": "2026-07-31",
        "payment": {}
      }
    },
    {
      "type": "Feature",
      "geometry": {
        "type": "Point",
        "coordinates": [
          13.5330244,
          46.9057794
        ]
      },
      "properties": {
        "id": "tk_at2r_osm_n2454145839",
        "name": "Tabaktrafik Krämmer",
        "address": {},
        "sources": [
          {
            "type": "osm",
            "id": "node/2454145839",
            "version": 0
          }
        ],
        "created": "2026-05-29",
        "updated": "2026-07-27",
        "sources_by_field": {
          "name": "osm"
        },
        "apple_id_attempted": "2026-07-31",
        "google_attempted": "2026-07-31",
        "payment": {}
      }
    },
    {
      "type": "Feature",
      "geometry": {
        "type": "Point",
        "coordinates": [
          13.4908709,
          46.797899
        ]
      },
      "properties": {
        "id": "tk_at2r_osm_n3378430799",
        "name": "Kreiner",
        "address": {},
        "sources": [
          {
            "type": "osm",
            "id": "node/3378430799",
            "version": 0
          }
        ],
        "created": "2026-05-29",
        "updated": "2026-07-27",
        "sources_by_field": {
          "name": "osm"
        },
        "apple_id_attempted": "2026-07-31",
        "google_attempted": "2026-07-31",
        "payment": {}
      }
    },
    {
      "type": "Feature",
      "geometry": {
        "type": "Point",
        "coordinates": [
          13.2915483,
          46.7178012
        ]
      },
      "properties": {
        "id": "tk_at2r_osm_n3937266510",
        "name": "Tabak Trafik",
        "address": {},
        "sources": [
          {
            "type": "osm",
            "id": "node/3937266510",
            "version": 0
          }
        ],
        "created": "2026-05-29",
        "updated": "2026-07-27",
        "sources_by_field": {
          "name": "osm"
        },
        "apple_id_attempted": "2026-07-31",
        "google_attempted": "2026-07-31",
        "payment": {}
      }
    },
    {
      "type": "Feature",
      "geometry": {
        "type": "Point",
        "coordinates": [
          13.8321418,
          46.6166527
        ]
      },
      "properties": {
        "id": "tk_at2r_osm_n444748321",
        "name": "Trafik",
        "address": {},
        "sources": [
          {
            "type": "osm",
            "id": "node/444748321",
            "version": 0
          }
        ],
        "created": "2026-05-29",
        "updated": "2026-07-27",
        "sources_by_field": {
          "name": "osm"
        },
        "apple_id_attempted": "2026-07-31",
        "google_attempted": "2026-07-31",
        "payment": {}
      }
    },
    {
      "type": "Feature",
      "geometry": {
        "type": "Point",
        "coordinates": [
          12.9979871,
          46.6661647
        ]
      },
      "properties": {
        "id": "tk_at2r_osm_n5136310425",
        "name": "Trafik Singer",
        "address": {},
        "sources": [
          {
            "type": "osm",
            "id": "node/5136310425",
            "version": 0
          }
        ],
        "created": "2026-05-29",
        "updated": "2026-07-27",
        "sources_by_field": {
          "name": "osm"
        },
        "apple_id_attempted": "2026-07-31",
        "google_attempted": "2026-07-31",
        "payment": {}
      }
    },
    {
      "type": "Feature",
      "geometry": {
        "type": "Point",
        "coordinates": [
          14.0987958,
          46.6020344
        ]
      },
      "properties": {
        "id": "tk_at2r_osm_n539581367",
        "name": "Tarfik Jäger",
        "address": {},
        "sources": [
          {
            "type": "osm",
            "id": "node/539581367",
            "version": 0
          }
        ],
        "created": "2026-05-29",
        "updated": "2026-07-27",
        "sources_by_field": {
          "name": "osm"
        },
        "apple_id_attempted": "2026-07-31",
        "google_attempted": "2026-07-31",
        "payment": {}
      }
    },
    {
      "type": "Feature",
      "geometry": {
        "type": "Point",
        "coordinates": [
          13.844398,
          46.6049457
        ]
      },
      "properties": {
        "id": "tk_at2r_osm_n5431297214",
        "name": "Tabak Trafik",
        "address": {
          "street": "Ossiacher Zeile",
          "number": "13",
          "city": "Villach"
        },
        "sources": [
          {
            "type": "osm",
            "id": "node/5431297214",
            "version": 0
          }
        ],
        "created": "2026-05-29",
        "updated": "2026-07-27",
        "sources_by_field": {
          "name": "osm",
          "address.street": "osm",
          "address.number": "osm",
          "address.city": "osm"
        },
        "apple_id_attempted": "2026-07-31",
        "google_attempted": "2026-07-31",
        "payment": {}
      }
    },
    {
      "type": "Feature",
      "geometry": {
        "type": "Point",
        "coordinates": [
          13.645847,
          46.7707005
        ]
      },
      "properties": {
        "id": "tk_at2r_osm_n6605850918",
        "name": "Tabak Trafik",
        "address": {},
        "sources": [
          {
            "type": "osm",
            "id": "node/6605850918",
            "version": 0
          }
        ],
        "created": "2026-05-29",
        "updated": "2026-07-27",
        "hours": {
          "raw": "Mo-Fr 08:00-12:00,15:00-18:00; Sa 08:00-12:00"
        },
        "sources_by_field": {
          "name": "osm",
          "hours": "osm"
        },
        "apple_id_attempted": "2026-07-31",
        "google_attempted": "2026-07-31",
        "payment": {}
      }
    },
    {
      "type": "Feature",
      "geometry": {
        "type": "Point",
        "coordinates": [
          13.1906418,
          46.7382835
        ]
      },
      "properties": {
        "id": "tk_at2r_osm_n6684429899",
        "name": "Shop-013 Bier",
        "address": {},
        "sources": [
          {
            "type": "osm",
            "id": "node/6684429899",
            "version": 0
          }
        ],
        "created": "2026-05-29",
        "updated": "2026-07-27",
        "sources_by_field": {
          "name": "osm"
        },
        "apple_id_attempted": "2026-07-31",
        "google_attempted": "2026-07-31",
        "payment": {}
      }
    },
    {
      "type": "Feature",
      "geometry": {
        "type": "Point",
        "coordinates": [
          13.7039754,
          46.8006796
        ]
      },
      "properties": {
        "id": "tk_at2r_osm_n742554896",
        "name": "Tabak Trafik Unterweger Petra",
        "address": {
          "street": "Hauptstraße",
          "number": "37",
          "city": "Radenthein"
        },
        "sources": [
          {
            "type": "osm",
            "id": "node/742554896",
            "version": 0
          }
        ],
        "created": "2026-05-29",
        "updated": "2026-07-27",
        "sources_by_field": {
          "name": "osm",
          "address.street": "osm",
          "address.number": "osm",
          "address.city": "osm"
        },
        "apple_id_attempted": "2026-07-31",
        "google_attempted": "2026-07-31",
        "payment": {}
      }
    },
    {
      "type": "Feature",
      "geometry": {
        "type": "Point",
        "coordinates": [
          13.6979919,
          46.7984302
        ]
      },
      "properties": {
        "id": "tk_at2r_osm_n762319582",
        "name": "Trafik",
        "address": {},
        "sources": [
          {
            "type": "osm",
            "id": "node/762319582",
            "version": 0
          }
        ],
        "created": "2026-05-29",
        "updated": "2026-07-27",
        "hours": {
          "raw": "Mo-Fr 08:00-18:00; Sa 08:00-12:30"
        },
        "tags": [
          "barrierefrei"
        ],
        "sources_by_field": {
          "name": "osm",
          "hours": "osm"
        },
        "apple_id_attempted": "2026-07-31",
        "google_attempted": "2026-07-31",
        "payment": {}
      }
    },
    {
      "type": "Feature",
      "geometry": {
        "type": "Point",
        "coordinates": [
          13.8853226,
          46.6324674
        ]
      },
      "properties": {
        "id": "tk_at2r_osm_w112678117",
        "name": "Traffik",
        "address": {
          "street": "Burgstraße",
          "number": "1",
          "city": "Villach"
        },
        "sources": [
          {
            "type": "osm",
            "id": "way/112678117",
            "version": 0
          }
        ],
        "created": "2026-05-29",
        "updated": "2026-07-27",
        "sources_by_field": {
          "name": "osm",
          "address.street": "osm",
          "address.number": "osm",
          "address.city": "osm"
        },
        "apple_id_attempted": "2026-07-31",
        "google_attempted": "2026-07-31",
        "payment": {}
      }
    },
    {
      "type": "Feature",
      "geometry": {
        "type": "Point",
        "coordinates": [
          14.3141567,
          46.6505723
        ]
      },
      "properties": {
        "id": "tk_at2r_osm_w116398970",
        "name": "Traffik",
        "address": {
          "street": "St. Veiter Straße",
          "number": "238",
          "city": "Klagenfurt am Wörthersee"
        },
        "sources": [
          {
            "type": "osm",
            "id": "way/116398970",
            "version": 0
          }
        ],
        "created": "2026-05-29",
        "updated": "2026-07-27",
        "hours": {
          "raw": "Mo-Fr 06:00-12:00,14:30-18:00; Sa 07:00-12:00,14:30-18:00; PH,Su 08:00-13:00"
        },
        "tags": [
          "barrierefrei"
        ],
        "sources_by_field": {
          "name": "osm",
          "address.street": "osm",
          "address.number": "osm",
          "address.city": "osm",
          "hours": "osm"
        },
        "apple_id_attempted": "2026-07-31",
        "google_attempted": "2026-07-31",
        "payment": {}
      }
    },
    {
      "type": "Feature",
      "geometry": {
        "type": "Point",
        "coordinates": [
          13.273608,
          46.7205317
        ]
      },
      "properties": {
        "id": "tk_at2r_osm_w170796267",
        "name": "Bei Edi",
        "address": {},
        "sources": [
          {
            "type": "osm",
            "id": "way/170796267",
            "version": 0
          }
        ],
        "created": "2026-05-29",
        "updated": "2026-07-27",
        "hours": {
          "raw": "Mo-Fr 11:00-17:00"
        },
        "sources_by_field": {
          "name": "osm",
          "hours": "osm"
        },
        "apple_id_attempted": "2026-07-31",
        "google_attempted": "2026-07-31",
        "payment": {}
      }
    },
    {
      "type": "Feature",
      "geometry": {
        "type": "Point",
        "coordinates": [
          14.098603,
          46.738348
        ]
      },
      "properties": {
        "id": "tk_at2r_osm_w180727832",
        "name": "Zaminer",
        "address": {
          "street": "Haiden-Ort",
          "number": "12"
        },
        "sources": [
          {
            "type": "osm",
            "id": "way/180727832",
            "version": 0
          }
        ],
        "created": "2026-05-29",
        "updated": "2026-07-27",
        "sources_by_field": {
          "name": "osm",
          "address.street": "osm",
          "address.number": "osm"
        },
        "apple_id_attempted": "2026-07-31",
        "google_attempted": "2026-07-31",
        "payment": {}
      }
    },
    {
      "type": "Feature",
      "geometry": {
        "type": "Point",
        "coordinates": [
          13.8332806,
          46.6045689
        ]
      },
      "properties": {
        "id": "tk_at2r_osm_w565499840",
        "name": "Tabak Trafik",
        "address": {
          "city": "Villach"
        },
        "sources": [
          {
            "type": "osm",
            "id": "way/565499840",
            "version": 0
          }
        ],
        "created": "2026-05-29",
        "updated": "2026-07-27",
        "sources_by_field": {
          "name": "osm",
          "address.city": "osm"
        },
        "apple_id_attempted": "2026-07-31",
        "google_attempted": "2026-07-31",
        "payment": {}
      }
    },
    {
      "type": "Feature",
      "geometry": {
        "type": "Point",
        "coordinates": [
          14.5863028,
          46.6078185
        ]
      },
      "properties": {
        "id": "tk_at2r_osm_w585517080",
        "name": "Seebad",
        "address": {
          "street": "Am See X",
          "number": "7",
          "city": "St. Kanzian am Klopeiner See"
        },
        "sources": [
          {
            "type": "osm",
            "id": "way/585517080",
            "version": 0
          }
        ],
        "created": "2026-05-29",
        "updated": "2026-07-27",
        "sources_by_field": {
          "name": "osm",
          "address.street": "osm",
          "address.number": "osm",
          "address.city": "osm"
        },
        "apple_id_attempted": "2026-07-31",
        "google_attempted": "2026-07-31",
        "payment": {}
      }
    }
  ]
}
