{
  "type": "FeatureCollection",
  "features": [
    {
      "type": "Feature",
      "geometry": {
        "type": "Point",
        "coordinates": [
          11.0157007,
          50.9829654
        ]
      },
      "properties": {
        "id": "tk_ef_osm_n11329516232",
        "name": "GetränkeWelt",
        "address": {
          "street": "Blumenstraße",
          "number": "11",
          "postalcode": "99092",
          "city": "Erfurt"
        },
        "sources": [
          {
            "type": "osm",
            "id": "node/11329516232",
            "version": 0
          },
          {
            "type": "gmaps",
            "id": "ChIJfSd2oo9ypEcRZ7ldYbHplic"
          }
        ],
        "created": "2026-05-20",
        "updated": "2026-06-21",
        "hours": {
          "raw": "Tu 09:00-21:00; Th 09:00-21:00; Fr 09:00-21:00; We 09:00-21:00; Mo 09:00-21:00; Sa 09:00-13:00,15:00-21:00; Su 08:00-11:00,15:00-21:00"
        },
        "sources_by_field": {
          "name": "osm",
          "address.street": "osm",
          "address.number": "osm",
          "address.postalcode": "osm",
          "address.city": "osm",
          "hours": "google"
        },
        "apple_id_attempted": "2026-06-21",
        "google_attempted": "2026-06-21",
        "payment": {}
      }
    },
    {
      "type": "Feature",
      "geometry": {
        "type": "Point",
        "coordinates": [
          11.3254031,
          50.9794422
        ]
      },
      "properties": {
        "id": "tk_ef_osm_n12064928372",
        "name": "Automatenkiosk",
        "address": {
          "street": "Dingelstedtstraße",
          "number": "1b",
          "postalcode": "99423",
          "city": "Weimar",
          "district": "Altstadt"
        },
        "sources": [
          {
            "type": "osm",
            "id": "node/12064928372",
            "version": 0
          },
          {
            "type": "gmaps",
            "id": "ChIJMW1W8hQbpEcRmrS8hIo344A"
          }
        ],
        "created": "2026-05-20",
        "updated": "2026-07-20",
        "hours": {
          "raw": "Mo-Su,PH 00:00-24:00"
        },
        "sources_by_field": {
          "name": "osm",
          "hours": "osm"
        },
        "apple_id_attempted": "2026-06-21",
        "google_attempted": "2026-06-21",
        "payment": {}
      }
    },
    {
      "type": "Feature",
      "geometry": {
        "type": "Point",
        "coordinates": [
          10.9864947,
          51.0174688
        ]
      },
      "properties": {
        "id": "tk_ef_osm_n12269427082",
        "name": "Durstlöscher",
        "address": {
          "street": "Sondershäuser Straße",
          "number": "42"
        },
        "sources": [
          {
            "type": "osm",
            "id": "node/12269427082",
            "version": 0
          },
          {
            "type": "gmaps",
            "id": "payment"
          }
        ],
        "created": "2026-05-20",
        "updated": "2026-07-20",
        "sources_by_field": {
          "name": "osm",
          "address.street": "osm",
          "address.number": "osm"
        },
        "apple_id_attempted": "2026-06-21",
        "google_attempted": "2026-06-21",
        "payment": {
          "cards": "yes",
          "contactless": "yes",
          "girocard": "yes"
        }
      }
    },
    {
      "type": "Feature",
      "geometry": {
        "type": "Point",
        "coordinates": [
          11.0430837,
          50.9831541
        ]
      },
      "properties": {
        "id": "tk_ef_osm_n12782118777",
        "name": "Durst?Löscher!Getränkeshop",
        "address": {
          "street": "Leipziger Straße",
          "number": "27",
          "postalcode": "99085",
          "city": "Erfurt"
        },
        "sources": [
          {
            "type": "osm",
            "id": "node/12782118777",
            "version": 0
          },
          {
            "type": "gmaps",
            "id": "payment"
          }
        ],
        "created": "2026-05-20",
        "updated": "2026-07-20",
        "hours": {
          "raw": "Mo-Sa 14:00-22:00; Su 14:00-20:00"
        },
        "sources_by_field": {
          "name": "osm",
          "address.street": "osm",
          "address.number": "osm",
          "address.postalcode": "osm",
          "address.city": "osm",
          "hours": "osm"
        },
        "apple_id_attempted": "2026-06-21",
        "payment": {
          "cards": "yes",
          "contactless": "yes",
          "girocard": "yes"
        }
      }
    },
    {
      "type": "Feature",
      "geometry": {
        "type": "Point",
        "coordinates": [
          11.0145639,
          51.005241
        ]
      },
      "properties": {
        "id": "tk_ef_osm_n13475022073",
        "name": "Tabakshop Berlin",
        "address": {
          "street": "Mainzer Straße",
          "number": "36-37",
          "postalcode": "99089",
          "city": "Erfurt",
          "district": "Rieth"
        },
        "sources": [
          {
            "type": "osm",
            "id": "node/13475022073",
            "version": 0
          },
          {
            "type": "gmaps",
            "id": "payment"
          }
        ],
        "created": "2026-05-20",
        "updated": "2026-07-20",
        "hours": {
          "raw": "Mo-Fr 08:00-18:00; Sa 08:00-13:00; Su off"
        },
        "sources_by_field": {
          "name": "osm",
          "hours": "osm"
        },
        "apple_id_attempted": "2026-06-21",
        "payment": {
          "cards": "no",
          "contactless": "yes",
          "girocard": "yes"
        }
      }
    },
    {
      "type": "Feature",
      "geometry": {
        "type": "Point",
        "coordinates": [
          11.3433655,
          50.8551223
        ]
      },
      "properties": {
        "id": "tk_ef_osm_n1455901224",
        "name": "Sagasser",
        "address": {
          "street": "Rudolstädter Straße",
          "number": "31a",
          "postalcode": "99444",
          "city": "Blankenhain"
        },
        "sources": [
          {
            "type": "osm",
            "id": "node/1455901224",
            "version": 0
          },
          {
            "type": "gmaps",
            "id": "ChIJ2-XIEpMHpEcRV3RJm5L7BwI"
          }
        ],
        "created": "2026-05-20",
        "updated": "2026-06-21",
        "sources_by_field": {
          "name": "osm",
          "address.street": "osm",
          "address.number": "osm",
          "address.postalcode": "osm",
          "address.city": "osm",
          "payment.cards": "google",
          "hours": "google"
        },
        "apple_id_attempted": "2026-06-21",
        "google_attempted": "2026-06-21",
        "payment": {
          "cards": "yes",
          "contactless": "yes",
          "girocard": "yes"
        },
        "hours": {
          "raw": "Tu 08:00-19:00; Th 08:00-19:00; Fr 08:00-19:00; We 08:00-19:00; Mo 08:00-19:00; Sa 08:00-18:00"
        }
      }
    },
    {
      "type": "Feature",
      "geometry": {
        "type": "Point",
        "coordinates": [
          11.0228169,
          50.9708684
        ]
      },
      "properties": {
        "id": "tk_ef_osm_n1513962645",
        "name": "YouBottle",
        "address": {
          "street": "Dalbergsweg",
          "number": "11",
          "postalcode": "99084",
          "city": "Erfurt"
        },
        "sources": [
          {
            "type": "osm",
            "id": "node/1513962645",
            "version": 0
          },
          {
            "type": "apple",
            "id": "8805934042144953057"
          }
        ],
        "created": "2026-05-20",
        "updated": "2026-07-20",
        "hours": {
          "raw": "24/7"
        },
        "payment": {
          "cash": "unknown",
          "cards": "no",
          "contactless": "unknown",
          "girocard": "unknown"
        },
        "sources_by_field": {
          "name": "osm",
          "address.street": "osm",
          "address.number": "osm",
          "address.postalcode": "osm",
          "address.city": "osm",
          "hours": "osm",
          "payment.cash": "osm",
          "payment.cards": "osm",
          "payment.contactless": "osm",
          "payment.girocard": "osm"
        }
      }
    },
    {
      "type": "Feature",
      "geometry": {
        "type": "Point",
        "coordinates": [
          11.0380043,
          50.9739304
        ]
      },
      "properties": {
        "id": "tk_ef_osm_n1926735101",
        "name": "Nicols Eck",
        "address": {
          "street": "Willy-Brandt-Platz",
          "postalcode": "99084",
          "city": "Erfurt",
          "district": "Altstadt"
        },
        "sources": [
          {
            "type": "osm",
            "id": "node/1926735101",
            "version": 0
          },
          {
            "type": "gmaps",
            "id": "payment"
          },
          {
            "type": "apple",
            "id": "10536584324913607712"
          }
        ],
        "created": "2026-05-20",
        "updated": "2026-07-20",
        "hours": {
          "raw": "Mo-Fr 09:00-16:00; Sa 11:00-13:00; PH,Su off"
        },
        "tags": [
          "barrierefrei"
        ],
        "sources_by_field": {
          "name": "osm",
          "hours": "osm"
        },
        "payment": {
          "cards": "no",
          "contactless": "yes",
          "girocard": "yes"
        }
      }
    },
    {
      "type": "Feature",
      "geometry": {
        "type": "Point",
        "coordinates": [
          11.0376367,
          50.9742145
        ]
      },
      "properties": {
        "id": "tk_ef_osm_n2004757364",
        "name": "Echo´s Market",
        "address": {
          "street": "Schmidtstedter Straße",
          "number": "12",
          "postalcode": "99084",
          "city": "Erfurt",
          "district": "Altstadt"
        },
        "sources": [
          {
            "type": "osm",
            "id": "node/2004757364",
            "version": 0
          },
          {
            "type": "gmaps",
            "id": "payment"
          }
        ],
        "created": "2026-05-20",
        "updated": "2026-07-20",
        "hours": {
          "raw": "Mo-Th 09:00-01:00, Su 09:00-01:00, Sa 09:00-03:00"
        },
        "tags": [
          "barrierefrei"
        ],
        "sources_by_field": {
          "name": "osm",
          "hours": "osm"
        },
        "apple_id_attempted": "2026-06-21",
        "payment": {
          "cards": "no",
          "contactless": "yes",
          "girocard": "yes"
        }
      }
    },
    {
      "type": "Feature",
      "geometry": {
        "type": "Point",
        "coordinates": [
          11.0334159,
          51.0035324
        ]
      },
      "properties": {
        "id": "tk_ef_osm_n2046255790",
        "name": "U.F.O. Getränkeshop",
        "address": {
          "street": "Sulzestraße",
          "number": "4",
          "postalcode": "99086",
          "city": "Erfurt"
        },
        "sources": [
          {
            "type": "osm",
            "id": "node/2046255790",
            "version": 0
          },
          {
            "type": "gmaps",
            "id": "payment"
          }
        ],
        "created": "2026-05-20",
        "updated": "2026-07-20",
        "hours": {
          "raw": "Mo-Th 08:00-20:00; Fr 08:00-21:00; Sa 10:00-21:00; Su 10:00-20:00"
        },
        "sources_by_field": {
          "name": "osm",
          "address.street": "osm",
          "address.number": "osm",
          "address.postalcode": "osm",
          "address.city": "osm",
          "hours": "osm"
        },
        "apple_id_attempted": "2026-06-21",
        "payment": {
          "cards": "yes",
          "contactless": "yes",
          "girocard": "yes"
        }
      }
    },
    {
      "type": "Feature",
      "geometry": {
        "type": "Point",
        "coordinates": [
          11.5887601,
          50.928834
        ]
      },
      "properties": {
        "id": "tk_ef_osm_n2097251795",
        "name": "City Kiosk Jena",
        "address": {
          "street": "Saalstraße",
          "number": "3",
          "postalcode": "07743",
          "city": "Jena"
        },
        "sources": [
          {
            "type": "osm",
            "id": "node/2097251795",
            "version": 0
          },
          {
            "type": "apple",
            "id": "14931540582462926649"
          }
        ],
        "created": "2026-05-20",
        "updated": "2026-07-20",
        "hours": {
          "raw": "Mo-Fr 07:00-23:00, Sa 09:00-20:00"
        },
        "payment": {
          "cash": "yes",
          "cards": "yes",
          "contactless": "unknown",
          "girocard": "unknown"
        },
        "sources_by_field": {
          "name": "osm",
          "address.street": "osm",
          "address.number": "osm",
          "address.postalcode": "osm",
          "address.city": "osm",
          "hours": "osm",
          "payment.cash": "osm",
          "payment.cards": "osm",
          "payment.contactless": "osm",
          "payment.girocard": "osm"
        }
      }
    },
    {
      "type": "Feature",
      "geometry": {
        "type": "Point",
        "coordinates": [
          11.0333968,
          50.9881112
        ]
      },
      "properties": {
        "id": "tk_ef_osm_n2123639472",
        "name": "Müller's Getränke und mehr...",
        "address": {
          "street": "Bebelstraße",
          "number": "55",
          "postalcode": "99086",
          "city": "Erfurt"
        },
        "sources": [
          {
            "type": "osm",
            "id": "node/2123639472",
            "version": 0
          },
          {
            "type": "gmaps",
            "id": "payment"
          }
        ],
        "created": "2026-05-20",
        "updated": "2026-07-20",
        "hours": {
          "raw": "Mo-We,Fr 09:00-21:00; Th 13:00-21:00; Sa,Su 10:00-20:00; PH 10:00-18:00"
        },
        "sources_by_field": {
          "name": "osm",
          "address.street": "osm",
          "address.number": "osm",
          "address.postalcode": "osm",
          "address.city": "osm",
          "hours": "osm"
        },
        "apple_id_attempted": "2026-06-21",
        "payment": {
          "cards": "yes",
          "contactless": "yes",
          "girocard": "yes"
        }
      }
    },
    {
      "type": "Feature",
      "geometry": {
        "type": "Point",
        "coordinates": [
          11.0221443,
          51.0040129
        ]
      },
      "properties": {
        "id": "tk_ef_osm_n2391113431",
        "name": "Sagasser",
        "address": {
          "street": "Mittelhäuser Straße",
          "number": "87",
          "postalcode": "99089",
          "city": "Erfurt"
        },
        "sources": [
          {
            "type": "osm",
            "id": "node/2391113431",
            "version": 0
          },
          {
            "type": "gmaps",
            "id": "payment"
          }
        ],
        "created": "2026-05-20",
        "updated": "2026-06-15",
        "hours": {
          "raw": "Mo-Fr 09:00-20:00; Sa 08:00-14:00; Su off"
        },
        "tags": [
          "barrierefrei"
        ],
        "sources_by_field": {
          "name": "osm",
          "address.street": "osm",
          "address.number": "osm",
          "address.postalcode": "osm",
          "address.city": "osm",
          "hours": "osm"
        },
        "apple_id_attempted": "2026-06-21",
        "payment": {
          "cards": "yes",
          "contactless": "yes",
          "girocard": "yes"
        }
      }
    },
    {
      "type": "Feature",
      "geometry": {
        "type": "Point",
        "coordinates": [
          11.0407315,
          50.9812641
        ]
      },
      "properties": {
        "id": "tk_ef_osm_n2483517401",
        "name": "Maiks Laden",
        "address": {
          "street": "Leipziger Platz",
          "number": "3",
          "postalcode": "99085",
          "city": "Erfurt"
        },
        "sources": [
          {
            "type": "osm",
            "id": "node/2483517401",
            "version": 0
          },
          {
            "type": "gmaps",
            "id": "payment"
          },
          {
            "type": "apple",
            "id": "4685687199556148948"
          }
        ],
        "created": "2026-05-20",
        "updated": "2026-07-20",
        "hours": {
          "raw": "Mo-Th 14:00-24:00, Fr,Sa 14:00-02:00, Su,PH 11:00-23:00"
        },
        "sources_by_field": {
          "name": "osm",
          "address.street": "osm",
          "address.number": "osm",
          "address.postalcode": "osm",
          "address.city": "osm",
          "hours": "osm"
        },
        "payment": {
          "cards": "no",
          "contactless": "yes",
          "girocard": "yes"
        }
      }
    },
    {
      "type": "Feature",
      "geometry": {
        "type": "Point",
        "coordinates": [
          11.0375234,
          50.9742111
        ]
      },
      "properties": {
        "id": "tk_ef_osm_n2580625258",
        "name": "Echo's Automatenshop",
        "address": {
          "street": "Schmidtstedter Straße",
          "number": "12",
          "postalcode": "99084",
          "city": "Erfurt"
        },
        "sources": [
          {
            "type": "osm",
            "id": "node/2580625258",
            "version": 0
          },
          {
            "type": "gmaps",
            "id": "payment"
          },
          {
            "type": "apple",
            "id": "9556986516743758277"
          }
        ],
        "created": "2026-05-20",
        "updated": "2026-07-20",
        "sources_by_field": {
          "name": "osm",
          "address.street": "osm",
          "address.number": "osm",
          "address.postalcode": "osm",
          "address.city": "osm"
        },
        "hours": {
          "raw": "Mo-Su 00:00-24:00"
        },
        "payment": {
          "cards": "no",
          "contactless": "yes",
          "girocard": "yes"
        }
      }
    },
    {
      "type": "Feature",
      "geometry": {
        "type": "Point",
        "coordinates": [
          11.6091966,
          50.8924491
        ]
      },
      "properties": {
        "id": "tk_ef_osm_n2997101450",
        "name": "Roßa Getränkequelle",
        "address": {
          "street": "Nikolaus-Theiner-Straße",
          "number": "1",
          "postalcode": "07747",
          "city": "Jena"
        },
        "sources": [
          {
            "type": "osm",
            "id": "node/2997101450",
            "version": 0
          },
          {
            "type": "apple",
            "id": "822564367702379543"
          },
          {
            "type": "gmaps",
            "id": "ChIJiZbcMdiupkcRNVliDV4uGn4"
          }
        ],
        "created": "2026-05-20",
        "updated": "2026-07-20",
        "sources_by_field": {
          "name": "osm",
          "address.street": "osm",
          "address.number": "osm",
          "address.postalcode": "osm",
          "address.city": "osm"
        },
        "apple_attempted": "2026-06-26",
        "google_attempted": "2026-06-21",
        "payment": {}
      }
    },
    {
      "type": "Feature",
      "geometry": {
        "type": "Point",
        "coordinates": [
          11.5094988,
          51.0333187
        ]
      },
      "properties": {
        "id": "tk_ef_osm_n3059742381",
        "name": "Tabak-Börse",
        "address": {
          "street": "Leutloffstraße",
          "number": "44",
          "postalcode": "99510",
          "city": "Apolda"
        },
        "sources": [
          {
            "type": "osm",
            "id": "node/3059742381",
            "version": 0
          },
          {
            "type": "gmaps",
            "id": "payment"
          }
        ],
        "created": "2026-05-20",
        "updated": "2026-07-20",
        "sources_by_field": {
          "name": "osm"
        },
        "apple_id_attempted": "2026-06-21",
        "google_attempted": "2026-06-21",
        "payment": {
          "cards": "yes",
          "girocard": "yes"
        }
      }
    },
    {
      "type": "Feature",
      "geometry": {
        "type": "Point",
        "coordinates": [
          10.9362593,
          50.889485
        ]
      },
      "properties": {
        "id": "tk_ef_osm_n313516598",
        "name": "Ortlepp",
        "address": {
          "street": "Thöreyer Straße",
          "number": "2b",
          "postalcode": "99334",
          "city": "Amt Wachsenburg",
          "district": "Thörey"
        },
        "sources": [
          {
            "type": "osm",
            "id": "node/313516598",
            "version": 0
          },
          {
            "type": "gmaps",
            "id": "payment"
          }
        ],
        "created": "2026-05-20",
        "updated": "2026-07-06",
        "hours": {
          "raw": "Mo-Su 07:00-18:00"
        },
        "sources_by_field": {
          "name": "osm",
          "hours": "osm"
        },
        "apple_id_attempted": "2026-06-21",
        "payment": {
          "cards": "yes",
          "girocard": "yes"
        }
      }
    },
    {
      "type": "Feature",
      "geometry": {
        "type": "Point",
        "coordinates": [
          11.5848528,
          50.9256776
        ]
      },
      "properties": {
        "id": "tk_ef_osm_n3158732849",
        "name": "Trink Stube",
        "address": {
          "street": "Neugasse",
          "number": "7",
          "postalcode": "07743",
          "city": "Jena"
        },
        "sources": [
          {
            "type": "osm",
            "id": "node/3158732849",
            "version": 0
          },
          {
            "type": "gmaps",
            "id": "payment"
          }
        ],
        "created": "2026-05-20",
        "updated": "2026-07-20",
        "sources_by_field": {
          "name": "osm",
          "address.street": "osm",
          "address.number": "osm",
          "address.postalcode": "osm",
          "address.city": "osm"
        },
        "apple_id_attempted": "2026-06-21",
        "google_attempted": "2026-06-21",
        "payment": {
          "cards": "no",
          "contactless": "yes",
          "girocard": "yes"
        }
      }
    },
    {
      "type": "Feature",
      "geometry": {
        "type": "Point",
        "coordinates": [
          11.0270891,
          50.9779432
        ]
      },
      "properties": {
        "id": "tk_ef_osm_n3393718882",
        "name": "Tabakshop Berlin",
        "address": {
          "street": "Marktstraße",
          "number": "47",
          "postalcode": "99084",
          "city": "Erfurt",
          "district": "Altstadt"
        },
        "sources": [
          {
            "type": "osm",
            "id": "node/3393718882",
            "version": 0
          },
          {
            "type": "gmaps",
            "id": "payment"
          },
          {
            "type": "apple",
            "id": "17290931835139829973"
          }
        ],
        "created": "2026-05-20",
        "updated": "2026-07-20",
        "hours": {
          "raw": "Mo-Fr 09:00-18:00; Sa 09:00-15:00"
        },
        "sources_by_field": {
          "name": "osm",
          "hours": "osm"
        },
        "payment": {
          "cards": "no",
          "contactless": "yes",
          "girocard": "yes"
        }
      }
    },
    {
      "type": "Feature",
      "geometry": {
        "type": "Point",
        "coordinates": [
          11.5996912,
          50.9289481
        ]
      },
      "properties": {
        "id": "tk_ef_osm_n4172601851",
        "name": "Späti-Lounge CT-Karli",
        "address": {
          "street": "Karl-Liebknecht-Straße",
          "number": "12",
          "postalcode": "07749",
          "city": "Jena"
        },
        "sources": [
          {
            "type": "osm",
            "id": "node/4172601851",
            "version": 0
          },
          {
            "type": "gmaps",
            "id": "ChIJbVs2k-WppkcRMF-rwAywfAg"
          }
        ],
        "created": "2026-05-20",
        "updated": "2026-07-20",
        "hours": {
          "raw": "Tu 17:00-23:00; Th 17:00-23:00; Fr 17:00-23:00; We 17:00-23:00; Mo 17:00-23:00; Sa 17:00-23:00; Su 11:00-23:00"
        },
        "tags": [
          "barrierefrei"
        ],
        "sources_by_field": {
          "name": "osm",
          "address.street": "osm",
          "address.number": "osm",
          "address.postalcode": "osm",
          "address.city": "osm",
          "hours": "google"
        },
        "apple_id_attempted": "2026-06-21",
        "google_attempted": "2026-06-21",
        "payment": {}
      }
    },
    {
      "type": "Feature",
      "geometry": {
        "type": "Point",
        "coordinates": [
          11.3231475,
          50.97734
        ]
      },
      "properties": {
        "id": "tk_ef_osm_n4488876815",
        "name": "Getränktefachmarkt Ronald Bock",
        "address": {
          "street": "Prellerstraße",
          "number": "1",
          "postalcode": "99423",
          "city": "Weimar",
          "district": "Westvorstadt"
        },
        "sources": [
          {
            "type": "osm",
            "id": "node/4488876815",
            "version": 0
          },
          {
            "type": "gmaps",
            "id": "ChIJV2izwsUapEcRmJ7wVoQ2kXo"
          }
        ],
        "created": "2026-05-20",
        "updated": "2026-07-20",
        "hours": {
          "raw": "Tu 12:00-00:00; Th 12:00-00:00; Fr 12:00-00:00; We 12:00-00:00; Mo 12:00-00:00; Sa 12:00-00:00; Su 12:00-00:15"
        },
        "sources_by_field": {
          "name": "osm",
          "hours": "google"
        },
        "apple_id_attempted": "2026-06-21",
        "google_attempted": "2026-06-21",
        "payment": {
          "cash": "yes"
        }
      }
    },
    {
      "type": "Feature",
      "geometry": {
        "type": "Point",
        "coordinates": [
          11.5935876,
          50.8995004
        ]
      },
      "properties": {
        "id": "tk_ef_osm_n5286317451",
        "name": "Kiosk Cigo",
        "address": {
          "street": "Keßlerstraße",
          "number": "12",
          "postalcode": "07745",
          "city": "Jena"
        },
        "sources": [
          {
            "type": "osm",
            "id": "node/5286317451",
            "version": 0
          },
          {
            "type": "gmaps",
            "id": "payment"
          }
        ],
        "created": "2026-05-20",
        "updated": "2026-07-20",
        "hours": {
          "raw": "Mo-Sa 08:00-19:00"
        },
        "tags": [
          "barrierefrei"
        ],
        "sources_by_field": {
          "name": "osm",
          "address.street": "osm",
          "address.number": "osm",
          "address.postalcode": "osm",
          "address.city": "osm",
          "hours": "osm"
        },
        "apple_id_attempted": "2026-06-21",
        "payment": {
          "cards": "no",
          "contactless": "yes",
          "girocard": "yes"
        }
      }
    },
    {
      "type": "Feature",
      "geometry": {
        "type": "Point",
        "coordinates": [
          11.5874648,
          50.9273823
        ]
      },
      "properties": {
        "id": "tk_ef_osm_n5348874754",
        "name": "E-Wolf OHG",
        "address": {
          "street": "Sonnenhof",
          "number": "1",
          "postalcode": "07743",
          "city": "Jena"
        },
        "sources": [
          {
            "type": "osm",
            "id": "node/5348874754",
            "version": 0
          },
          {
            "type": "gmaps",
            "id": "payment"
          },
          {
            "type": "apple",
            "id": "1299212043567924186"
          }
        ],
        "created": "2026-05-20",
        "updated": "2026-07-20",
        "hours": {
          "raw": "Mo-Fr 07:00-18:00; Sa 08:00-14:00"
        },
        "tags": [
          "barrierefrei"
        ],
        "sources_by_field": {
          "name": "osm",
          "address.street": "osm",
          "address.number": "osm",
          "address.postalcode": "osm",
          "address.city": "osm",
          "hours": "osm"
        },
        "payment": {
          "cards": "yes",
          "contactless": "yes",
          "girocard": "yes"
        }
      }
    },
    {
      "type": "Feature",
      "geometry": {
        "type": "Point",
        "coordinates": [
          11.0150932,
          50.8783542
        ]
      },
      "properties": {
        "id": "tk_ef_osm_n5475150586",
        "name": "Tankstelle Fahrzeug Service GmbH",
        "address": {
          "street": "Eischlebener Weg",
          "number": "2",
          "postalcode": "99334",
          "city": "Amt Wachsenburg",
          "district": "Kirchheim"
        },
        "sources": [
          {
            "type": "osm",
            "id": "node/5475150586",
            "version": 0
          },
          {
            "type": "gmaps",
            "id": "payment"
          },
          {
            "type": "apple",
            "id": "14643472516418494992"
          }
        ],
        "created": "2026-05-20",
        "updated": "2026-07-20",
        "sources_by_field": {
          "name": "osm",
          "address.street": "osm",
          "address.number": "osm",
          "address.postalcode": "osm",
          "address.city": "osm",
          "address.district": "osm"
        },
        "hours": {
          "raw": "Mo-Fr 06:00-19:00; Sa 07:00-14:00; Su 08:00-12:00"
        },
        "payment": {
          "cards": "no",
          "contactless": "yes",
          "girocard": "yes"
        }
      }
    },
    {
      "type": "Feature",
      "geometry": {
        "type": "Point",
        "coordinates": [
          11.5826713,
          50.9294886
        ]
      },
      "properties": {
        "id": "tk_ef_osm_n5838180581",
        "name": "City Drinks",
        "address": {
          "street": "Johannisplatz",
          "number": "13",
          "postalcode": "07743",
          "city": "Jena",
          "district": "Zentrum"
        },
        "sources": [
          {
            "type": "osm",
            "id": "node/5838180581",
            "version": 0
          },
          {
            "type": "gmaps",
            "id": "ChIJLSPLzfippkcRgt5fRQfN_sQ"
          }
        ],
        "created": "2026-05-20",
        "updated": "2026-07-20",
        "tags": [
          "barrierefrei"
        ],
        "sources_by_field": {
          "name": "osm",
          "hours": "google"
        },
        "apple_id_attempted": "2026-06-21",
        "google_attempted": "2026-06-21",
        "hours": {
          "raw": "Tu 16:00-00:00; Th 16:00-00:00; Fr 15:00-03:00; We 16:00-00:00; Mo 16:00-00:00; Sa 15:00-03:00; Su 13:00-00:00"
        },
        "payment": {
          "cards": "no",
          "contactless": "yes",
          "girocard": "yes"
        }
      }
    },
    {
      "type": "Feature",
      "geometry": {
        "type": "Point",
        "coordinates": [
          11.3212291,
          50.9800357
        ]
      },
      "properties": {
        "id": "tk_ef_osm_n5884470672",
        "name": "Nachtsaktiv",
        "address": {
          "street": "Erfurter Straße",
          "number": "15",
          "postalcode": "99423",
          "city": "Weimar",
          "district": "Westvorstadt"
        },
        "sources": [
          {
            "type": "osm",
            "id": "node/5884470672",
            "version": 0
          },
          {
            "type": "gmaps",
            "id": "payment"
          },
          {
            "type": "apple",
            "id": "9577776896683834260"
          }
        ],
        "created": "2026-05-20",
        "updated": "2026-07-20",
        "hours": {
          "raw": "Tu-Th 19:30-02:00, Fr,Sa 19:30-03:00, Su,PH 14:30-02:00"
        },
        "sources_by_field": {
          "name": "osm",
          "hours": "osm"
        },
        "payment": {
          "cards": "no",
          "contactless": "yes",
          "girocard": "yes"
        }
      }
    },
    {
      "type": "Feature",
      "geometry": {
        "type": "Point",
        "coordinates": [
          11.5835928,
          50.9267452
        ]
      },
      "properties": {
        "id": "tk_ef_osm_n624293784",
        "name": "Fat Lady",
        "address": {
          "street": "Engelplatz",
          "number": "10",
          "postalcode": "07743",
          "city": "Jena"
        },
        "sources": [
          {
            "type": "osm",
            "id": "node/624293784",
            "version": 0
          },
          {
            "type": "gmaps",
            "id": "payment"
          }
        ],
        "created": "2026-05-20",
        "updated": "2026-07-20",
        "hours": {
          "raw": "Mo-Fr 07:00-20:00; Sa 10:00-20:00"
        },
        "sources_by_field": {
          "name": "osm",
          "address.street": "osm",
          "address.number": "osm",
          "address.postalcode": "osm",
          "address.city": "osm",
          "hours": "osm"
        },
        "apple_id_attempted": "2026-06-21",
        "payment": {
          "cards": "yes",
          "girocard": "yes"
        }
      }
    },
    {
      "type": "Feature",
      "geometry": {
        "type": "Point",
        "coordinates": [
          11.5722962,
          50.9316657
        ]
      },
      "properties": {
        "id": "tk_ef_osm_n627350643",
        "name": "Getränkeabholmarkt Koppe",
        "address": {
          "street": "August-Bebel-Straße",
          "number": "29",
          "postalcode": "07743",
          "city": "Jena"
        },
        "sources": [
          {
            "type": "osm",
            "id": "node/627350643",
            "version": 0
          },
          {
            "type": "gmaps",
            "id": "payment"
          }
        ],
        "created": "2026-05-20",
        "updated": "2026-07-20",
        "hours": {
          "raw": "Mo-Fr 08:00-19:00; Sa 08:00-14:00"
        },
        "sources_by_field": {
          "name": "osm",
          "address.street": "osm",
          "address.number": "osm",
          "address.postalcode": "osm",
          "address.city": "osm",
          "hours": "osm"
        },
        "apple_id_attempted": "2026-06-21",
        "payment": {
          "cards": "no",
          "contactless": "yes",
          "girocard": "yes"
        }
      }
    },
    {
      "type": "Feature",
      "geometry": {
        "type": "Point",
        "coordinates": [
          11.034695,
          50.9791667
        ]
      },
      "properties": {
        "id": "tk_ef_osm_n6824065230",
        "name": "Drinks",
        "address": {
          "street": "Johannesstraße",
          "number": "7a",
          "postalcode": "99084",
          "city": "Erfurt",
          "district": "Altstadt"
        },
        "sources": [
          {
            "type": "osm",
            "id": "node/6824065230",
            "version": 0
          },
          {
            "type": "gmaps",
            "id": "payment"
          }
        ],
        "created": "2026-05-20",
        "updated": "2026-07-20",
        "sources_by_field": {
          "name": "osm"
        },
        "apple_id_attempted": "2026-06-21",
        "google_attempted": "2026-06-21",
        "payment": {
          "cards": "no",
          "contactless": "yes",
          "girocard": "yes"
        }
      }
    },
    {
      "type": "Feature",
      "geometry": {
        "type": "Point",
        "coordinates": [
          11.6331764,
          51.0941878
        ]
      },
      "properties": {
        "id": "tk_ef_osm_n6832135799",
        "name": "Ihr Einkauf am Bahnhof",
        "address": {
          "street": "Naumburger Straße",
          "number": "1",
          "postalcode": "99518",
          "city": "Bad Sulza",
          "district": "Sonnendorf"
        },
        "sources": [
          {
            "type": "osm",
            "id": "node/6832135799",
            "version": 0
          },
          {
            "type": "gmaps",
            "id": "payment"
          },
          {
            "type": "apple",
            "id": "13667233683527466892"
          }
        ],
        "created": "2026-05-20",
        "updated": "2026-07-20",
        "hours": {
          "raw": "Tu-Fr 07:00-17:00; Sa 07:00-12:00; PH closed; Mo 07:00-13:00"
        },
        "sources_by_field": {
          "name": "osm",
          "hours": "osm"
        },
        "payment": {
          "cards": "no",
          "contactless": "yes",
          "girocard": "yes"
        }
      }
    },
    {
      "type": "Feature",
      "geometry": {
        "type": "Point",
        "coordinates": [
          11.0033175,
          51.0059455
        ]
      },
      "properties": {
        "id": "tk_ef_osm_n7410030446",
        "name": "MGM Nord",
        "address": {
          "street": "Berliner Platz",
          "number": "9",
          "postalcode": "99091"
        },
        "sources": [
          {
            "type": "osm",
            "id": "node/7410030446",
            "version": 0
          },
          {
            "type": "apple",
            "id": "3175269724743594700"
          }
        ],
        "created": "2026-05-20",
        "updated": "2026-07-20",
        "hours": {
          "raw": "Mo-Th 11:00-24:00, Fr 11:00-01:00, Sa 10:00-01:00, Su 10:00-24:00"
        },
        "payment": {
          "cash": "yes",
          "cards": "yes",
          "contactless": "unknown",
          "girocard": "unknown"
        },
        "sources_by_field": {
          "name": "osm",
          "address.street": "osm",
          "address.number": "osm",
          "address.postalcode": "osm",
          "hours": "osm",
          "payment.cash": "osm",
          "payment.cards": "osm",
          "payment.contactless": "osm",
          "payment.girocard": "osm"
        }
      }
    },
    {
      "type": "Feature",
      "geometry": {
        "type": "Point",
        "coordinates": [
          11.5810571,
          50.9252731
        ]
      },
      "properties": {
        "id": "tk_ef_osm_n7525288584",
        "name": "Casual Trottoir",
        "address": {
          "street": "Westbahnhofstraße",
          "number": "4",
          "postalcode": "07745",
          "city": "Jena"
        },
        "sources": [
          {
            "type": "osm",
            "id": "node/7525288584",
            "version": 0
          },
          {
            "type": "apple",
            "id": "4322148587846144922"
          }
        ],
        "created": "2026-05-20",
        "updated": "2026-07-20",
        "hours": {
          "raw": "Mo-Th 13:00-24:00, Su 11:00-22:30, Fr,Sa 13:00-01:00"
        },
        "payment": {
          "cash": "unknown",
          "cards": "yes",
          "contactless": "unknown",
          "girocard": "unknown"
        },
        "sources_by_field": {
          "name": "osm",
          "address.street": "osm",
          "address.number": "osm",
          "address.postalcode": "osm",
          "address.city": "osm",
          "hours": "osm",
          "payment.cash": "osm",
          "payment.cards": "osm",
          "payment.contactless": "osm",
          "payment.girocard": "osm"
        }
      }
    },
    {
      "type": "Feature",
      "geometry": {
        "type": "Point",
        "coordinates": [
          11.5849184,
          50.9219708
        ]
      },
      "properties": {
        "id": "tk_ef_osm_n7775392544",
        "name": "ParadiesCafe",
        "address": {
          "street": "Vor dem Neutor",
          "number": "5",
          "postalcode": "07743",
          "city": "Jena",
          "district": "Zentrum"
        },
        "sources": [
          {
            "type": "osm",
            "id": "node/7775392544",
            "version": 0
          },
          {
            "type": "gmaps",
            "id": "payment"
          }
        ],
        "created": "2026-05-20",
        "updated": "2026-07-20",
        "hours": {
          "raw": "Mo-Fr 14:30-18:30+; Sa,Su 13:00-18:30+"
        },
        "sources_by_field": {
          "name": "osm",
          "hours": "osm"
        },
        "apple_id_attempted": "2026-06-21",
        "payment": {
          "cards": "yes",
          "girocard": "yes"
        }
      }
    },
    {
      "type": "Feature",
      "geometry": {
        "type": "Point",
        "coordinates": [
          11.0395918,
          50.9800718
        ]
      },
      "properties": {
        "id": "tk_ef_osm_n8072461708",
        "name": "Durst?Löscher!",
        "address": {
          "street": "Schmidtstedter Ufer",
          "number": "29",
          "postalcode": "99084",
          "city": "Erfurt",
          "district": "Altstadt"
        },
        "sources": [
          {
            "type": "osm",
            "id": "node/8072461708",
            "version": 0
          },
          {
            "type": "gmaps",
            "id": "payment"
          },
          {
            "type": "apple",
            "id": "16344305419775835255"
          }
        ],
        "created": "2026-05-20",
        "updated": "2026-07-20",
        "hours": {
          "raw": "Mo-Sa 14:00-24:00; Su 14:00-22:00"
        },
        "sources_by_field": {
          "name": "osm",
          "hours": "osm"
        },
        "payment": {
          "cards": "yes"
        }
      }
    },
    {
      "type": "Feature",
      "geometry": {
        "type": "Point",
        "coordinates": [
          11.2120108,
          51.0767919
        ]
      },
      "properties": {
        "id": "tk_ef_osm_n9125856046",
        "name": "Klemin GmbH Getränkefachgroßhandel & Zeltverleih",
        "address": {
          "street": "Am Wege nach Ballstedt",
          "number": "5c",
          "postalcode": "99439",
          "city": "Am Ettersberg",
          "district": "Vippachedelhausen"
        },
        "sources": [
          {
            "type": "osm",
            "id": "node/9125856046",
            "version": 0
          },
          {
            "type": "gmaps",
            "id": "ChIJmU6T720VpEcRCnNRU7dMxpM"
          }
        ],
        "created": "2026-05-20",
        "updated": "2026-07-20",
        "hours": {
          "raw": "Mo-Fr 08:00-18:30, Sa 10:00-12:00"
        },
        "sources_by_field": {
          "name": "osm",
          "hours": "osm"
        },
        "apple_id_attempted": "2026-06-21",
        "google_attempted": "2026-06-21",
        "payment": {}
      }
    },
    {
      "type": "Feature",
      "geometry": {
        "type": "Point",
        "coordinates": [
          11.3241979,
          50.9931077
        ]
      },
      "properties": {
        "id": "tk_ef_osm_n9169226755",
        "name": "Sagasser",
        "address": {
          "street": "Rießnerstraße",
          "number": "29",
          "postalcode": "99427",
          "city": "Weimar"
        },
        "sources": [
          {
            "type": "osm",
            "id": "node/9169226755",
            "version": 0
          },
          {
            "type": "gmaps",
            "id": "payment"
          }
        ],
        "created": "2026-05-20",
        "updated": "2026-06-15",
        "hours": {
          "raw": "Mo-Fr 08:00-20:00; Sa 08:00-18:00; PH off"
        },
        "tags": [
          "barrierefrei"
        ],
        "sources_by_field": {
          "name": "osm",
          "address.street": "osm",
          "address.number": "osm",
          "address.postalcode": "osm",
          "address.city": "osm",
          "hours": "osm"
        },
        "apple_id_attempted": "2026-06-21",
        "payment": {
          "cards": "no",
          "contactless": "yes",
          "girocard": "yes"
        }
      }
    },
    {
      "type": "Feature",
      "geometry": {
        "type": "Point",
        "coordinates": [
          11.004909,
          51.003455
        ]
      },
      "properties": {
        "id": "tk_ef_osm_n9308375104",
        "name": "Mengis Habesha",
        "address": {
          "street": "Berliner Platz",
          "number": "3",
          "postalcode": "99091",
          "city": "Erfurt"
        },
        "sources": [
          {
            "type": "osm",
            "id": "node/9308375104",
            "version": 0
          },
          {
            "type": "apple",
            "id": "10917422720126679240"
          }
        ],
        "created": "2026-05-20",
        "updated": "2026-07-20",
        "sources_by_field": {
          "name": "osm",
          "address.street": "osm",
          "address.number": "osm",
          "address.postalcode": "osm",
          "address.city": "osm"
        },
        "hours": {
          "raw": "Su 00:00-04:00,12:00-24:00; Mo-Th 14:00-23:00; Fr 14:00-24:00; Sa 00:00-04:00,13:00-24:00"
        },
        "payment": {
          "cards": "yes",
          "contactless": "yes"
        }
      }
    },
    {
      "type": "Feature",
      "geometry": {
        "type": "Point",
        "coordinates": [
          11.0270756,
          50.9876057
        ]
      },
      "properties": {
        "id": "tk_ef_osm_n9790794660",
        "name": "Durst?Löscher! EF Getränkeshop",
        "address": {
          "street": "Magdeburger Allee",
          "number": "9",
          "postalcode": "99086",
          "city": "Erfurt",
          "district": "Andreasvorstadt"
        },
        "sources": [
          {
            "type": "osm",
            "id": "node/9790794660",
            "version": 0
          },
          {
            "type": "gmaps",
            "id": "payment"
          }
        ],
        "created": "2026-05-20",
        "updated": "2026-07-20",
        "hours": {
          "raw": "Mo-Sa 14:00-24:00; Su 14:00-22:00"
        },
        "sources_by_field": {
          "name": "osm",
          "hours": "osm"
        },
        "apple_id_attempted": "2026-06-21",
        "payment": {
          "cards": "yes",
          "girocard": "yes"
        }
      }
    },
    {
      "type": "Feature",
      "geometry": {
        "type": "Point",
        "coordinates": [
          11.0279539,
          50.9860128
        ]
      },
      "properties": {
        "id": "tk_ef_osm_n9796877190",
        "name": "Kiosk am Talknoten",
        "address": {
          "street": "Johannesstraße",
          "number": "85",
          "postalcode": "99084",
          "city": "Erfurt",
          "district": "Altstadt"
        },
        "sources": [
          {
            "type": "osm",
            "id": "node/9796877190",
            "version": 0
          },
          {
            "type": "gmaps",
            "id": "payment"
          }
        ],
        "created": "2026-05-20",
        "updated": "2026-07-20",
        "hours": {
          "raw": "Mo-Su 12:00-24:00"
        },
        "tags": [
          "barrierefrei"
        ],
        "sources_by_field": {
          "name": "osm",
          "hours": "osm"
        },
        "apple_id_attempted": "2026-06-21",
        "payment": {
          "cards": "yes"
        }
      }
    },
    {
      "type": "Feature",
      "geometry": {
        "type": "Point",
        "coordinates": [
          11.0335282,
          50.9783212
        ]
      },
      "properties": {
        "id": "tk_ef_osm_n9823652200",
        "name": "Tonis Getränkeshop",
        "address": {
          "street": "Meienbergstraße",
          "number": "23",
          "postalcode": "99084",
          "city": "Erfurt",
          "district": "Altstadt"
        },
        "sources": [
          {
            "type": "osm",
            "id": "node/9823652200",
            "version": 0
          },
          {
            "type": "gmaps",
            "id": "ChIJIxLxxb1ypEcRjdtdHZQW5mA"
          }
        ],
        "created": "2026-05-20",
        "updated": "2026-07-20",
        "sources_by_field": {
          "name": "osm",
          "hours": "google"
        },
        "apple_id_attempted": "2026-06-21",
        "google_attempted": "2026-06-21",
        "hours": {
          "raw": "Tu 15:00-00:00; Th 15:00-00:00; Fr 15:00-02:00; We 15:00-00:00; Mo 15:00-00:00; Sa 15:00-02:00; Su 13:00-23:00"
        },
        "payment": {
          "cards": "yes",
          "girocard": "yes"
        }
      }
    },
    {
      "type": "Feature",
      "geometry": {
        "type": "Point",
        "coordinates": [
          11.4146661,
          50.9813841
        ]
      },
      "properties": {
        "id": "tk_ef_osm_w318198929",
        "name": "Getränkehandel Koppe",
        "address": {
          "street": "Im Gewerbepark",
          "number": "26",
          "postalcode": "99441",
          "city": "Umpferstedt"
        },
        "sources": [
          {
            "type": "osm",
            "id": "way/318198929",
            "version": 0
          },
          {
            "type": "apple",
            "id": "6934721551845351857"
          }
        ],
        "created": "2026-05-20",
        "updated": "2026-07-20",
        "sources_by_field": {
          "name": "osm",
          "address.street": "osm",
          "address.number": "osm",
          "address.postalcode": "osm",
          "address.city": "osm"
        },
        "apple_attempted": "2026-06-26",
        "google_attempted": "2026-06-21",
        "payment": {
          "cards": "yes",
          "contactless": "yes"
        }
      }
    },
    {
      "type": "Feature",
      "geometry": {
        "type": "Point",
        "coordinates": [
          11.0373315,
          50.9722827
        ]
      },
      "properties": {
        "id": "tk_ef_osm_w520932798",
        "name": "Point",
        "address": {
          "street": "Bahnhofstraße",
          "number": "12",
          "postalcode": "99084",
          "city": "Erfurt",
          "district": "Altstadt"
        },
        "sources": [
          {
            "type": "osm",
            "id": "way/520932798",
            "version": 0
          },
          {
            "type": "gmaps",
            "id": "payment"
          }
        ],
        "created": "2026-05-20",
        "updated": "2026-07-20",
        "hours": {
          "raw": "Mo-Th 07:00-19:00; Fr 07:00-20:00; Sa,Su,PH 10:00-18:00"
        },
        "tags": [
          "barrierefrei"
        ],
        "sources_by_field": {
          "name": "osm",
          "hours": "osm"
        },
        "apple_id_attempted": "2026-06-21",
        "payment": {
          "cards": "no"
        }
      }
    },
    {
      "type": "Feature",
      "geometry": {
        "type": "Point",
        "coordinates": [
          11.0233985,
          50.9844408
        ]
      },
      "properties": {
        "id": "tk_ef_osm_n11302548738",
        "name": "Getränkewelt",
        "address": {
          "street": "Schlüterstraße",
          "number": "9"
        },
        "sources": [
          {
            "type": "osm",
            "id": "node/11302548738",
            "version": 0
          }
        ],
        "created": "2026-05-20",
        "updated": "2026-06-15",
        "hours": {
          "raw": "Mo-Fr 10:00-21:00; Sa 10:00-13:00,16:00-21:00; Su 16:00-21:00"
        },
        "payment": {
          "cash": "yes",
          "cards": "no",
          "contactless": "unknown",
          "girocard": "unknown"
        },
        "sources_by_field": {
          "name": "osm",
          "address.street": "osm",
          "address.number": "osm",
          "hours": "osm",
          "payment.cash": "osm",
          "payment.cards": "osm",
          "payment.contactless": "osm",
          "payment.girocard": "osm"
        },
        "apple_id_attempted": "2026-06-26",
        "osm_removed": true
      }
    },
    {
      "type": "Feature",
      "geometry": {
        "type": "Point",
        "coordinates": [
          11.0049132,
          51.0034483
        ]
      },
      "properties": {
        "id": "tk_ef_osm_n12066223715",
        "name": "Mengis Habesha",
        "address": {},
        "sources": [
          {
            "type": "osm",
            "id": "node/12066223715",
            "version": 0
          }
        ],
        "created": "2026-06-29",
        "updated": "2026-07-20",
        "hours": {
          "raw": "Mo-Th,Su 12:00-24:00; Fr 12:00-02:00, Sa 12:00-03:00"
        },
        "payment": {
          "cash": "yes",
          "cards": "yes",
          "contactless": "unknown",
          "girocard": "unknown"
        },
        "sources_by_field": {
          "name": "osm",
          "hours": "osm",
          "payment.cash": "osm",
          "payment.cards": "osm",
          "payment.contactless": "osm",
          "payment.girocard": "osm"
        },
        "apple_id_attempted": "2026-07-01"
      }
    },
    {
      "type": "Feature",
      "geometry": {
        "type": "Point",
        "coordinates": [
          11.288453,
          50.9801486
        ]
      },
      "properties": {
        "id": "tk_ef_osm_n1560665627",
        "name": "Höhe 304",
        "address": {},
        "sources": [
          {
            "type": "osm",
            "id": "node/1560665627",
            "version": 0
          }
        ],
        "created": "2026-05-20",
        "updated": "2026-07-20",
        "sources_by_field": {
          "name": "osm"
        },
        "apple_id_attempted": "2026-06-26",
        "google_attempted": "2026-06-26",
        "payment": {}
      }
    },
    {
      "type": "Feature",
      "geometry": {
        "type": "Point",
        "coordinates": [
          11.0433117,
          50.9646478
        ]
      },
      "properties": {
        "id": "tk_ef_osm_n1648686118",
        "name": "Tegut",
        "address": {},
        "sources": [
          {
            "type": "osm",
            "id": "node/1648686118",
            "version": 0
          }
        ],
        "created": "2026-05-20",
        "updated": "2026-07-20",
        "hours": {
          "raw": "Mo-Fr 07:00-21:00; Sa 07:00-20:00"
        },
        "payment": {
          "cash": "unknown",
          "cards": "yes",
          "contactless": "unknown",
          "girocard": "unknown"
        },
        "sources_by_field": {
          "name": "osm",
          "hours": "osm",
          "payment.cash": "osm",
          "payment.cards": "osm",
          "payment.contactless": "osm",
          "payment.girocard": "osm"
        },
        "apple_id_attempted": "2026-06-26"
      }
    },
    {
      "type": "Feature",
      "geometry": {
        "type": "Point",
        "coordinates": [
          11.5737287,
          50.8983077
        ]
      },
      "properties": {
        "id": "tk_ef_osm_n1690170483",
        "name": "Tabak-Lotto-Presse",
        "address": {
          "street": "Hermann-Pistor-Straße",
          "number": "33 a",
          "postalcode": "07745",
          "city": "Jena"
        },
        "sources": [
          {
            "type": "osm",
            "id": "node/1690170483",
            "version": 0
          }
        ],
        "created": "2026-05-20",
        "updated": "2026-07-20",
        "hours": {
          "raw": "Mo-Fr 07:00-18:00; Sa 08:00-12:00"
        },
        "sources_by_field": {
          "name": "osm",
          "address.street": "osm",
          "address.number": "osm",
          "address.postalcode": "osm",
          "address.city": "osm",
          "hours": "osm"
        },
        "apple_id_attempted": "2026-06-26",
        "google_attempted": "2026-06-26",
        "payment": {}
      }
    },
    {
      "type": "Feature",
      "geometry": {
        "type": "Point",
        "coordinates": [
          11.5824463,
          50.9298858
        ]
      },
      "properties": {
        "id": "tk_ef_osm_n2097306550",
        "name": "Earthship Jena",
        "address": {
          "street": "Wagnergasse",
          "number": "38",
          "postalcode": "07743",
          "city": "Jena"
        },
        "sources": [
          {
            "type": "osm",
            "id": "node/2097306550",
            "version": 0
          }
        ],
        "created": "2026-05-20",
        "updated": "2026-07-20",
        "sources_by_field": {
          "name": "osm",
          "address.street": "osm",
          "address.number": "osm",
          "address.postalcode": "osm",
          "address.city": "osm"
        },
        "apple_id_attempted": "2026-06-26",
        "google_attempted": "2026-06-26",
        "payment": {}
      }
    },
    {
      "type": "Feature",
      "geometry": {
        "type": "Point",
        "coordinates": [
          10.9985464,
          51.0083729
        ]
      },
      "properties": {
        "id": "tk_ef_osm_n2839015865",
        "name": "Sagasser",
        "address": {
          "street": "Moskauer Platz",
          "number": "20",
          "postalcode": "99091",
          "city": "Erfurt"
        },
        "sources": [
          {
            "type": "osm",
            "id": "node/2839015865",
            "version": 0
          }
        ],
        "created": "2026-05-20",
        "updated": "2026-06-15",
        "hours": {
          "raw": "Mo-Sa 08:00-20:00"
        },
        "payment": {
          "cash": "yes",
          "cards": "yes",
          "contactless": "unknown",
          "girocard": "unknown"
        },
        "tags": [
          "barrierefrei"
        ],
        "sources_by_field": {
          "name": "osm",
          "address.street": "osm",
          "address.number": "osm",
          "address.postalcode": "osm",
          "address.city": "osm",
          "hours": "osm",
          "payment.cash": "osm",
          "payment.cards": "osm",
          "payment.contactless": "osm",
          "payment.girocard": "osm"
        },
        "apple_id_attempted": "2026-06-26",
        "osm_removed": true
      }
    },
    {
      "type": "Feature",
      "geometry": {
        "type": "Point",
        "coordinates": [
          11.3249639,
          50.9815213
        ]
      },
      "properties": {
        "id": "tk_ef_osm_n3196694355",
        "name": "Auf die Schnelle",
        "address": {
          "street": "Goetheplatz",
          "number": "3-5"
        },
        "sources": [
          {
            "type": "osm",
            "id": "node/3196694355",
            "version": 0
          }
        ],
        "created": "2026-05-20",
        "updated": "2026-07-20",
        "hours": {
          "raw": "Mo-Fr 07:00-18:00; Sa 08:00-14:00"
        },
        "payment": {
          "cash": "unknown",
          "cards": "yes",
          "contactless": "unknown",
          "girocard": "unknown"
        },
        "sources_by_field": {
          "name": "osm",
          "address.street": "osm",
          "address.number": "osm",
          "hours": "osm",
          "payment.cash": "osm",
          "payment.cards": "osm",
          "payment.contactless": "osm",
          "payment.girocard": "osm"
        },
        "apple_id_attempted": "2026-06-26"
      }
    },
    {
      "type": "Feature",
      "geometry": {
        "type": "Point",
        "coordinates": [
          11.0252075,
          50.9770289
        ]
      },
      "properties": {
        "id": "tk_ef_osm_n3235859559",
        "name": "Eckert",
        "address": {
          "street": "Domplatz",
          "number": "17",
          "postalcode": "99084",
          "city": "Erfurt"
        },
        "sources": [
          {
            "type": "osm",
            "id": "node/3235859559",
            "version": 0
          }
        ],
        "created": "2026-05-20",
        "updated": "2026-07-20",
        "hours": {
          "raw": "Mo-Fr 06:00-18:30; Sa 07:00-14:00"
        },
        "payment": {
          "cash": "unknown",
          "cards": "yes",
          "contactless": "unknown",
          "girocard": "unknown"
        },
        "tags": [
          "barrierefrei"
        ],
        "sources_by_field": {
          "name": "osm",
          "address.street": "osm",
          "address.number": "osm",
          "address.postalcode": "osm",
          "address.city": "osm",
          "hours": "osm",
          "payment.cash": "osm",
          "payment.cards": "osm",
          "payment.contactless": "osm",
          "payment.girocard": "osm"
        },
        "apple_id_attempted": "2026-06-26"
      }
    },
    {
      "type": "Feature",
      "geometry": {
        "type": "Point",
        "coordinates": [
          10.9939537,
          51.0078157
        ]
      },
      "properties": {
        "id": "tk_ef_osm_n3472253150",
        "name": "Tabacon",
        "address": {
          "street": "Nordhäuser Straße",
          "number": "73t",
          "postalcode": "99091",
          "city": "Erfurt"
        },
        "sources": [
          {
            "type": "osm",
            "id": "node/3472253150",
            "version": 0
          }
        ],
        "created": "2026-05-20",
        "updated": "2026-07-20",
        "hours": {
          "raw": "Mo-Sa 07:00-20:00"
        },
        "sources_by_field": {
          "name": "osm",
          "address.street": "osm",
          "address.number": "osm",
          "address.postalcode": "osm",
          "address.city": "osm",
          "hours": "osm"
        },
        "apple_id_attempted": "2026-06-26",
        "google_attempted": "2026-06-26",
        "payment": {}
      }
    },
    {
      "type": "Feature",
      "geometry": {
        "type": "Point",
        "coordinates": [
          11.6046169,
          50.9470783
        ]
      },
      "properties": {
        "id": "tk_ef_osm_n3787713904",
        "name": "Markgrafen",
        "address": {
          "street": "Altenburger Straße",
          "number": "1",
          "postalcode": "07743",
          "city": "Jena"
        },
        "sources": [
          {
            "type": "osm",
            "id": "node/3787713904",
            "version": 0
          }
        ],
        "created": "2026-05-20",
        "updated": "2026-06-22",
        "hours": {
          "raw": "Mo-Fr 09:00-18:30; Sa 08:00-13:00"
        },
        "tags": [
          "barrierefrei"
        ],
        "sources_by_field": {
          "name": "osm",
          "address.street": "osm",
          "address.number": "osm",
          "address.postalcode": "osm",
          "address.city": "osm",
          "hours": "osm"
        },
        "apple_id_attempted": "2026-06-26",
        "google_attempted": "2026-06-26",
        "payment": {},
        "osm_removed": true
      }
    },
    {
      "type": "Feature",
      "geometry": {
        "type": "Point",
        "coordinates": [
          10.9984096,
          51.0091627
        ]
      },
      "properties": {
        "id": "tk_ef_osm_n3890553717",
        "name": "DHL Paketshop im Kiosk",
        "address": {
          "street": "Moskauer Platz",
          "number": "20",
          "postalcode": "99091",
          "city": "Erfurt"
        },
        "sources": [
          {
            "type": "osm",
            "id": "node/3890553717",
            "version": 0
          }
        ],
        "created": "2026-05-20",
        "updated": "2026-07-20",
        "payment": {
          "cash": "yes",
          "cards": "yes",
          "contactless": "unknown",
          "girocard": "unknown"
        },
        "sources_by_field": {
          "name": "osm",
          "address.street": "osm",
          "address.number": "osm",
          "address.postalcode": "osm",
          "address.city": "osm",
          "payment.cash": "osm",
          "payment.cards": "osm",
          "payment.contactless": "osm",
          "payment.girocard": "osm"
        },
        "apple_id_attempted": "2026-06-26",
        "google_attempted": "2026-06-26"
      }
    },
    {
      "type": "Feature",
      "geometry": {
        "type": "Point",
        "coordinates": [
          11.0667671,
          50.9943108
        ]
      },
      "properties": {
        "id": "tk_ef_osm_n428902786",
        "name": "Sagasser",
        "address": {
          "street": "Ernst-Neufert-Weg",
          "number": "1",
          "postalcode": "99085",
          "city": "Erfurt"
        },
        "sources": [
          {
            "type": "osm",
            "id": "node/428902786",
            "version": 0
          }
        ],
        "created": "2026-05-20",
        "updated": "2026-06-15",
        "hours": {
          "raw": "Mo-Fr 08:30-19:00, Sa 08:30-18:00"
        },
        "tags": [
          "barrierefrei"
        ],
        "sources_by_field": {
          "name": "osm",
          "address.street": "osm",
          "address.number": "osm",
          "address.postalcode": "osm",
          "address.city": "osm",
          "hours": "osm"
        },
        "apple_id_attempted": "2026-06-26",
        "google_attempted": "2026-06-26",
        "payment": {},
        "osm_removed": true
      }
    },
    {
      "type": "Feature",
      "geometry": {
        "type": "Point",
        "coordinates": [
          10.893118,
          50.9030582
        ]
      },
      "properties": {
        "id": "tk_ef_osm_n5211292421",
        "name": "Postels Getränkehof",
        "address": {
          "street": "Hainstraße",
          "number": "29",
          "postalcode": "99192",
          "city": "Nesse-Apfelstädt",
          "district": "Apfelstädt"
        },
        "sources": [
          {
            "type": "osm",
            "id": "node/5211292421",
            "version": 0
          }
        ],
        "created": "2026-05-20",
        "updated": "2026-07-20",
        "sources_by_field": {
          "name": "osm",
          "address.street": "osm",
          "address.number": "osm",
          "address.postalcode": "osm",
          "address.city": "osm",
          "address.district": "osm"
        },
        "apple_id_attempted": "2026-06-26",
        "google_attempted": "2026-06-26",
        "payment": {}
      }
    },
    {
      "type": "Feature",
      "geometry": {
        "type": "Point",
        "coordinates": [
          11.4208453,
          51.0114977
        ]
      },
      "properties": {
        "id": "tk_ef_osm_n5307294453",
        "name": "Hansi's Getränkehandel",
        "address": {},
        "sources": [
          {
            "type": "osm",
            "id": "node/5307294453",
            "version": 0
          }
        ],
        "created": "2026-05-20",
        "updated": "2026-07-20",
        "sources_by_field": {
          "name": "osm"
        },
        "apple_id_attempted": "2026-06-26",
        "google_attempted": "2026-06-26",
        "payment": {}
      }
    },
    {
      "type": "Feature",
      "geometry": {
        "type": "Point",
        "coordinates": [
          11.5091372,
          51.0203409
        ]
      },
      "properties": {
        "id": "tk_ef_osm_n5395232294",
        "name": "Bootshaus",
        "address": {
          "postalcode": "99510",
          "city": "Apolda"
        },
        "sources": [
          {
            "type": "osm",
            "id": "node/5395232294",
            "version": 0
          }
        ],
        "created": "2026-05-20",
        "updated": "2026-07-20",
        "sources_by_field": {
          "name": "osm",
          "address.postalcode": "osm",
          "address.city": "osm"
        },
        "apple_id_attempted": "2026-06-26",
        "google_attempted": "2026-06-26",
        "payment": {}
      }
    },
    {
      "type": "Feature",
      "geometry": {
        "type": "Point",
        "coordinates": [
          11.588422,
          50.9276522
        ]
      },
      "properties": {
        "id": "tk_ef_osm_n5851167010",
        "name": "k kiosk",
        "address": {},
        "sources": [
          {
            "type": "osm",
            "id": "node/5851167010",
            "version": 0
          }
        ],
        "created": "2026-07-20",
        "updated": "2026-07-20",
        "sources_by_field": {
          "name": "osm"
        }
      }
    },
    {
      "type": "Feature",
      "geometry": {
        "type": "Point",
        "coordinates": [
          11.3429353,
          50.8585618
        ]
      },
      "properties": {
        "id": "tk_ef_osm_n6181723523",
        "name": "Getränkeshop",
        "address": {
          "street": "August-Bebel-Straße",
          "number": "9",
          "postalcode": "99444",
          "city": "Blankenhain"
        },
        "sources": [
          {
            "type": "osm",
            "id": "node/6181723523",
            "version": 0
          }
        ],
        "created": "2026-05-20",
        "updated": "2026-07-20",
        "sources_by_field": {
          "name": "osm",
          "address.street": "osm",
          "address.number": "osm",
          "address.postalcode": "osm",
          "address.city": "osm"
        },
        "apple_id_attempted": "2026-06-26",
        "google_attempted": "2026-06-26",
        "payment": {}
      }
    },
    {
      "type": "Feature",
      "geometry": {
        "type": "Point",
        "coordinates": [
          11.0294718,
          50.9733927
        ]
      },
      "properties": {
        "id": "tk_ef_osm_n671401929",
        "name": "Lotto Toto Oblenz",
        "address": {},
        "sources": [
          {
            "type": "osm",
            "id": "node/671401929",
            "version": 0
          }
        ],
        "created": "2026-05-20",
        "updated": "2026-07-20",
        "hours": {
          "raw": "Mo-Fr 08:00-18:30; Sa 09:00-16:00"
        },
        "sources_by_field": {
          "name": "osm",
          "hours": "osm"
        },
        "apple_id_attempted": "2026-06-26",
        "google_attempted": "2026-06-26",
        "payment": {}
      }
    },
    {
      "type": "Feature",
      "geometry": {
        "type": "Point",
        "coordinates": [
          11.3267093,
          50.9755944
        ]
      },
      "properties": {
        "id": "tk_ef_osm_n685292660",
        "name": "McHempel",
        "address": {},
        "sources": [
          {
            "type": "osm",
            "id": "node/685292660",
            "version": 0
          }
        ],
        "created": "2026-05-20",
        "updated": "2026-07-20",
        "sources_by_field": {
          "name": "osm"
        },
        "apple_id_attempted": "2026-06-26",
        "google_attempted": "2026-06-26",
        "payment": {}
      }
    },
    {
      "type": "Feature",
      "geometry": {
        "type": "Point",
        "coordinates": [
          11.0358438,
          50.9774635
        ]
      },
      "properties": {
        "id": "tk_ef_osm_n7298891149",
        "name": "Dolce Vita",
        "address": {},
        "sources": [
          {
            "type": "osm",
            "id": "node/7298891149",
            "version": 0
          }
        ],
        "created": "2026-05-20",
        "updated": "2026-07-20",
        "hours": {
          "raw": "Mo-Sa 09:00-20:00"
        },
        "tags": [
          "barrierefrei",
          "sitzgelegenheiten"
        ],
        "sources_by_field": {
          "name": "osm",
          "hours": "osm"
        },
        "apple_id_attempted": "2026-06-26",
        "google_attempted": "2026-06-26",
        "payment": {}
      }
    },
    {
      "type": "Feature",
      "geometry": {
        "type": "Point",
        "coordinates": [
          11.5781832,
          50.9232593
        ]
      },
      "properties": {
        "id": "tk_ef_osm_w1141062166",
        "name": "k Presse und Buch",
        "address": {},
        "sources": [
          {
            "type": "osm",
            "id": "way/1141062166",
            "version": 0
          }
        ],
        "created": "2026-05-20",
        "updated": "2026-07-20",
        "hours": {
          "raw": "Sa-Tu 07:00-11:30,12:00-16:30; We-Fr 05:30-11:30,12:00-19:00"
        },
        "payment": {
          "cash": "unknown",
          "cards": "yes",
          "contactless": "unknown",
          "girocard": "unknown"
        },
        "sources_by_field": {
          "name": "osm",
          "hours": "osm",
          "payment.cash": "osm",
          "payment.cards": "osm",
          "payment.contactless": "osm",
          "payment.girocard": "osm"
        },
        "apple_id_attempted": "2026-06-26"
      }
    },
    {
      "type": "Feature",
      "geometry": {
        "type": "Point",
        "coordinates": [
          11.5809617,
          50.9116891
        ]
      },
      "properties": {
        "id": "tk_ef_osm_w153814518",
        "name": "Bieberbutze",
        "address": {},
        "sources": [
          {
            "type": "osm",
            "id": "way/153814518",
            "version": 0
          }
        ],
        "created": "2026-05-20",
        "updated": "2026-07-20",
        "sources_by_field": {
          "name": "osm"
        },
        "apple_id_attempted": "2026-06-26",
        "google_attempted": "2026-06-26",
        "payment": {}
      }
    },
    {
      "type": "Feature",
      "geometry": {
        "type": "Point",
        "coordinates": [
          11.0382599,
          50.9722737
        ]
      },
      "properties": {
        "id": "tk_ef_osm_w434905595",
        "name": "T.H. Kleen",
        "address": {},
        "sources": [
          {
            "type": "osm",
            "id": "way/434905595",
            "version": 0
          }
        ],
        "created": "2026-05-20",
        "updated": "2026-07-20",
        "hours": {
          "raw": "Mo-Fr 06:00-22:00; Sa,Su 07:30-22:00"
        },
        "payment": {
          "cash": "unknown",
          "cards": "yes",
          "contactless": "unknown",
          "girocard": "unknown"
        },
        "sources_by_field": {
          "name": "osm",
          "hours": "osm",
          "payment.cash": "osm",
          "payment.cards": "osm",
          "payment.contactless": "osm",
          "payment.girocard": "osm"
        },
        "apple_id_attempted": "2026-06-26"
      }
    },
    {
      "type": "Feature",
      "geometry": {
        "type": "Point",
        "coordinates": [
          11.3260184,
          50.9913179
        ]
      },
      "properties": {
        "id": "tk_ef_osm_w482271561",
        "name": "ServiceStore DB",
        "address": {},
        "sources": [
          {
            "type": "osm",
            "id": "way/482271561",
            "version": 0
          }
        ],
        "created": "2026-05-20",
        "updated": "2026-07-20",
        "hours": {
          "raw": "Mo-Fr 06:00-20:00; Sa 08:00-19:00; Su 08:00-20:00"
        },
        "tags": [
          "barrierefrei"
        ],
        "sources_by_field": {
          "name": "osm",
          "hours": "osm"
        },
        "apple_id_attempted": "2026-06-26",
        "google_attempted": "2026-06-26",
        "payment": {}
      }
    }
  ]
}
